keywords,city,Aggdata Store Number,store_number,address,state,zip_code
Jimmy John,Kalamazoo,3,3 #3,1128 West Michigan Avenue,MI,49008
Jimmy John,St. Paul,4,4 #4,975 Grand Avenue,MN,55105
Jimmy John,Marshall,7,7 #7,701 W. Main,WI,53559
Jimmy John,Ottawa,8,8 #8,1202 Columbus St.,IL,61350
Jimmy John,Ames,11,11 #11,135 Welch Ave.,IA,50014
Jimmy John,Peoria,17,17 #17,4700 North University Street,IL,61614
Jimmy John,Kalamazoo,18,18 #18,2623 West Michigan Avenue,MI,49006
Jimmy John,Chicago,19,19 #19,812 West Van Buren Avenue,IL,60661
Jimmy John,DeKalb,24,24 #24,850 Pappas Dr,IL,60115
Jimmy John,Peoria,27,27 #27,1121 West Main Street,IL,61606
Jimmy John,Peoria,28,28 #28,208 SW Adams,IL,61605
Jimmy John,Saginaw,31,31 #31,4342 Bay Road,MI,48603
Jimmy John,DeForest,32,32 #32,635 South Main Street,WI,53532
Jimmy John,Saginaw,33,33 #33,118 South Michigan Ave.,MI,48602
Jimmy John,Chicago,41,41 #41,3328 North Clark Street,IL,60657
Jimmy John,Lombard,43,43 #43,1235 South Main Street,IL,60148
Jimmy John,Evanston,44,44 #44,1729 Sherman Ave.,IL,60201
Jimmy John,Lake Mills,52,52 #52,148 Tyranena Park Ridge Rd,WI,53551
Jimmy John,Chicago,54,54 #54,46 East Chicago Avenue,IL,60611
Jimmy John,St. George,57,57 #57,930 South Bluff,UT,84770
Jimmy John,St. Louis,61,61 #61,12808 Olive Blvd.,MO,63141
Jimmy John,Fort Atkinson,67,67 #67,108 Madison Avenue,WI,53538
Jimmy John,Whitewater,68,68 #68,1139 West Main Street,WI,53190
Jimmy John,Sun Prairie,69,69 #69,21 Tower Drive,WI,53590
Jimmy John,Washington,73,73 #73,996 Manifold Road,PA,15301
Jimmy John,Lexington,75,75 #75,385 South Limestone,KY,40508
Jimmy John,Milwaukee,78,78 #78,3129 North Oakland Avenue,WI,53211
Jimmy John,Nashville,80,80 #80,2318 West End Avenue,TN,37203
Jimmy John,Utica,85,85 #85,2971 East 8th Street,IL,61373
Jimmy John,Beaver Dam,87,87 #87,803 Park Avenue,WI,53916
Jimmy John,Pekin,88,88 #88,1631 Broadway Avenue,IL,61554
Jimmy John,Carbondale,93,93 #93,515 1/2 South Illinois,IL,62901
Jimmy John,Ames,96,96 #96,4518 Mortensen Rd,IA,50014
Jimmy John,Joliet,97,97 #97,1108 Houbolt Road,IL,60431
Jimmy John,Indianapolis,98,98 #98,845 Broad Ripple Avenue,IN,46220
Jimmy John,St. George,100,100 #100,42 South River rd.,UT,84790
Jimmy John,St. George,102,102 #102,2376 E. Red Cliffs Dr.,UT,84790
Jimmy John,Naperville,104,104 #104,8 West Gartner,IL,60540
Jimmy John,Aurora,105,105 #105,549 South Route 59,IL,60504
Jimmy John,Lincoln,106,106 #106,101 North 14th,NE,68508
Jimmy John,Portage,112,112 #112,2643 Newpinery Road,WI,53901
Jimmy John,Milwaukee,113,113 #113,1532 West Wells Street,WI,53233
Jimmy John,Clinton,114,114 #114,12 Kelly Court,IL,61727
Jimmy John,Lincoln,115,115 #115,422 Keokuk Street,IL,62656
Jimmy John,Columbus,116,116 #116,2165 North High Street,OH,43214
Jimmy John,Columbus,117,117 #117,1860 North High Street,OH,43201
Jimmy John,Columbus,118,118 #118,1652 Neil Ave.,OH,43201
Jimmy John,Columbus,119,119 #119,851 West 5th Ave.,OH,43212
Jimmy John,Columbus,120,120 #120,1039 Polaris Parkway,OH,43240
Jimmy John,Worthington,121,121 #121,7172 N. High St,OH,43085
Jimmy John,Germantown,123,123 #123,N112 W16268 Mequon Road,WI,53022
Jimmy John,Mt. Pleasant,131,131 #131,1901 South Mission Street,MI,48858
Jimmy John,Jacksonville,134,134 #134,328 East Morton Avenue,IL,62650
Jimmy John,Springfield,135,135 #135,3128 South Sixth Street,IL,62703
Jimmy John,Springfield,136,136 #136,2925 W. Iles Ave.,IL,62704
Jimmy John,Springfield,137,137 #137,219 S. 6th St.,IL,62701
Jimmy John,Big Rapids,149,149 #149,21445 Perry Street,MI,49307
Jimmy John,Royal Oak,150,150 #150,413 South Main Street,MI,48067
Jimmy John,Chicago,156,156 #156,249 South State Street,IL,60604
Jimmy John,Schaumburg,157,157 #157,Woodfield Mall(G-135)-By Sears LL,IL,60173
Jimmy John,Quincy,158,158 #158,1828 Broadway,IL,62301
Jimmy John,Quincy,158,158 #158,1828 Broadway,MO,62301
Jimmy John,Pocatello,159,159 #159,625 South Fifth Street,ID,83201
Jimmy John,Indianapolis,161,161 #161,2624 Lake Circle Drive,IN,46268
Jimmy John,Columbia,162,162 #162,1019 East Broadway,MO,65201
Jimmy John,Peru,167,167 #167,1318 W. 38th Street,IL,61354
Jimmy John,Tallahassee,168,168 #168,1080 West Tennessee Street,FL,32304
Jimmy John,Tallahassee,169,169 #169,2047 W. Pensacola Street,FL,32304
Jimmy John,Tallahassee,170,170 #170,1925 Apalachee Pkwy.,FL,32301
Jimmy John,Tallahassee,171,171 #171,1890 Thomasville Rd,FL,32303
Jimmy John,Tallahassee,172,172 #172,1450 Timberlane Rd,FL,32312
Jimmy John,Alton,178,178 #178,92 North Port Drive,IL,62002
Jimmy John,Alton,178,178 #178,92 North Port Drive,MO,62002
Jimmy John,Athens,179,179 #179,16 South Court Street,OH,45701
Jimmy John,Lisle,181,181 #181,2801 E. Ogden Ave.,IL,60532
Jimmy John,Naperville,184,184 #184,1620 Pebblewood Lane,IL,60563
Jimmy John,Glen Ellyn,187,187 #187,850 Roosevelt Road,IL,60137
Jimmy John,St. Paul,188,188 #188,2053 Ford Parkway,MN,55116
Jimmy John,Minneapolis,189,189 #189,3001 Hennepin South,MN,55408
Jimmy John,Minneapolis,190,190 #190,88 South 9th Street,MN,55402
Jimmy John,Minneapolis,191,191 #191,600 Hennepin Ave. South,MN,55403
Jimmy John,Minneapolis,192,192 #192,200 6th Street South,MN,55402
Jimmy John,Clovis,193,193 #193,435 North Clovis Avenue,CA,93611
Jimmy John,Bridgeton,202,202 #202,13586 NW Industrial Drive,IL,63044
Jimmy John,Bridgeton,202,202 #202,13586 NW Industrial Drive,MO,63044
Jimmy John,St. Louis,203,203 #203,3822 Laclede Ave,IL,63108
Jimmy John,St. Louis,203,203 #203,3822 Laclede Ave,MO,63108
Jimmy John,University City,204,204 #204,6681 Delmar Blvd.,IL,63130
Jimmy John,University City,204,204 #204,6681 Delmar Blvd.,MO,63130
Jimmy John,St. Louis,205,205 #205,508 Pine St,IL,63101
Jimmy John,St. Louis,205,205 #205,508 Pine St,MO,63101
Jimmy John,Bowling Green,210,210 #210,1616 East Wooster Avenue,OH,43402
Jimmy John,Pittsburgh,215,215 #215,3444 Forbes Avenue,PA,15217
Jimmy John,Effingham,217,217 #217,401 N. Keller,IL,62401
Jimmy John,Indianapolis,220,220 #220,4825 East 96th,IN,46240
Jimmy John,Wayland,226,226 #226,1170 West Superior Street,MI,49348
Jimmy John,Roseville,227,227 #227,1631 County Road C,MN,55113
Jimmy John,Buffalo Grove,228,228 #228,1267 West Dundee Road,IL,60089
Jimmy John,Columbia,230,230 #230,912 Rainforest Parkway,MO,65202
Jimmy John,Rochester Hills,231,231 #231,1186 W. University Dr.,MI,48307
Jimmy John,Madison,232,232 #232,6130 Mineral Point Road,WI,53705
Jimmy John,Palatine,233,233 #233,774 Euclid Avenue,IL,60067
Jimmy John,Mequon,238,238 #238,11525 N. Port Washington Rd,WI,53092
Jimmy John,Chicago,244,244 #244,6153 North Broadway,IL,60640
Jimmy John,Detroit,245,245 #245,5118 Anthony Wayne,MI,48202
Jimmy John,Troy,246,246 #246,2881 West Maple Road,MI,48084
Jimmy John,Auburn Hills,247,247 #247,3976 Baldwin Rd.,MI,48326
Jimmy John,Madison Heights,248,248 #248,1535 E. 12 Mile Rd.,MI,48071
Jimmy John,Clawson,249,249 #249,1222 W. 14 Mile Rd.,MI,48017
Jimmy John,Hemlock,250,250 #250,251 West Saginaw Road,MI,48626
Jimmy John,Boulder,251,251 #251,1125 13th Street,CO,80302
Jimmy John,Minneapolis,255,255 #255,2037 Riverside Ave,MN,55454
Jimmy John,Minneapolis,256,256 #256,404 14th Ave SE,MN,55414
Jimmy John,Minneapolis,257,257 #257,1 W. Franklin Ave.,MN,55404
Jimmy John,St Louis Park,258,258 #258,8500 Highway 7,MN,55426
Jimmy John,St Louis Park,259,259 #259,5340 16th St.,MN,55416
Jimmy John,West Palm Beach,260,260 #260,330 Clematis Street,FL,33401
Jimmy John,Palm Beach Gardens,261,261 #261,3976 Northlake Blvd.,FL,33403
Jimmy John,Boca Raton,262,262 #262,861 Yamato Rd,FL,33431
Jimmy John,Boynton Beach,263,263 #263,1100 N. Congress,FL,33426
Jimmy John,Tinley Park,266,266 #266,15937 Harlem ave.,IL,60477
Jimmy John,Livonia,271,271 #271,37671 Six Mile Road,MI,48154
Jimmy John,Iowa City,272,272 #272,130 East Washington,IA,52240
Jimmy John,Homer Glen,273,273 #273,14110 Bell Road,IL,60491
Jimmy John,Milwaukee,276,276 #276,1344 East Brady Street,WI,53202
Jimmy John,O Fallon,277,277 #277,1171 North Greenmount Rd.,IL,62269
Jimmy John,West Des Moines,278,278 #278,1551 Valley West Drive,IA,50266
Jimmy John,Iowa City,279,279 #279,320 E. Benton St.,IA,52240
Jimmy John,Des Moines,280,280 #280,2416 University Ave.,IA,50311
Jimmy John,Des Moines,281,281 #281,3839 Merle Hay Rd,IA,50310
Jimmy John,West Des Moines,282,282 #282,5465 Mills Civic Parkway,IA,50266
Jimmy John,Spring Valley,283,283 #283,330 East Dakota Street,IL,61362
Jimmy John,Mattoon,284,284 #284,900 Charleston Avenue,IL,61938
Jimmy John,St. Paul,285,285 #285,2127 Old Hudson Rd.,MN,55106
Jimmy John,Sterling Heights,286,286 #286,40846 VanDyke,MI,48313
Jimmy John,Chicago,290,290 #290,520 N. Michigan Ave,IL,60611
Jimmy John,Niles,295,295 #295,5612 West Touhy Avenue,IL,60714
Jimmy John,Bay City,296,296 #296,719 Washington,MI,48708
Jimmy John,Schaumburg,300,300 #300,66 E. Golf Rd,IL,60173
Jimmy John,Rolling Meadows,301,301 #301,1317 Golf Rd,IL,60008
Jimmy John,Chicago,303,303 #303,1101 S. Canal St,IL,60606
Jimmy John,Falcon Heights,305,305 #305,1557 B Larpentuer,MN,55113
Jimmy John,North Canton,306,306 #306,2049 Easton St.,OH,44720
Jimmy John,Shelby Township,307,307 #307,50672 Schoenherr Road,MI,48315
Jimmy John,Sterling Heights,308,308 #308,36324 Van Dyke,MI,48312
Jimmy John,Macomb Township,309,309 #309,18357 Hall Rd.,MI,48044
Jimmy John,Fraser,310,310 #310,31205 Utica Rd,MI,48026
Jimmy John,Clinton Township,312,312 #312,42966 Hayes Rd,MI,48313
Jimmy John,Athens,313,313 #313,600 W. Baxter,GA,30605
Jimmy John,Las Vegas,326,326 #326,2204 W. Charleston,NV,89102
Jimmy John,Las Vegas,329,329 #329,7210 W. Lake Mead,NV,89128
Jimmy John,Las Vegas,330,330 #330,4800 S. Maryland,NV,89119
Jimmy John,Las Vegas,331,331 #331,5469 S. Rainbow Rd.,NV,89139
Jimmy John,Port St Lucie,333,333 #333,1111 SE Port St. Lucie Blvd.,FL,34952
Jimmy John,Knoxville,334,334 #334,1903 Cumberland,TN,37916
Jimmy John,Knoxville,335,335 #335,11055 Parkside Dr.,TN,37934
Jimmy John,Toledo,344,344 #344,405 Adams st.,MI,43604
Jimmy John,Toledo,344,344 #344,405 Adams st.,OH,43604
Jimmy John,Toledo,345,345 #345,1440 Secor Road,MI,43607
Jimmy John,Toledo,345,345 #345,1440 Secor Road,OH,43607
Jimmy John,College Park,348,348 #348,7410 A Baltimore Ave.,DC,20707
Jimmy John,College Park,348,348 #348,7410 A Baltimore Ave.,MD,20707
Jimmy John,College Park,348,348 #348,7410 A Baltimore Ave.,VA,20707
Jimmy John,Aurora,349,349 #349,1480 N. Orchard Dr,IL,60506
Jimmy John,Brookfield,350,350 #350,18900 Bluemound Rd.,WI,53045
Jimmy John,Howard,353,353 #353,430 Cardinal Lane,WI,54313
Jimmy John,Green Bay,354,354 #354,2101 S. Oneida St,WI,54304
Jimmy John,Green Bay,355,355 #355,1335 Main St.,WI,54302
Jimmy John,Green Bay,356,356 #356,2650 Eaton Rd.,WI,54311
Jimmy John,Pittsburgh,357,357 #357,506 Liberty Ave.,PA,15222
Jimmy John,Columbia,358,358 #358,212 Corporate Lake Dr.,MO,65203
Jimmy John,Valparaiso,359,359 #359,1608 East Lincolnway,IN,46383
Jimmy John,Ankeny,360,360 #360,1802 S.E. Delaware Avenue,IA,50021
Jimmy John,Plymouth,364,364 #364,770 Penniman Ave.,MI,48170
Jimmy John,Austin,365,365 #365,601 West Martin Luther King,TX,78701
Jimmy John,Lexington,366,366 #366,130 Tiverton Way,KY,40503
Jimmy John,Bolingbrook,368,368 #368,1236 W. Boughton Rd.,IL,60440
Jimmy John,Portage,370,370 #370,2547 Willow Creek Road,IN,46368
Jimmy John,Muncie,371,371 #371,506 N. Martin St.,IN,47303
Jimmy John,Holland,373,373 #373,12719 Riley St.,MI,49424
Jimmy John,Canton,374,374 #374,41806 Ford Rd.,MI,48187
Jimmy John,Fayetteville,375,375 #375,518 W. Dickson,AR,72701
Jimmy John,Tinley Park,378,378 #378,7905 W. 171st Street,IL,60477
Jimmy John,Bloomington,379,379 #379,430 East Kirkwood Avenue,IN,47408
Jimmy John,Bloomington,380,380 #380,1827 East 10th Street,IN,47408
Jimmy John,Little Canada,381,381 #381,125 Little Canada Rd,MN,55117
Jimmy John,St. Paul,382,382 #382,523 Jackson St.,MN,55101
Jimmy John,Bentonville,384,384 #384,805 South Walton St.,AR,72712
Jimmy John,Chicago,385,385 #385,180 N. LaSalle,IL,60602
Jimmy John,Vernon Hills,386,386 #386,325 North Milwaukee Ave.,IL,60069
Jimmy John,Grosse Pointe Woods,387,387 #387,19613 Mack Ave.,MI,48236
Jimmy John,Grayslake,388,388 #388,1152 E. Washington St.,IL,60030
Jimmy John,Grayslake,388,388 #388,1152 E. Washington St.,WI,60030
Jimmy John,Alexandria,389,389 #389,330 John Carlyle St,DC,22314
Jimmy John,Alexandria,389,389 #389,330 John Carlyle St,MD,22314
Jimmy John,Alexandria,389,389 #389,330 John Carlyle St,VA,22314
Jimmy John,Greenwood,390,390 #390,733 Loews Blvd.,IN,46142
Jimmy John,Glenview,391,391 #391,1746 Glenview Rd.,IL,60025
Jimmy John,Bloomington,393,393 #393,605 W 98th Street,MN,55420
Jimmy John,Bowling Green,394,394 #394,1916 Russellville Rd.,KY,42101
Jimmy John,Novi,396,396 #396,39755 Grand River Ave.,MI,48335
Jimmy John,Lombard,397,397 #397,1000-3 N. Rohlwing Rd.,IL,60101
Jimmy John,Warren,398,398 #398,30661 Hoover Rd.,MI,48093
Jimmy John,Warren,399,399 #399,5858 12 Mile Rd,MI,48092
Jimmy John,Glendale,401,401 #401,6969 Port Washington Rd,WI,53217
Jimmy John,Golden Valley,402,402 #402,8008 Olson Memorial Highway,MN,55427
Jimmy John,Tampa,403,403 #403,2345 East Fowler Ave.,FL,33612
Jimmy John,Milwaukee,405,405 #405,767 N. Water St.,WI,53202
Jimmy John,Chicago,406,406 #406,6 East Madison,IL,60602
Jimmy John,Merrillville,407,407 #407,1648 E. 80th Avenue,IL,46410
Jimmy John,Palos Heights,409,409 #409,11908 Harlem Ave.,IL,60463
Jimmy John,Palos Heights,409,409 #409,11908 Harlem Ave.,IN,60463
Jimmy John,Chicago,410,410 #410,2336 W. Lawrence Ave.,IL,60625
Jimmy John,Tucson,412,412 #412,749 N. Park Ave.,AZ,85719
Jimmy John,Normal,413,413 #413,207 W. North St.,IL,61761
Jimmy John,Normal,414,414 #414,305 South Main Street,IL,61761
Jimmy John,Bloomington,415,415 #415,2301 E Washington,IL,61704
Jimmy John,Austin,416,416 #416,3203 Red River Rd.,TX,78705
Jimmy John,LaCrosse,417,417 #417,312 Pearl Street,WI,54601
Jimmy John,St. Charles,418,418 #418,3841 E. Main St.,IL,60174
Jimmy John,Kansas City,419,419 #419,4300 Roanoke,KS,64111
Jimmy John,Kansas City,419,419 #419,4300 Roanoke,MO,64111
Jimmy John,Fairview Heights,420,420 #420,5200 North Illinois St.,IL,62208
Jimmy John,Detroit,421,421 #421,95 Monroe Street,MI,48226
Jimmy John,Oakbrook Terrace,422,422 #422,18W. 048 22nd St.,IL,60181
Jimmy John,Denton,423,423 #423,107 Ave. A,TX,76201
Jimmy John,Hoffman Estates,424,424 #424,3011 N. Barrington Rd,IL,60192
Jimmy John,Easton,426,426 #426,3140 William Penn Highway,PA,18045
Jimmy John,Dearborn Heights,427,427 #427,26417 Ford Rd,MI,48127
Jimmy John,Batavia,428,428 #428,9 North Randall Road,IL,60510
Jimmy John,McHenry,429,429 #429,2308 N. Richmond,IL,60051
Jimmy John,McHenry,429,429 #429,2308 N. Richmond,WI,60051
Jimmy John,Buffalo Grove,430,430 #430,182 McHenry Rd,IL,60089
Jimmy John,South Bend,432,432 #432,54570 N. Ironwood,IN,46637
Jimmy John,South Bend,432,432 #432,54570 N. Ironwood,MI,46637
Jimmy John,Geneva,433,433 #433,1070 Commons Dr.,IL,60134
Jimmy John,Chesterfield Township,434,434 #434,46526 Gratiot Ave.,MI,48051
Jimmy John,Gurnee,435,435 #435,5250 Grand Ave,IL,60031
Jimmy John,Gurnee,435,435 #435,5250 Grand Ave,WI,60031
Jimmy John,Hanover Park,436,436 #436,7452 Barrington Rd.,IL,60133
Jimmy John,Glenview,437,437 #437,2863 Pfingsten Rd,IL,60062
Jimmy John,Wauwatosa,438,438 #438,10919 W. Bluemound,WI,53226
Jimmy John,Wyandotte,440,440 #440,3169 Biddle St,MI,48192
Jimmy John,Gainesville,441,441 #441,2220 SW Archer Road,FL,32608
Jimmy John,Gainesville,442,442 #442,1724 W. University Avenue,FL,32603
Jimmy John,Reno,443,443 #443,58 E Ninth,NV,89501
Jimmy John,Atlanta,444,444 #444,365 14th St. NW,GA,30318
Jimmy John,Appleton,446,446 #446,345 W. College,WI,54911
Jimmy John,Springfield,447,447 #447,322 E. Walnut St,MO,65806
Jimmy John,Naperville,448,448 #448,19 W. Jefferson Ave.,IL,60540
Jimmy John,Mundelein,450,450 #450,684 S. Lake St.,IL,60060
Jimmy John,Fort Collins,451,451 #451,133 S. College Ave,CO,80525
Jimmy John,Evansville,452,452 #452,701 N. Burkhardt Rd,IN,47715
Jimmy John,Durham,453,453 #453,701 Ninth Street,NC,27713
Jimmy John,Chapel Hill,454,454 #454,306 West Franklin,NC,27514
Jimmy John,Greenwood Village,455,455 #455,4682 S. Yosemite,CO,80111
Jimmy John,Oak Park,456,456 #456,709 Lake Street,IL,60301
Jimmy John,Greeley,457,457 #457,2644 11th Ave.,CO,80631
Jimmy John,Forest Park,458,458 #458,350 Circle Ave.,IL,60130
Jimmy John,Waterford,459,459 #459,5639 Dixie Highway,MI,48329
Jimmy John,Grand Blanc,461,461 #461,11528 S. Saginaw,MI,48439
Jimmy John,Yorkville,462,462 #462,620 W Veterans Parkway,IL,60560
Jimmy John,Comstock Park,463,463 #463,3782 Alpine Ave. NW,MI,49544
Jimmy John,State College,465,465 #465,434 East College Avenue,PA,16801
Jimmy John,Algonquin,466,466 #466,440 S. Randall Rd,IL,60102
Jimmy John,Coon Rapids,467,467 #467,12673 Riverdale Blvd.,MN,55448
Jimmy John,Edmond,468,468 #468,1900 E 2nd Street,OK,73034
Jimmy John,Brighton,469,469 #469,750 W Grand River Ave.,MI,48116
Jimmy John,Libertyville,470,470 #470,1746 Milwaukee Ave N,IL,60048
Jimmy John,Libertyville,470,470 #470,1746 Milwaukee Ave N,WI,60048
Jimmy John,Troy,471,471 #471,3083 Rochester Rd.,MI,48083
Jimmy John,West Bloomfield,472,472 #472,6695 Orchard Lake Rd.,MI,48322
Jimmy John,Crystal Lake,473,473 #473,5657 Northwest Highway,IL,60014
Jimmy John,Chicago,474,474 #474,200 N. Jefferson,IL,60661
Jimmy John,Grand Forks,475,475 #475,3551 32nd Ave. S,ND,58201
Jimmy John,Grand Forks,476,476 #476,2855 10th Ave. N,ND,58203
Jimmy John,Madison,477,477 #477,1791 Thierer Rd.,WI,53704
Jimmy John,Sioux Falls,478,478 #478,1904 Minnesota Ave,SD,57105
Jimmy John,Burnsville,479,479 #479,2001 Cliff Rd. E,MN,55337
Jimmy John,Skokie,480,480 #480,9402 Skokie Blvd,IL,60077
Jimmy John,Port Orange,481,481 #481,4647 Clyde Morris Ave.,FL,32129
Jimmy John,Portage,482,482 #482,6402 South Westnedge,MI,49002
Jimmy John,Prospect Heights,483,483 #483,1204 A.S. Milwaukee Ave.,IL,60090
Jimmy John,Lawrence,485,485 #485,1720 W. 23rd St.,KS,66046
Jimmy John,Lawrence,486,486 #486,922 Massachusetts Street,KS,66044
Jimmy John,Manhattan,487,487 #487,1212 Moro Street,KS,66502
Jimmy John,Highland Park,488,488 #488,820 Central Ave.,IL,60035
Jimmy John,Michigan City,489,489 #489,5340 S. Franklin St.,IN,46360
Jimmy John,Bourbonnais,490,490 #490,225 South Main Street,IL,60914
Jimmy John,Austin,491,491 #491,515 Congress,TX,78701
Jimmy John,Chicago,492,492 #492,1148 W. Wilson Ave.,IL,60640
Jimmy John,Midland,494,494 #494,1916 South Saginaw Road,MI,48642
Jimmy John,Greensboro,495,495 #495,1622 Stanley Rd.,NC,27407
Jimmy John,Cedar Falls,496,496 #496,2016 College St.,IA,50613
Jimmy John,Sunset Hills,497,497 #497,3860 S. Lindbergh Blvd.,MO,63127
Jimmy John,St. Louis,498,498 #498,922 Meramec Station Rd.,MO,63088
Jimmy John,Chicago,499,499 #499,216 W. Washington,IL,60606
Jimmy John,West Dundee,500,500 #500,230 North 8th Street,IL,60118
Jimmy John,Carol Stream,501,501 #501,543 South Schmale Rd,IL,60187
Jimmy John,Decatur,502,502 #502,100 East Prairie,IL,62523
Jimmy John,Decatur,503,503 #503,2950 North Water Street,IL,62526
Jimmy John,Decatur,504,504 #504,1130 West Wood Street,IL,62522
Jimmy John,Dallas,505,505 #505,11810 Preston Rd,TX,75230
Jimmy John,Addison,506,506 #506,4980 W Beltline Rd,TX,75254
Jimmy John,Cape Girardeau,507,507 #507,1800 Broadway,MO,63701
Jimmy John,Oswego,508,508 #508,2739 Route 34,IL,60543
Jimmy John,Blacksburg,509,509 #509,217 College Ave,VA,24060
Jimmy John,Auburn Hills,510,510 #510,2791 University Ave.,MI,48326
Jimmy John,Arlington Heights,511,511 #511,1299 N. Rand Rd.,IL,60004
Jimmy John,Machesney Park,512,512 #512,10121 N. 2nd St.,IL,61115
Jimmy John,Machesney Park,512,512 #512,10121 N. 2nd St.,WI,61115
Jimmy John,Dubuque,513,513 #513,1650 John F. Kennedy,IA,52002
Jimmy John,Dubuque,513,513 #513,1650 John F. Kennedy,WI,52002
Jimmy John,Cincinnati,514,514 #514,335 Calhoun Street,KY,45219
Jimmy John,Cincinnati,514,514 #514,335 Calhoun Street,OH,45219
Jimmy John,Woodbury,516,516 #516,1960 Donegal Dr.,MN,55125
Jimmy John,Woodbury,516,516 #516,1960 Donegal Dr.,WI,55125
Jimmy John,Bloomington,517,517 #517,5234 West 84th Street,MN,55437
Jimmy John,Blaine,518,518 #518,10400 Baltimore St.,MN,55449
Jimmy John,Livonia,519,519 #519,33310 Plymouth Rd.,MI,48150
Jimmy John,Monroe,520,520 #520,2237 Telegraph,MI,48162
Jimmy John,Monroe,520,520 #520,2237 Telegraph,OH,48162
Jimmy John,Elk Grove,521,521 #521,920 Elk Grove Town Center,IL,60007
Jimmy John,Mankato,522,522 #522,1600 Warren Street,MN,56001
Jimmy John,Aurora,523,523 #523,160 S. River St.,IL,60506
Jimmy John,Westland,524,524 #524,36374 Ford Rd.,MI,48185
Jimmy John,Tuscaloosa,526,526 #526,1400 University Blvd,AL,35401
Jimmy John,Eau Claire,527,527 #527,2135 Brackett Avenue,WI,54701
Jimmy John,Cleveland,528,528 #528,240 Euclid Ave,OH,44103
Jimmy John,Dallas,529,529 #529,6411 Hillcrest Ave.,TX,75205
Jimmy John,Westmont,530,530 #530,129 West Ogden Ave.,IL,60559
Jimmy John,Chicago,531,531 #531,216 W. Jackson,IL,60606
Jimmy John,Middleton,532,532 #532,6921 University Ave,WI,53562
Jimmy John,Deerfield,533,533 #533,601 Lake Cook Road,IL,60015
Jimmy John,Madison,534,534 #534,2807 University Ave.,WI,53705
Jimmy John,Elmhurst,535,535 #535,696 W. North Ave.,IL,60181
Jimmy John,Morris,536,536 #536,1541 Creek Road,IL,60450
Jimmy John,Channahon,537,537 #537,25520 South Pheasant Lane,IL,60447
Jimmy John,Ames,538,538 #538,2801 Grand Ave N,IA,50010
Jimmy John,Rochester,539,539 #539,9 Third Ave. NW,MN,55902
Jimmy John,Ithaca,541,541 #541,122 N. Aurora St.,NY,14850
Jimmy John,Oak Creek,542,542 #542,8907 S. Howell Ave Ste. 700,WI,53154
Jimmy John,Novi,543,543 #543,31204 Beck Rd.,MI,48377
Jimmy John,Plymouth,544,544 #544,2661 Campus Dr.,MN,55441
Jimmy John,Denver,545,545 #545,110 16th St.,CO,80202
Jimmy John,Fort Collins,546,546 #546,2337 S. Shields St.,CO,80526
Jimmy John,Mason,547,547 #547,5071 Deerfield Blvd.,OH,45040
Jimmy John,Waukegan,548,548 #548,3941 Fountain Square Place,IL,60085
Jimmy John,Waukegan,548,548 #548,3941 Fountain Square Place,WI,60085
Jimmy John,Brooklyn Park,549,549 #549,7637 Jolly Lane,MN,55428
Jimmy John,Kearney,550,550 #550,2524 First Ave,NE,68847
Jimmy John,Chicago,551,551 #551,2231 North Lincoln Avenue,IL,60614
Jimmy John,Burbank,552,552 #552,7925 S. Harlem Ave,IL,60455
Jimmy John,Burbank,552,552 #552,7925 S. Harlem Ave,IN,60455
Jimmy John,Auburn,553,553 #553,126 N. College St.,AL,36830
Jimmy John,Superior,555,555 #555,823 Belknap Street,MN,54880
Jimmy John,Superior,555,555 #555,823 Belknap Street,WI,54880
Jimmy John,Oxford,556,556 #556,23 East High St.,OH,45056
Jimmy John,Dayton,557,557 #557,1157 Brown St.,OH,45409
Jimmy John,Columbia,558,558 #558,715 Gervais St.,SC,29201
Jimmy John,Columbia,559,559 #559,2015 Devine St.,SC,29205
Jimmy John,Frankfort,560,560 #560,20173 La Grange Rd,IL,60423
Jimmy John,Chicago,561,561 #561,7329 Irving Park Rd,IL,60706
Jimmy John,Norman,563,563 #563,775 Asp Ave,OK,73072
Jimmy John,Benton Harbor,565,565 #565,1040C Napier RD.,MI,49022
Jimmy John,Grand Rapids,566,566 #566,63 Monroe Center St,MI,49503
Jimmy John,Carol Stream,568,568 #568,240 W. Army Trail,IL,60188
Jimmy John,Appleton,569,569 #569,3420 E Calumet St,WI,54915
Jimmy John,Chicago,570,570 #570,725 S.State St.,IL,60628
Jimmy John,Darien,571,571 #571,2445 75th St,IL,60561
Jimmy John,Omaha,572,572 #572,300 S 72nd St,IA,68132
Jimmy John,Omaha,572,572 #572,300 S 72nd St,NE,68132
Jimmy John,Detroit,573,573 #573,615 Griswold,MI,48226
Jimmy John,Maplewood,574,574 #574,3095 White Bear Ave. N,MN,55109
Jimmy John,Greensboro,575,575 #575,411 Tate St.,NC,27403
Jimmy John,Coral Gables,576,576 #576,125 Miracle Mile,FL,33134
Jimmy John,Carmel,578,578 #578,2801 E. 116th St.,IN,46033
Jimmy John,Indianapolis,579,579 #579,605 West 11th St.,IN,46202
Jimmy John,Dearborn,580,580 #580,16201 Ford Rd.,MI,48126
Jimmy John,Fort Myers,581,581 #581,14261 S. Tamiami Tr.,FL,33912
Jimmy John,Rapid City,583,583 #583,615 Mountain View Rd,SD,57702
Jimmy John,South Elgin,584,584 #584,500 Randall Rd,IL,60177
Jimmy John,Woodstock,585,585 #585,361 Route 47,IL,60098
Jimmy John,Woodstock,585,585 #585,361 Route 47,WI,60098
Jimmy John,Clinton Township,586,586 #586,40067 Groesbeck Highway,MI,48036
Jimmy John,Carmel,587,587 #587,14299 Clay Terrace Blvd.,IN,46032
Jimmy John,Edwardsville,588,588 #588,1063 S. State Rt. 157,IL,62025
Jimmy John,Oak Park Heights,589,589 #589,13311 60th St W,MN,55082
Jimmy John,Oak Park Heights,589,589 #589,13311 60th St W,WI,55082
Jimmy John,West St.Paul,590,590 #590,1608 Robert St.,MN,55118
Jimmy John,Chicago,592,592 #592,1133 West Taylor St.,IL,60607
Jimmy John,Chicago,593,593 #593,2206 N. Clybourn,IL,60614
Jimmy John,Bellevue,594,594 #594,141 106th Ave NE,WA,98004
Jimmy John,Reno,595,595 #595,1635 Robb Dr.,NV,89523
Jimmy John,Aurora,596,596 #596,12501 E. 17th Ave.,CO,80045
Jimmy John,Chicago,597,597 #597,51 W Divison Ave,IL,60610
Jimmy John,Mishawaka,599,599 #599,5343 N. Main St,IN,46545
Jimmy John,Mishawaka,599,599 #599,5343 N. Main St,MI,46545
Jimmy John,Evergreen Park,600,600 #600,9451 S. Kedzie Ave,IL,60805
Jimmy John,Evergreen Park,600,600 #600,9451 S. Kedzie Ave,IN,60805
Jimmy John,Waterloo,601,601 #601,1515 E. San Marnan Ave.,IA,50702
Jimmy John,Cedar Rapids,602,602 #602,4701 1st Ave.,IA,52402
Jimmy John,Seattle,603,603 #603,4141 University Ave. NE,WA,98105
Jimmy John,Redmond,604,604 #604,17875 NE Redmond Way,WA,98052
Jimmy John,Jackson,605,605 #605,2101 W. Michigan,MI,49202
Jimmy John,Sycamore,606,606 #606,1170 Dekalb Ave,IL,60178
Jimmy John,Lawrence,607,607 #607,601 Kasold,KS,66049
Jimmy John,Countryside,608,608 #608,5321 S. LaGrange Rd,IL,60525
Jimmy John,Springfield,609,609 #609,3536 S. National Ave.,MO,65807
Jimmy John,Ormond Beach,610,610 #610,300 W. Granada Blvd.,FL,32174
Jimmy John,Pompano Beach,611,611 #611,1299 S. Federal Hwy.,FL,33062
Jimmy John,Mount Prospect,612,612 #612,1550 S. Elmhurst Rd,IL,60056
Jimmy John,Cary,613,613 #613,3106 Three Oaks Rd,IL,60013
Jimmy John,Hudson,614,614 #614,131 Carmichael Centre,MN,54016
Jimmy John,Hudson,614,614 #614,131 Carmichael Centre,WI,54016
Jimmy John,Sylvania,615,615 #615,6385 Monroe St,OH,43560
Jimmy John,College Station,616,616 #616,2002 Texas Ave. S.,TX,77840
Jimmy John,Caledonia,617,617 #617,1625 Marketplace Dr.,MI,49316
Jimmy John,Lewisville,618,618 #618,1286 W. Main St.,TX,75067
Jimmy John,St. Cloud,621,621 #621,14 5th Ave. S.,MN,56301
Jimmy John,Lyons,622,622 #622,8499 Ogden Ave.,IL,60534
Jimmy John,Neenah,623,623 #623,911 Tullar Rd.,WI,54956
Jimmy John,Arlington,624,624 #624,3751 Matlock Rd. #107,TX,76015
Jimmy John,Duluth,625,625 #625,5 South 13th Ave E,MN,55802
Jimmy John,Duluth,625,625 #625,5 South 13th Ave E,WI,55802
Jimmy John,Cottage Grove,627,627 #627,7750 Harkness Ave.,MN,55016
Jimmy John,Cottage Grove,627,627 #627,7750 Harkness Ave.,WI,55016
Jimmy John,Janesville,628,628 #628,2200 West Court,WI,53548
Jimmy John,Bolingbrook,629,629 #629,718 E. Boughton Rd.,IL,60440
Jimmy John,Plainfield,630,630 #630,12632 South Route 59,IL,60585
Jimmy John,Bettendorf,632,632 #632,2317 Cumberland Square Rd,IL,52722
Jimmy John,Bettendorf,632,632 #632,2317 Cumberland Square Rd,IA,52722
Jimmy John,Centennial,633,633 #633,7255 S. Havana St.,CO,80112
Jimmy John,Melrose Park,634,634 #634,2511 W. North Ave.,IL,60160
Jimmy John,Lone Tree,635,635 #635,9234 Park Meadows Dr.,CO,80124
Jimmy John,Palatine,636,636 #636,746 E. Dundee,IL,60074
Jimmy John,West Allis,637,637 #637,2911 S. 108th,WI,53227
Jimmy John,Charlottesville,638,638 #638,1309 W. Main St.,VA,22903
Jimmy John,Munster,639,639 #639,548 Ridge Rd,IL,46321
Jimmy John,Munster,639,639 #639,548 Ridge Rd,IN,46321
Jimmy John,Plymouth Twp,640,640 #640,47261 5 Mile Rd.,MI,48170
Jimmy John,Fort Collins,641,641 #641,1005 S. Lemay Ave.,CO,80524
Jimmy John,Davenport,642,642 #642,1323 W Locust St,IL,52804
Jimmy John,Davenport,642,642 #642,1323 W Locust St,IA,52804
Jimmy John,Kansas City,643,643 #643,1103 Grand Blvd.,KS,64106
Jimmy John,Kansas City,643,643 #643,1103 Grand Blvd.,MO,64106
Jimmy John,Reno,644,644 #644,18601 Wedge Pkwy,NV,89511
Jimmy John,Myrtle Beach,645,645 #645,2108 N. Kings Way Hwy,SC,29577
Jimmy John,Crestwood,646,646 #646,13717 S. Cicero Ave.,IL,60445
Jimmy John,Crestwood,646,646 #646,13717 S. Cicero Ave.,IN,60445
Jimmy John,Downers Grove,647,647 #647,2321 Ogden Ave.,IL,60515
Jimmy John,Niles,648,648 #648,7954 N. Waukegan Rd.,IL,60714
Jimmy John,Chicago,649,649 #649,205 W. Monroe St.,IL,60606
Jimmy John,Hoffman Estates,650,650 #650,4593 W. Higgins Rd.,IL,60192
Jimmy John,Nora,651,651 #651,1437 East 86th St.,IN,46240
Jimmy John,Indianapolis,652,652 #652,5550 W. 86th St.,IN,46268
Jimmy John,Kent,653,653 #653,165 E Main St,OH,44240
Jimmy John,LaPorte,654,654 #654,121 J Street,IN,46350
Jimmy John,Louisville,655,655 #655,415 W. Jefferson,IN,40202
Jimmy John,Louisville,655,655 #655,415 W. Jefferson,KY,40202
Jimmy John,Columbia,656,656 #656,4008 W. Broadway,MO,65203
Jimmy John,Rockford,657,657 #657,3051 North Perryville Rd.,IL,61114
Jimmy John,Rockford,657,657 #657,3051 North Perryville Rd.,WI,61114
Jimmy John,Mount Pleasant,658,658 #658,117 E. Broadway,MI,48858
Jimmy John,Kenosha,659,659 #659,6430 Green Bay Rd.,IL,53142
Jimmy John,Kenosha,659,659 #659,6430 Green Bay Rd.,WI,53142
Jimmy John,Tucson,660,660 #660,5411 E. Broadway Blvd.,AZ,85711
Jimmy John,Roselle,661,661 #661,1450 W. Lake St.,IL,60172
Jimmy John,Bensenville,662,662 #662,479 W. Irving Park Rd,IL,60106
Jimmy John,Round Lake Beach,664,664 #664,1924 N. Route 83,IL,60073
Jimmy John,Round Lake Beach,664,664 #664,1924 N. Route 83,WI,60073
Jimmy John,St. Paul,665,665 #665,2446 University Ave.,MN,55114
Jimmy John,Peoria,666,666 #666,3720 N. Prospect,IL,61614
Jimmy John,Boulder,669,669 #669,3310 Arapahoe Ave,CO,80303
Jimmy John,Oshkosh,670,670 #670,70 E. Wisconsin St.,WI,54901
Jimmy John,Kentwood,671,671 #671,2751 E. Beltline,MI,49506
Jimmy John,Denver,673,673 #673,622 16th St.,CO,80202
Jimmy John,Fargo,674,674 #674,1801 45 St SW,ND,58103
Jimmy John,Chicago,675,675 #675,1250 S. Michigan Ave,IL,60605
Jimmy John,Parkersburg,676,676 #676,422 Market St.,WV,26101
Jimmy John,Allendale,677,677 #677,4814 Lake Michigan Dr.,MI,49401
Jimmy John,Watertown,678,678 #678,103 N. Church St.,WI,53094
Jimmy John,Houston,679,679 #679,1120 Eldridge Pkwy. 190,TX,77077
Jimmy John,Philadelphia,681,681 #681,44 S. 17th St.,PA,19107
Jimmy John,Sioux Falls,682,682 #682,1201 E. Benson Rd.,SD,57104
Jimmy John,St. Clair Shores,683,683 #683,23118 Harper Avene,MI,48080
Jimmy John,Zeeland,684,684 #684,59 W. Washington,MI,49464
Jimmy John,Grand Rapids,685,685 #685,3989 Cascade Rd. SE,MI,49546
Jimmy John,Grand Rapids,686,686 #686,2121 Celebration Dr.,MI,49525
Jimmy John,South Bend,687,687 #687,1290 E. Ireland,IN,46614
Jimmy John,South Bend,687,687 #687,1290 E. Ireland,MI,46614
Jimmy John,Lexington,688,688 #688,399 Waller Ave.,KY,40504
Jimmy John,Fort Gratiot,689,689 #689,4079 24th Ave.,MI,48059
Jimmy John,Seattle,690,690 #690,102 First Ave,WA,98104
Jimmy John,Seattle,691,691 #691,1200 3rd Ave.,WA,98101
Jimmy John,Renton,692,692 #692,804 N. Landing Way,WA,98057
Jimmy John,New Lenox,693,693 #693,2334 E. Lincoln Highway,IL,60451
Jimmy John,Austin,694,694 #694,2937 W. Anderson Ln.,TX,78757
Jimmy John,Hastings,696,696 #696,1743 N. Frontage Rd.,MN,55033
Jimmy John,Hastings,696,696 #696,1743 N. Frontage Rd.,WI,55033
Jimmy John,Toledo,697,697 #697,3002 Glendale Ave.,OH,43614
Jimmy John,Greensboro,698,698 #698,2507 Battleground,NC,27408
Jimmy John,Raleigh,700,700 #700,2316 Hillsborough St.,NC,27607
Jimmy John,Commerce Township,701,701 #701,3050 Union Lake Rd.,MI,48382
Jimmy John,Chicago,702,702 #702,28 N Clark Street,IL,60602
Jimmy John,Barrington,703,703 #703,168 S. NW Highway,IL,60010
Jimmy John,Moline,704,704 #704,2350 41st,IL,61265
Jimmy John,Moline,704,704 #704,2350 41st,IA,61265
Jimmy John,Rochester,705,705 #705,2986 41st St NW,MN,55901
Jimmy John,Hendersonville,706,706 #706,203 N. Anderson Lane,TN,37075
Jimmy John,Adrian,707,707 #707,1502 W. Maumee St.,MI,49221
Jimmy John,West Bend,708,708 #708,869 S. Main St.,WI,53095
Jimmy John,Wheaton,709,709 #709,801 E. Butterfield,IL,60532
Jimmy John,Jupiter,710,710 #710,3755 Military Trail,FL,33458
Jimmy John,Chicago,711,711 #711,2029 W. Divison,IL,60622
Jimmy John,Greenville,712,712 #712,141 E. McBee Ave.,SC,29601
Jimmy John,Ramsey,713,713 #713,14050 St. Francis Blvd. #H,MN,55303
Jimmy John,Richmond,714,714 #714,112 East Main St.,KY,40475
Jimmy John,St. Peters,715,715 #715,4865 Mexico Rd.,MO,63376
Jimmy John,Winston Salem,716,716 #716,122 Hanes Mall Circle,NC,27103
Jimmy John,Chicago,717,717 #717,974 W 35th Pl,IL,60609
Jimmy John,Chicago,717,717 #717,974 W 35th Pl,IN,60609
Jimmy John,Canton,718,718 #718,4641 Belden Village St. NW,OH,44718
Jimmy John,Miami,719,719 #719,1221 Brickell Ave,FL,33131
Jimmy John,Traverse City,720,720 #720,1217 E. Front St.,MI,49686
Jimmy John,Franklin,721,721 #721,6533 S. 27th St.,WI,53132
Jimmy John,Chicago,722,722 #722,1519 E. 55th St.,IL,60615
Jimmy John,Chicago,722,722 #722,1519 E. 55th St.,IN,60615
Jimmy John,South Bend,723,723 #723,138 S. Michigan,IN,46601
Jimmy John,South Bend,723,723 #723,138 S. Michigan,MI,46601
Jimmy John,Chanhassen,724,724 #724,2635 78th St.,MN,55317
Jimmy John,Crown Point,725,725 #725,10839 Broadway Ave.,IL,46307
Jimmy John,Crown Point,725,725 #725,10839 Broadway Ave.,IN,46307
Jimmy John,Columbia,728,728 #728,6191 Old Dobbin Lane,MD,21045
Jimmy John,Lubbock,729,729 #729,5510 4th,TX,79416
Jimmy John,Elgin,730,730 #730,2490 Bushwood Dr.,IL,60118
Jimmy John,Freeport,731,731 #731,1735 S. West Ave.,IL,61032
Jimmy John,Indianapolis,732,732 #732,1 North Meridian,IN,46204
Jimmy John,Houston,733,733 #733,820 Main Street,TX,77002
Jimmy John,Olathe,734,734 #734,12124 S. Strang Line,KS,66062
Jimmy John,Olathe,734,734 #734,12124 S. Strang Line,MO,66062
Jimmy John,Orlando,735,735 #735,11565 University Blvd.,FL,32817
Jimmy John,Chicago,736,736 #736,2115 W. Roscoe St.,IL,60618
Jimmy John,Cleveland,737,737 #737,1827 Coventry Rd.,OH,44120
Jimmy John,Pewaukee,738,738 #738,N20W22951 Watertown Rd,WI,53186
Jimmy John,Chicago,739,739 #739,6451 W. Diversey Ave.,IL,60639
Jimmy John,Edmond,740,740 #740,2801 E. Memorial Rd,OK,73013
Jimmy John,Sheboygan,741,741 #741,3538 Washington Ave.,WI,53081
Jimmy John,Fort Wayne,742,742 #742,6727 W. Jefferson Blvd.,IN,46804
Jimmy John,Orlando,743,743 #743,4000 Central Florida Blvd,FL,32816
Jimmy John,Fox River Grove,744,744 #744,908 Northwest Hwy.,IL,60021
Jimmy John,Bedford Park,745,745 #745,7250 S. Cicero Ave.,IL,60459
Jimmy John,Bedford Park,745,745 #745,7250 S. Cicero Ave.,IN,60459
Jimmy John,Burnsville,746,746 #746,1615 County Road 42 West,MN,55306
Jimmy John,New Brighton,747,747 #747,500 5th Ave. NW,MN,55112
Jimmy John,Arlington Heights,748,748 #748,19 S. Dunton,IL,60005
Jimmy John,Louisville,749,749 #749,3901 Dutchmans Ln.,IN,40207
Jimmy John,Louisville,749,749 #749,3901 Dutchmans Ln.,KY,40207
Jimmy John,San Antonio,750,750 #750,1455 Austin Hwy.,TX,78209
Jimmy John,Fort Worth,751,751 #751,4120 Highway 360,TX,76155
Jimmy John,Chicago,752,752 #752,5109 N. Clark St.,IL,60640
Jimmy John,Southfield,753,753 #753,23255 Greenfield Rd,MI,48075
Jimmy John,Southfield,754,754 #754,25150 Evergreen Rd.,MI,48075
Jimmy John,St. Joseph,755,755 #755,320 State St.,MI,49085
Jimmy John,Champlin,756,756 #756,11468 Marketplace,MN,55316
Jimmy John,Lakewood,757,757 #757,7355 W Colfax Ave,CO,80214
Jimmy John,Grand Island,758,758 #758,206 Wilmar Ave.,NE,68803
Jimmy John,Brooklyn Center,759,759 #759,615 66th Ave. N.,MN,55430
Jimmy John,Maplewood,760,760 #760,7374 Manchester Rd.,IL,63143
Jimmy John,Maplewood,760,760 #760,7374 Manchester Rd.,MO,63143
Jimmy John,Alliance,761,761 #761,2230 W. State St.,OH,44601
Jimmy John,Glendale Heights,762,762 #762,2172 Bloomingdale Rd.,IL,60139
Jimmy John,Ionia,763,763 #763,3192 Commerce Ln.,MI,48846
Jimmy John,Howell,764,764 #764,1485 North Michigan Ave.,MI,48843
Jimmy John,Roseville,766,766 #766,29016 Gratiot Ave.,MI,48066
Jimmy John,Alpharetta,768,768 #768,875 N. Main St.,GA,30004
Jimmy John,Elmwood Park,769,769 #769,1702 N. Harlem Ave,IL,60707
Jimmy John,Lake Zurich,770,770 #770,520 S Rand Rd,IL,60047
Jimmy John,Waterford,771,771 #771,4998 Highland Rd.,MI,48327
Jimmy John,Fond Du Lac,772,772 #772,180 North Main St.,WI,54935
Jimmy John,Kansas City,773,773 #773,8427 Wornall Rd.,KS,64114
Jimmy John,Kansas City,773,773 #773,8427 Wornall Rd.,MO,64114
Jimmy John,Woodridge,774,774 #774,6325 Main St.,IL,60517
Jimmy John,Chicago,775,775 #775,3041 Lincoln Ave.,IL,60659
Jimmy John,Ballwin,776,776 #776,14173 Manchester Rd.,MO,63011
Jimmy John,Morton,777,777 #777,15 E. Jackson St.,IL,61550
Jimmy John,Omaha,778,778 #778,107 N. 40th St.,IA,68131
Jimmy John,Omaha,778,778 #778,107 N. 40th St.,NE,68131
Jimmy John,Beloit,779,779 #779,2600 Branigan Rd.,IL,53511
Jimmy John,Beloit,779,779 #779,2600 Branigan Rd.,WI,53511
Jimmy John,Houston,780,780 #780,3231 Southwest Freeway,TX,77027
Jimmy John,Morgantown,783,783 #783,405 High St.,WV,26505
Jimmy John,Medina,786,786 #786,240 N. Court St.,OH,44256
Jimmy John,Romeoville,787,787 #787,381 S. Weber Rd.,IL,60446
Jimmy John,Atlanta,788,788 #788,400 W Peachtree Sreet,GA,30308
Jimmy John,Charlotte,789,789 #789,350 E. McCullough Dr.,NC,28262
Jimmy John,Franklin,790,790 #790,600 Frazier Dr.,TN,37067
Jimmy John,Cary,791,791 #791,1904 NW Maynard Rd.,NC,27513
Jimmy John,Elkhart,792,792 #792,4542 Elkhart Rd.,IN,46517
Jimmy John,Elkhart,792,792 #792,4542 Elkhart Rd.,MI,46517
Jimmy John,Alexandria,793,793 #793,4617 State Highway 29 South,MN,56308
Jimmy John,Ames,794,794 #794,1310 South Duff Ave.,IA,50010
Jimmy John,Taylor,796,796 #796,23310 Eureka rd.,MI,48180
Jimmy John,Harrisonburg,797,797 #797,1314 Hillside Avenue,VA,22801
Jimmy John,Christiansburg,798,798 #798,2457 North Franklin,VA,24073
Jimmy John,Omaha,799,799 #799,1417 Suite A. Farnam St.,IA,68102
Jimmy John,Omaha,799,799 #799,1417 Suite A. Farnam St.,NE,68102
Jimmy John,Maumee,800,800 #800,1470 Ford St.,OH,43537
Jimmy John,Estero,801,801 #801,21740 Tamiami Trail S.,FL,33928
Jimmy John,Johnston,802,802 #802,5340 Merle Hay Rd,IA,50131
Jimmy John,Brooklyn Park,803,803 #803,9670 Colorado Ln.,MN,55445
Jimmy John,Eagan,804,804 #804,2874 Hwy. 55,MN,55121
Jimmy John,Springdale,805,805 #805,4276 W Sunset,AR,72762
Jimmy John,Lakewood,807,807 #807,180 S. Union,CO,80228
Jimmy John,West Chicago,808,808 #808,200 W. North Ave.,IL,60185
Jimmy John,Streamwood,809,809 #809,1060 S. Sutton Rd.,IL,60120
Jimmy John,Muskegon,810,810 #810,3355 Henry St,MI,49441
Jimmy John,Grand Rapids,811,811 #811,1233 Leonard NE,MI,49505
Jimmy John,Wyoming,812,812 #812,5795 Bryon Center Ave. SW,MI,49519
Jimmy John,Omaha,813,813 #813,6720 S. 168th St.,NE,68135
Jimmy John,Louisville,814,814 #814,4000 Shelbyville,IN,40207
Jimmy John,Louisville,814,814 #814,4000 Shelbyville,KY,40207
Jimmy John,Chicago,815,815 #815,520 N. Ogden Ave.,IL,60642
Jimmy John,Springfield,816,816 #816,2645 B. Kansas Expressway,MO,65803
Jimmy John,Springfield,817,817 #817,1002 S. Glenstone,MO,65804
Jimmy John,Memphis,819,819 #819,5181 Poplar Ave.,TN,38117
Jimmy John,Olivette,821,821 #821,9200 Olive Blvd,IL,63141
Jimmy John,Olivette,821,821 #821,9200 Olive Blvd,MO,63141
Jimmy John,Overland Park,822,822 #822,7208 W 135th St,KS,66223
Jimmy John,Overland Park,822,822 #822,7208 W 135th St,MO,66223
Jimmy John,Mobile,823,823 #823,9 Du Rhu Dr,AL,36608
Jimmy John,Lubbock,824,824 #824,2413 Broadway St,TX,79401
Jimmy John,Lakeville,825,825 #825,17681 Kenwood Tr.,MN,55044
Jimmy John,Tucson,826,826 #826,2485 N Swan Suite 161,AZ,85712
Jimmy John,Matteson,827,827 #827,4537 W. 211th St.,IL,60443
Jimmy John,Matteson,827,827 #827,4537 W. 211th St.,IN,60443
Jimmy John,Houston,828,828 #828,2401 W Holcombe Blvd,TX,77030
Jimmy John,Bloomington,829,829 #829,7942 Penn Ave. S.,MN,55431
Jimmy John,Shorewood,830,830 #830,1029 Brook Forest Ave.,IL,60404
Jimmy John,Wayne,831,831 #831,35155 E. Michigan Ave.,MI,48184
Jimmy John,Austin,832,832 #832,6317 Bee Caves Rd.,TX,78746
Jimmy John,Shakopee,833,833 #833,1329 Heather St.,MN,55379
Jimmy John,Algonquin,836,836 #836,1024 E Algonquin Road,IL,60102
Jimmy John,Council Bluffs,838,838 #838,1634 W. Broadway,IA,51501
Jimmy John,Council Bluffs,838,838 #838,1634 W. Broadway,NE,51501
Jimmy John,Milford,840,840 #840,545 N Main St Suite 102,MI,48381
Jimmy John,Lincoln,841,841 #841,841 N. 48th St.,NE,68504
Jimmy John,Wheaton,842,842 #842,820 E. Roosevelt Dr.,IL,60187
Jimmy John,Onalaska,843,843 #843,9432 Hwy 16,WI,54650
Jimmy John,Mobile,844,844 #844,6920 Airport Blvd.,AL,36608
Jimmy John,St. Paul,845,845 #845,1532 W. University Ave.,MN,55104
Jimmy John,Lockport,846,846 #846,16600 W. 159th St.,IL,60441
Jimmy John,St John,847,847 #847,9939 Wicker Ave,IL,46373
Jimmy John,St John,847,847 #847,9939 Wicker Ave,IN,46373
Jimmy John,Fort Worth,848,848 #848,3020 W 7th St Suite 224,TX,76107
Jimmy John,Cleveland,849,849 #849,3561 Steelyard Dr.,OH,44109
Jimmy John,Chicago,850,850 #850,3506 S. State,IL,60609
Jimmy John,Chicago,850,850 #850,3506 S. State,IN,60609
Jimmy John,Lincoln,852,852 #852,1631 Pine Lake Rd.,NE,68512
Jimmy John,Lincoln,853,853 #853,6125 Apples Way,NE,68516
Jimmy John,Murfreesboro,854,854 #854,557 N. Thompson Lane,TN,37129
Jimmy John,Sarasota,856,856 #856,1626 Ringling Blvd.,FL,34236
Jimmy John,Appleton,857,857 #857,4194 W.Wisconsin Ave.,WI,54911
Jimmy John,Charleston,858,858 #858,51 George St.,SC,29401
Jimmy John,Milwaukee,859,859 #859,2242 S. Kinnickinnic Ave.,WI,53207
Jimmy John,Tuscaloosa,860,860 #860,1875 McFarland Blvd. N.,AL,35406
Jimmy John,Elk River,861,861 #861,18175 Carson Ct.,MN,55330
Jimmy John,Joliet,862,862 #862,2311 Essington Rd,IL,60435
Jimmy John,Davenport,863,863 #863,2406 E. 53rd,IL,52807
Jimmy John,Davenport,863,863 #863,2406 E. 53rd,IA,52807
Jimmy John,Forest Lake,864,864 #864,1966 W Broadway Ave,MN,55025
Jimmy John,Dearborn,866,866 #866,22171 Michigan Ave.,MI,48124
Jimmy John,Spring,867,867 #867,7316 Louetta Rd.,TX,77379
Jimmy John,White Bear Lake,869,869 #869,1048 Meadowlands Dr.,MN,55127
Jimmy John,Toledo,870,870 #870,4133 Talmadge Rd.,MI,43623
Jimmy John,Toledo,870,870 #870,4133 Talmadge Rd.,OH,43623
Jimmy John,Oxford,871,871 #871,1530 S. Lapeer Rd.,MI,48371
Jimmy John,Sioux City,872,872 #872,5001 Sergeant Rd,IA,51106
Jimmy John,Delafield,873,873 #873,2738 Hillside Dr.,WI,53018
Jimmy John,Louisville,874,874 #874,1321 S. Hurstbourne Pkwy.,IN,40222
Jimmy John,Louisville,874,874 #874,1321 S. Hurstbourne Pkwy.,KY,40222
Jimmy John,Mooresville,876,876 #876,279 Williamson Rd.,NC,28117
Jimmy John,Bellevue,877,877 #877,1306 Harlan Dr.,IA,68005
Jimmy John,Bellevue,877,877 #877,1306 Harlan Dr.,NE,68005
Jimmy John,Charlotte,878,878 #878,1605 Galleria Blvd.,NC,28270
Jimmy John,Charlotte,878,878 #878,1605 Galleria Blvd.,SC,28270
Jimmy John,Philadelphia,879,879 #879,(Temple University),PA,19107
Jimmy John,Greensboro,880,880 #880,5603 W. Friendly Ave,NC,27410
Jimmy John,Idaho Falls,881,881 #881,3108 S 25th E,ID,83406
Jimmy John,Waukesha,883,883 #883,315 E. North St.,WI,53188
Jimmy John,Lexington,884,884 #884,3120 Maple Leaf Dr.,KY,40509
Jimmy John,O\'Fallon,885,885 #885,981 Waterbury Falls,MO,63368
Jimmy John,Belleville,886,886 #886,2524 Greenmount Commons,IL,62221
Jimmy John,Chicago,887,887 #887,3234 W. Foster Ave.,IL,60625
Jimmy John,Rapid City,888,888 #888,1565 Haines Ave.,SD,57701
Jimmy John,Lewisville,889,889 #889,335 E. Round Grove Rd.,TX,75067
Jimmy John,St. Louis,890,890 #890,5445 Telegraph Rd,MO,63129
Jimmy John,Sugar Land,892,892 #892,2276 Lone Star Dr.,TX,77478
Jimmy John,Omaha,893,893 #893,2728 N. 108th St.,IA,68164
Jimmy John,Omaha,893,893 #893,2728 N. 108th St.,NE,68164
Jimmy John,Grand Haven,894,894 #894,530 A. Way,MI,49417
Jimmy John,Cary,895,895 #895,8204 Tryon Woods Dr.,NC,27518
Jimmy John,Columbia,896,896 #896,5910 B. Garners Ferry Rd.,SC,29209
Jimmy John,Spartanburg,897,897 #897,807 N. Pine Unit C,SC,29306
Jimmy John,Orland Park,899,899 #899,18088 S. Wolf Rd,IL,60448
Jimmy John,Indianapolis,900,900 #900,5335 E. Southport Rd.,IN,46237
Jimmy John,Daytona Beach,901,901 #901,2258 W International Speedway Blvd,FL,32114
Jimmy John,Marquette,902,902 #902,1125 N. Third St.,MI,49855
Jimmy John,Highland,903,903 #903,2427 Ridge Rd.,IL,46322
Jimmy John,Highland,903,903 #903,2427 Ridge Rd.,IN,46322
Jimmy John,Oak Lawn,904,904 #904,10400 S. Cicero Ave.,IL,60453
Jimmy John,Federal Heights,905,905 #905,2690 W. 104th Ave.,CO,80234
Jimmy John,Rockford,906,906 #906,753 High Grove Road,IL,61108
Jimmy John,Montgomery,907,907 #907,2085 Orchard Rd.,IL,60538
Jimmy John,Farmington Hills,908,908 #908,27901 Orchard Lake Rd.,MI,48334
Jimmy John,Clarkston,909,909 #909,5601 Sashabaw Rd,MI,48346
Jimmy John,Denver,910,910 #910,6300 E. Hampden Ave.,CO,80222
Jimmy John,Kildeer,911,911 #911,20771 N. Rand Rd.,IL,60047
Jimmy John,Homewood,913,913 #913,18048 S. Halsted,IL,60430
Jimmy John,Homewood,913,913 #913,18048 S. Halsted,IN,60430
Jimmy John,Minnetonka,914,914 #914,6001 Shady Oak Rd.,MN,55343
Jimmy John,Eagan,915,915 #915,3250 Denmark Ave.,MN,55121
Jimmy John,Eden Prairie,916,916 #916,8439 Joiner Way,MN,55344
Jimmy John,Fremont,917,917 #917,3220 E. Elk Ln.,NE,68025
Jimmy John,Greensboro,919,919 #919,216 S Elm,NC,27401
Jimmy John,Kalamazoo,921,921 #921,3116 S. Westnedge,MI,49008
Jimmy John,St. Louis,922,922 #922,10566 Baptist Church Rd.,IL,63128
Jimmy John,St. Louis,922,922 #922,10566 Baptist Church Rd.,MO,63128
Jimmy John,Chanhassen,923,923 #923,7851 Market Blvd,MN,55317
Jimmy John,Sioux Falls,924,924 #924,4905 S. Louise,SD,57108
Jimmy John,Sioux Falls,925,925 #925,6121 S Minnesota Ave,SD,57108
Jimmy John,Brookings,926,926 #926,2427 6th St.,SD,57006
Jimmy John,Willowbrook,927,927 #927,7444 Kingery Hwy,IL,60561
Jimmy John,Houston,928,928 #928,5161 San Felipe St.,TX,77056
Jimmy John,Mayfield Heights,929,929 #929,1314 SOM Center Rd.,OH,44124
Jimmy John,Elkhorn,930,930 #930,801 N 204th,NE,68022
Jimmy John,Joplin,931,931 #931,407A Range Line Rd,MO,64801
Jimmy John,Wichita,932,932 #932,340 N Rock Rd,KS,67206
Jimmy John,Charlotte,934,934 #934,230 S. Tryon St.,NC,28281
Jimmy John,Charlotte,934,934 #934,230 S. Tryon St.,SC,28281
Jimmy John,Dallas,935,935 #935,2222 Medical District Dr.,TX,75235
Jimmy John,Fishers,936,936 #936,8290 E. 96th St.,IN,46037
Jimmy John,Elkhart,937,937 #937,155 County Rd 6,IN,46514
Jimmy John,Elkhart,937,937 #937,155 County Rd 6,MI,46514
Jimmy John,Antioch,938,938 #938,474 E Route 173,IL,60002
Jimmy John,Antioch,938,938 #938,474 E Route 173,WI,60002
Jimmy John,Philadelphia,939,939 #939,3925 Walnut St.,PA,19104
Jimmy John,Chattanooga,940,940 #940,973 Market St.,TN,37402
Jimmy John,Huntington,941,941 #941,1418 4th Ave.,WV,25701
Jimmy John,Commerce Township,943,943 #943,40210 W. 14 Mile Rd.,MI,48390
Jimmy John,Canton,944,944 #944,41439 Michigan Ave,MI,48188
Jimmy John,Midvale,945,945 #945,913 E. Fort Union Blvd.,UT,84047
Jimmy John,Norcross,946,946 #946,4870 Peachtree Industrial Blvd NW,GA,30071
Jimmy John,Alpena,947,947 #947,494 S. Ripley Blvd.,MI,49707
Jimmy John,The Woodlands,949,949 #949,1508 Research Forest Dr.,TX,77381
Jimmy John,Brentwood,950,950 #950,1230 Strassner,IL,63144
Jimmy John,Brentwood,950,950 #950,1230 Strassner,MO,63144
Jimmy John,St. Louis,951,951 #951,13 N. Euclid St.,IL,63108
Jimmy John,St. Louis,951,951 #951,13 N. Euclid St.,MO,63108
Jimmy John,Lincoln,952,952 #952,3241 Pioneers Blvd.,NE,68506
Jimmy John,Winter Park,953,953 #953,1340 Orange Ave.,FL,32789
Jimmy John,Grand Rapids,954,954 #954,648 Monroe Ave.,MI,49503
Jimmy John,North Olmsted,956,956 #956,25102 Brookpark Rd.,OH,44070
Jimmy John,Manitowoc,957,957 #957,4144 Harbortown Lane,WI,54220
Jimmy John,Lehi,958,958 #958,3501 N. Center St.,UT,84043
Jimmy John,American Fork,959,959 #959,496 N. 990 W,UT,84003
Jimmy John,Washington,960,960 #960,3061 Phoenix Center,MO,63090
Jimmy John,Omaha,961,961 #961,10720 Q. Street,IA,68127
Jimmy John,Omaha,961,961 #961,10720 Q. Street,NE,68127
Jimmy John,Omaha,962,962 #962,8406 Park Dr.,IA,68127
Jimmy John,Omaha,962,962 #962,8406 Park Dr.,NE,68127
Jimmy John,Greenfield,963,963 #963,5075 S 76th St,WI,53220
Jimmy John,Kansas City,964,964 #964,7014 Northwest 83rd St.,KS,64152
Jimmy John,Kansas City,964,964 #964,7014 Northwest 83rd St.,MO,64152
Jimmy John,Omaha,965,965 #965,6410 N. 72nd St.,NE,68134
Jimmy John,Chicago,966,966 #966,200 E. Randolph,IL,60601
Jimmy John,Crystal Lake,967,967 #967,450 N. Rt. 31,IL,60012
Jimmy John,Colorado Springs,968,968 #968,1035 Garden of the Gods Rd,CO,80907
Jimmy John,Colorado Springs,969,969 #969,10 S. Tejon St.,CO,80903
Jimmy John,Monticello,970,970 #970,1117 S Cedar St,MN,55362
Jimmy John,Miami,971,971 #971,45 W. Flagler,FL,33126
Jimmy John,Orland Park,972,972 #972,15110 Lagrange Rd,IL,60462
Jimmy John,Irving,973,973 #973,8460 N. Belt Line Rd.,TX,75063
Jimmy John,Plano,974,974 #974,1201 Jupiter Rd.,TX,75074
Jimmy John,Atlanta,975,975 #975,1921 Peachtree Rd,GA,30309
Jimmy John,Stuart,976,976 #976,2117 SE Federal Hwy.,FL,34994
Jimmy John,San Antonio,979,979 #979,4700 Broadway St.,TX,78209
Jimmy John,Laramie,980,980 #980,2405 Grand Ave.,WY,82070
Jimmy John,Hastings,981,981 #981,537 W. 2nd St.,NE,68901
Jimmy John,Fort Wayne,982,982 #982,5412 Coldwater Rd.,IN,46825
Jimmy John,Houston,983,983 #983,5727 Westheimer,TX,77056
Jimmy John,Austin,984,984 #984,10900 Research Blvd.,TX,78759
Jimmy John,Westerville,985,985 #985,5803 Maxtown Rd,OH,43082
Jimmy John,Atlanta,986,986 #986,925 A Peachtree St. NE,GA,30303
Jimmy John,Charlotte,987,987 #987,3014 Driwood Ct.,NC,28262
Jimmy John,Charleston,988,988 #988,"32 Capitol St,",WV,25301
Jimmy John,Brainerd,989,989 #989,201 NE Washington St.,MN,56401
Jimmy John,Overland Park,990,990 #990,8215 Metcalf Ave.,KS,66204
Jimmy John,Overland Park,990,990 #990,8215 Metcalf Ave.,MO,66204
Jimmy John,Durham,991,991 #991,5410 Page Rd.,NC,27703
Jimmy John,Durham,992,992 #992,1125 NC Highway 54,NC,27707
Jimmy John,Raleigh,993,993 #993,5011 Falls of Neuse,NC,27609
Jimmy John,Charlotte,994,994 #994,4717 Sharon Road,NC,28210
Jimmy John,Charlotte,994,994 #994,4717 Sharon Road,SC,28210
Jimmy John,Greenville,995,995 #995,2301 Augusta St,SC,29605
Jimmy John,Lexington,996,996 #996,914 North Lake Dr.,SC,29072
Jimmy John,Columbia,997,997 #997,131 Harbison Blvd,SC,29212
Jimmy John,Dixon,998,998 #998,845 N. Galena Ave.,IL,61021
Jimmy John,Syracuse,999,999 #999,103 Marshall St.,NY,13210
Jimmy John,LaVista,1000,1000 #1000,12040 McDermott Plaza,IA,68128
Jimmy John,LaVista,1000,1000 #1000,12040 McDermott Plaza,NE,68128
Jimmy John,Omaha,1002,1002 #1002,9909 Redick Circle,IA,68122
Jimmy John,Omaha,1002,1002 #1002,9909 Redick Circle,NE,68122
Jimmy John,St. Joseph,1003,1003 #1003,1040 S. Belt Highway,MO,64507
Jimmy John,Lees Summit,1004,1004 #1004,426 SE State Rt. 291,KS,64086
Jimmy John,Lees Summit,1004,1004 #1004,426 SE State Rt. 291,MO,64086
Jimmy John,San Antonio,1005,1005 #1005,7302 Louis Pasteur,TX,78229
Jimmy John,Round Rock,1007,1007 #1007,200 University Blvd,TX,78665
Jimmy John,Austin,1008,1008 #1008,610 E Stassney Ln,TX,78745
Jimmy John,Indianapolis,1009,1009 #1009,6070 E. 82nd St.,IN,46250
Jimmy John,Milwaukee,1010,1010 #1010,260 W. Holt,WI,53207
Jimmy John,Kankakee,1011,1011 #1011,154 E. Court St.,IL,60901
Jimmy John,Alsip,1012,1012 #1012,12064 S. Cicero,IL,60803
Jimmy John,Alsip,1012,1012 #1012,12064 S. Cicero,IN,60803
Jimmy John,Chicago,1013,1013 #1013,131 S. Clinton St.,IL,60661
Jimmy John,Tucson,1014,1014 #1014,4356 N. Oracle Rd.,AZ,85705
Jimmy John,Arnold,1015,1015 #1015,2202 Michigan Ave.,MO,63010
Jimmy John,Round Rock,1016,1016 #1016,115 Sundance Pkwy.,TX,78681
Jimmy John,Jacksonville,1017,1017 #1017,9823 Tapestry Park,FL,32216
Jimmy John,Bellevue,1018,1018 #1018,4115 Twin Creek Dr.,IA,68123
Jimmy John,Bellevue,1018,1018 #1018,4115 Twin Creek Dr.,NE,68123
Jimmy John,Papillion,1019,1019 #1019,8419 S. 73rd Plaza,IA,68046
Jimmy John,Papillion,1019,1019 #1019,8419 S. 73rd Plaza,NE,68046
Jimmy John,Tacoma,1020,1020 #1020,4027 Tacoma Mall Blvd,WA,98409
Jimmy John,Plano,1021,1021 #1021,6400 W. Plano Pkwy.,TX,75093
Jimmy John,Des Peres,1022,1022 #1022,1090 New Ballas Rd.,IL,63131
Jimmy John,Des Peres,1022,1022 #1022,1090 New Ballas Rd.,MO,63131
Jimmy John,Littleton,1024,1024 #1024,2610 W. Belleview Ave,CO,80123
Jimmy John,Raleigh,1025,1025 #1025,437 Fayetteville St.,NC,27601
Jimmy John,Raleigh,1026,1026 #1026,2904 Wake Forest Rd.,NC,27609
Jimmy John,Raleigh,1027,1027 #1027,8005 Brier Creek Pkwy,NC,27617
Jimmy John,Grandville,1029,1029 #1029,4365 Suite H. Canal Ave.,MI,49418
Jimmy John,Mission,1030,1030 #1030,5307 Johnson Dr.,KS,66205
Jimmy John,Mission,1030,1030 #1030,5307 Johnson Dr.,MO,66205
Jimmy John,Highland Park,1032,1032 #1032,332 Skokie Valley Rd.,IL,60035
Jimmy John,Wilmette,1033,1033 #1033,3520 W. Lake Ave.,IL,60091
Jimmy John,Kansas City,1034,1034 #1034,3900 Broadway Blvd.,KS,64111
Jimmy John,Kansas City,1034,1034 #1034,3900 Broadway Blvd.,MO,64111
Jimmy John,Monroe,1035,1035 #1035,116 8th St.,WI,53566
Jimmy John,Bountiful,1036,1036 #1036,175 N 500 West,UT,84010
Jimmy John,Chicago,1037,1037 #1037,225 N. Michigan Ave.,IL,60601
Jimmy John,Aurora,1038,1038 #1038,14555 E. Arapahoe Rd.,CO,80112
Jimmy John,Blue Springs,1039,1039 #1039,706 N. 7 Highway,MO,64014
Jimmy John,Topeka,1040,1040 #1040,1025 SW Wanamaker Rd,KS,66604
Jimmy John,Shawnee,1042,1042 #1042,11110 W. 75th St.,KS,66203
Jimmy John,Shawnee,1042,1042 #1042,11110 W. 75th St.,MO,66203
Jimmy John,Norfolk,1043,1043 #1043,500 South 13th St.,NE,68701
Jimmy John,Columbus,1044,1044 #1044,825 23rd St.,NE,68601
Jimmy John,West Chester,1046,1046 #1046,7667 Cox Lane,OH,45069
Jimmy John,Boone,1047,1047 #1047,525 W. King St.,NC,28607
Jimmy John,Apple Valley,1048,1048 #1048,14875 Florence Trail,MN,55124
Jimmy John,Richfield,1049,1049 #1049,720 W. 66th St.,MN,55423
Jimmy John,Lake Forest,1050,1050 #1050,840 S. Waukegan,IL,60045
Jimmy John,San Marcos,1051,1051 #1051,117 E. Hopkins Ave.,TX,78666
Jimmy John,Liberty,1052,1052 #1052,1910 Victory Dr.,KS,64068
Jimmy John,Liberty,1052,1052 #1052,1910 Victory Dr.,MO,64068
Jimmy John,South Bend,1054,1054 #1054,3600 Portage RD,IN,46628
Jimmy John,South Bend,1054,1054 #1054,3600 Portage RD,MI,46628
Jimmy John,Mt. Pleasant,1055,1055 #1055,5502 Washington Ave,IL,53406
Jimmy John,Mt. Pleasant,1055,1055 #1055,5502 Washington Ave,WI,53406
Jimmy John,Appleton,1056,1056 #1056,2828 N. Richmond St.,WI,54914
Jimmy John,Broomfield,1057,1057 #1057,625 Flatiron Marketplace Dr.,CO,80021
Jimmy John,Chesapeake,1059,1059 #1059,1220 Greenbrier Parkway,VA,23320
Jimmy John,Idaho Falls,1060,1060 #1060,402 S. Utah Ave.,ID,83402
Jimmy John,Wayzata,1061,1061 #1061,1140 Wayzata Blvd E,MN,55391
Jimmy John,Winston Salem,1062,1062 #1062,295 W. 4th St.,NC,27101
Jimmy John,Winston Salem,1063,1063 #1063,237 S. Stratford Rd,NC,27103
Jimmy John,Plainfield,1064,1064 #1064,2683 E. Main St.,IN,46168
Jimmy John,Schaumburg,1065,1065 #1065,1420 N. Meacham Rd,IL,60173
Jimmy John,Golden,1066,1066 #1066,1299 Washington Ave.,CO,80401
Jimmy John,Lexington,1067,1067 #1067,333 E. Main St.,KY,40507
Jimmy John,Omaha,1068,1068 #1068,14513 Maple St.,NE,68116
Jimmy John,Suwanee,1069,1069 #1069,3630 Peachtree Pkwy,GA,30097
Jimmy John,Jackson,1070,1070 #1070,10 Stonebridge Blvd,TN,38305
Jimmy John,Longwood,1071,1071 #1071,2401 W.State Road 434,FL,32779
Jimmy John,Livonia,1072,1072 #1072,33177 W. 8 Mile Rd,MI,48152
Jimmy John,Chicago,1073,1073 #1073,1557 N. Milwaukee Ave.,IL,60647
Jimmy John,Kirkland,1074,1074 #1074,92 Central Way,WA,98033
Jimmy John,Grand Rapids,1076,1076 #1076,5925 28th St.,MI,49546
Jimmy John,Orlando,1077,1077 #1077,2 S. Orange Ave.,FL,32801
Jimmy John,Valdosta,1078,1078 #1078,1337 Baytree Rd,GA,31602
Jimmy John,Lake Geneva,1079,1079 #1079,712 W. Main,IL,53147
Jimmy John,Lake Geneva,1079,1079 #1079,712 W. Main,WI,53147
Jimmy John,Marshall,1080,1080 #1080,1011 E. College Ave.,MN,56258
Jimmy John,Louisville,1081,1081 #1081,976 Baxter Ave.,IN,40204
Jimmy John,Louisville,1081,1081 #1081,976 Baxter Ave.,KY,40204
Jimmy John,Clearwater,1082,1082 #1082,553 S. Fort Harrison,FL,33756
Jimmy John,Tampa,1083,1083 #1083,514 N. Franklin,FL,33602
Jimmy John,Hays,1084,1084 #1084,1104 E. 27th St.,KS,67601
Jimmy John,Leawood,1085,1085 #1085,4302 West 119th St.,KS,66209
Jimmy John,Leawood,1085,1085 #1085,4302 West 119th St.,MO,66209
Jimmy John,Festus,1086,1086 #1086,1300 Veterans Blvd,MO,63028
Jimmy John,Des Moines,1087,1087 #1087,1230 Locust St.,IA,50309
Jimmy John,Seattle,1088,1088 #1088,1420 Fifth Ave.,WA,98109
Jimmy John,Seattle,1089,1089 #1089,507 NE Northgate Way,WA,98125
Jimmy John,Clinton,1090,1090 #1090,830 N. Second,IA,52732
Jimmy John,Indianola,1091,1091 #1091,1011 N. Jefferson,IA,50125
Jimmy John,Terre Haute,1092,1092 #1092,1110 Wabash Ave.,IN,47807
Jimmy John,McKinney,1093,1093 #1093,2014 W. University Dr.,TX,75071
Jimmy John,Longmont,1094,1094 #1094,210 Ken Pratt Blvd.,CO,80501
Jimmy John,Youngstown,1095,1095 #1095,7332 Market St.,OH,44512
Jimmy John,Augusta,1096,1096 #1096,1129 Agerton Ln,GA,30909
Jimmy John,South Lyon,1097,1097 #1097,21895 Pontiac Trail,MI,48178
Jimmy John,Menomonee Falls,1098,1098 #1098,N56 W15560 Silver Spring Dr,WI,53051
Jimmy John,Waukesha,1099,1099 #1099,1890 Meadow Lane,WI,53072
Jimmy John,Royal Palm Beach,1101,1101 #1101,155 S. State Rd 7,FL,33414
Jimmy John,Minneapolis,1102,1102 #1102,2317 18th Ave. NE,MN,55418
Jimmy John,Cuyahoga Falls,1103,1103 #1103,677 Howe Ave.,OH,44221
Jimmy John,Watertown,1104,1104 #1104,937 29th Street SE,SD,57201
Jimmy John,Chicago,1105,1105 #1105,2 N. Riverside Plaza,IL,60606
Jimmy John,Fargo,1106,1106 #1106,1414 12th Ave. N.,ND,58102
Jimmy John,Maryland Heights,1107,1107 #1107,2016 McKelvey Rd.,IL,63043
Jimmy John,Maryland Heights,1107,1107 #1107,2016 McKelvey Rd.,MO,63043
Jimmy John,Wichita,1109,1109 #1109,3300 N. Rock Rd.,KS,67226
Jimmy John,Stevens Point,1110,1110 #1110,108 Division St.,WI,54481
Jimmy John,Council Bluffs,1111,1111 #1111,418 East Broadway,IA,51503
Jimmy John,Council Bluffs,1111,1111 #1111,418 East Broadway,NE,51503
Jimmy John,Colorado Springs,1112,1112 #1112,5885 Stetson Hills Blvd.,CO,80923
Jimmy John,Charlottesville,1114,1114 #1114,1650 Rio Rd. East,VA,22901
Jimmy John,Greensboro,1115,1115 #1115,3208 High Point Rd.,NC,27407
Jimmy John,Hudsonville,1116,1116 #1116,6490 28th Ave,MI,49428
Jimmy John,Lubbock,1117,1117 #1117,4730 Slide Rd.,TX,79414
Jimmy John,Macomb,1119,1119 #1119,821 W. Jackson St.,IL,61455
Jimmy John,Blaine,1120,1120 #1120,405 87th Lane NE,MN,55434
Jimmy John,Salt Lake City,1121,1121 #1121,605 E. 400 South,UT,84102
Jimmy John,Akron,1122,1122 #1122,371 S. Main St,OH,44308
Jimmy John,River Falls,1123,1123 #1123,477 Spruce St.,MN,54022
Jimmy John,River Falls,1123,1123 #1123,477 Spruce St.,WI,54022
Jimmy John,Matthews,1124,1124 #1124,2233 Matthews Township Parkway,NC,28105
Jimmy John,Matthews,1124,1124 #1124,2233 Matthews Township Parkway,SC,28105
Jimmy John,Hillside,1126,1126 #1126,2223 S. Wolf Rd.,IL,60154
Jimmy John,St Petersburg,1127,1127 #1127,1410 66th St.,FL,33710
Jimmy John,Philadelphia,1128,1128 #1128,221 S. 11th St.,PA,19107
Jimmy John,Fort Collins,1129,1129 #1129,4515 John F Kennedy Pkwy,CO,80525
Jimmy John,Fort Collins,1130,1130 #1130,1335 W Elizabeth St,CO,80521
Jimmy John,Glen Allen,1131,1131 #1131,11301 W. Broad St.,VA,23233
Jimmy John,Sioux City,1132,1132 #1132,2424 Hamilton Blvd.,IA,51104
Jimmy John,Gainesville,1133,1133 #1133,333 Jesse Jewell Parkway,GA,30501
Jimmy John,Omaha,1134,1134 #1134,3309 Oak View Dr.,IA,68144
Jimmy John,Omaha,1134,1134 #1134,3309 Oak View Dr.,NE,68144
Jimmy John,Mansfield,1135,1135 #1135,1219 E. Debbie Lane,TX,76063
Jimmy John,Bellevue,1136,1136 #1136,601 108th Ave. NE,WA,98004
Jimmy John,Seattle,1137,1137 #1137,13242 N. Aurora Ave,WA,98133
Jimmy John,Richardson,1138,1138 #1138,4101 E. Renner Rd.,TX,75082
Jimmy John,New Albany,1139,1139 #1139,3001 Charlestown Crossing Way,IN,47150
Jimmy John,New Albany,1139,1139 #1139,3001 Charlestown Crossing Way,KY,47150
Jimmy John,Springdale,1140,1140 #1140,11493 Princeton Pike,KY,45246
Jimmy John,Springdale,1140,1140 #1140,11493 Princeton Pike,OH,45246
Jimmy John,Denver,1141,1141 #1141,361 E. Alameda Ave,CO,80209
Jimmy John,Dayton,1142,1142 #1142,2325 Miamisburg Centerville Rd.,OH,45459
Jimmy John,Saint Charles,1143,1143 #1143,3754 Elm St,MO,63301
Jimmy John,Frisco,1144,1144 #1144,1930 Parkwood Suite 100,TX,75034
Jimmy John,Irving,1145,1145 #1145,6450 N. MacArthur Blvd,TX,75039
Jimmy John,Grand Junction,1147,1147 #1147,2502 Highway 6 & Highway 50,CO,81505
Jimmy John,Flint,1148,1148 #1148,3292 S. Linden,MI,48532
Jimmy John,Fort Lauderdale,1149,1149 #1149,1135 S. Federal Hwy,FL,33316
Jimmy John,Austin,1150,1150 #1150,13429 US Highway 183 N,TX,78729
Jimmy John,Orange City,1151,1151 #1151,2631 Enterprise Rd,FL,32763
Jimmy John,Greenville,1152,1152 #1152,460 E. Moye Blvd,NC,27834
Jimmy John,Buffalo,1153,1153 #1153,606 Crossroads Campus Dr.,MN,55313
Jimmy John,Coralville,1154,1154 #1154,2510 Corridor Way,IA,52241
Jimmy John,Iowa City,1155,1155 #1155,2569 North Dodge,IA,52245
Jimmy John,King of Prussia,1156,1156 #1156,340 W. Dekalb Pike,PA,19406
Jimmy John,Grand Rapids,1157,1157 #1157,1533 Wealthy St. SE,MI,49506
Jimmy John,Houston,1159,1159 #1159,10535 Westheimer Rd.,TX,77047
Jimmy John,Plymouth,1160,1160 #1160,2129 N. Oak Rd.,IN,46563
Jimmy John,Fox Point,1161,1161 #1161,8793 N. Port Washington Rd.,WI,53217
Jimmy John,Wausau,1162,1162 #1162,2205 Stewart Ave.,WI,54401
Jimmy John,Dallas,1163,1163 #1163,1414 Elm St.,TX,75202
Jimmy John,Aurora,1164,1164 #1164,3995 Lewiston St,CO,80011
Jimmy John,Branson,1165,1165 #1165,2715 W. Highway 76,MO,65616
Jimmy John,Salina,1166,1166 #1166,1661 S. Ohio St.,KS,67401
Jimmy John,San Antonio,1167,1167 #1167,7313 San Pedro Ave.,TX,78216
Jimmy John,Lincoln,1168,1168 #1168,6891 A St. Suite 216,NE,68510
Jimmy John,Rexburg,1169,1169 #1169,109 S. 2nd W,ID,83440
Jimmy John,Cedar Rapids,1170,1170 #1170,2315 Edgewood Rd SW,IA,52404
Jimmy John,Dublin,1171,1171 #1171,6553 Perimeter Dr.,OH,43016
Jimmy John,Memphis,1172,1172 #1172,2293 N. Germantown Parkway,TN,38016
Jimmy John,Lakewood,1173,1173 #1173,14710 W Colfax Ave,CO,80401
Jimmy John,LaCrosse,1174,1174 #1174,1420 Losey Blvd.,WI,54601
Jimmy John,Atlanta,1175,1175 #1175,3324 A Peachtree Rd NE,GA,30326
Jimmy John,Columbus,1177,1177 #1177,4527 Woodruff Rd,GA,31904
Jimmy John,Rosemont,1178,1178 #1178,10431 Touhy Ave.,IL,60018
Jimmy John,Elgin,1179,1179 #1179,400 S. Randall,IL,60123
Jimmy John,Tucson,1180,1180 #1180,63 E. Congress St,AZ,85701
Jimmy John,Layton,1181,1181 #1181,765 W Antelope Dr,UT,84041
Jimmy John,Concord,1182,1182 #1182,8532 Pit Stop Ct.,NC,28027
Jimmy John,Plymouth,1183,1183 #1183,3570 Vicksburg Ln,MN,55447
Jimmy John,Maple Grove,1184,1184 #1184,8099 Wedgewood Ln. N.,MN,55369
Jimmy John,White Lake,1185,1185 #1185,9278 Highland,MI,48386
Jimmy John,Cleveland,1186,1186 #1186,4825 Richmond Ave.,OH,44128
Jimmy John,Loves Park,1187,1187 #1187,: 6112 N. 2nd St,IL,61111
Jimmy John,Loves Park,1187,1187 #1187,: 6112 N. 2nd St,WI,61111
Jimmy John,Eau Claire,1189,1189 #1189,923 W. Clairemont Ave.,WI,54701
Jimmy John,Mount Vernon,1190,1190 #1190,101 Davidson Ave,IL,62864
Jimmy John,Boise,1191,1191 #1191,598 W. Main,ID,83702
Jimmy John,Wentzville,1192,1192 #1192,1867 Wentzville Parkway,MO,63385
Jimmy John,Marquette,1193,1193 #1193,3228 US 41 W.,MI,49855
Jimmy John,Belton,1194,1194 #1194,810 E. North Ave.,KS,64012
Jimmy John,Belton,1194,1194 #1194,810 E. North Ave.,MO,64012
Jimmy John,Thornton,1195,1195 #1195,9645 Washington St,CO,80229
Jimmy John,Taylor,1196,1196 #1196,10105 Telegraph Rd,MI,48180
Jimmy John,Chicago,1197,1197 #1197,2810 N. Clark St.,IL,60657
Jimmy John,Chicago,1198,1198 #1198,237 W. North Ave.,IL,60610
Jimmy John,Volo,1199,1199 #1199,2745 Hartigan Rd,IL,60041
Jimmy John,Volo,1199,1199 #1199,2745 Hartigan Rd,WI,60041
Jimmy John,Des Moines,1200,1200 #1200,422 E. Locust St.,IA,50309
Jimmy John,Minnetonka,1202,1202 #1202,14200 Wayzata Blvd.,MN,55305
Jimmy John,Carmel,1203,1203 #1203,9893 N. Michigan Rd Ste. 130,IN,46032
Jimmy John,Woodhaven,1204,1204 #1204,22211 West Road,MI,48183
Jimmy John,North Platte,1205,1205 #1205,410 E. Leota,NE,69101
Jimmy John,Savage,1206,1206 #1206,14351 Hwy 13,MN,55378
Jimmy John,Riverwoods,1207,1207 #1207,2047 Milwaukee Ave,IL,60015
Jimmy John,Minot,1208,1208 #1208,1100 N. Broadway,ND,58703
Jimmy John,Kansas City,1209,1209 #1209,303 NE Englewood Rd,KS,64118
Jimmy John,Kansas City,1209,1209 #1209,303 NE Englewood Rd,MO,64118
Jimmy John,Allen Park,1210,1210 #1210,3420 Fairlane Dr,MI,48101
Jimmy John,Lapeer,1211,1211 #1211,1247 Demille Rd.,MI,48446
Jimmy John,Independence,1212,1212 #1212,20120 A E. Jackson Dr.,KS,64057
Jimmy John,Independence,1212,1212 #1212,20120 A E. Jackson Dr.,MO,64057
Jimmy John,Columbus,1213,1213 #1213,3217 Macon Rd,GA,31906
Jimmy John,Omaha,1215,1215 #1215,589 N 155th Plaza,IA,68154
Jimmy John,Omaha,1215,1215 #1215,589 N 155th Plaza,NE,68154
Jimmy John,Omaha,1216,1216 #1216,17650 Wright St.,NE,68130
Jimmy John,Menomonie,1217,1217 #1217,1301 Broadway St. North,WI,54751
Jimmy John,Cincinnati,1218,1218 #1218,6459 Glenway Ave,KY,45211
Jimmy John,Cincinnati,1218,1218 #1218,6459 Glenway Ave,OH,45211
Jimmy John,Logan,1219,1219 #1219,1482 N. Main St.,UT,84341
Jimmy John,East Peoria,1220,1220 #1220,242 W Camp St.,IL,61611
Jimmy John,Altamonte Springs,1221,1221 #1221,821 South State 434,FL,32714
Jimmy John,Orlando,1222,1222 #1222,2323 S. Orange Ave.,FL,32806
Jimmy John,Hazelwood,1223,1223 #1223,6064 N. Lindbergh Blvd,IL,63042
Jimmy John,Hazelwood,1223,1223 #1223,6064 N. Lindbergh Blvd,MO,63042
Jimmy John,St. Louis,1226,1226 #1226,5720 Oakland Ave,IL,63110
Jimmy John,St. Louis,1226,1226 #1226,5720 Oakland Ave,MO,63110
Jimmy John,College Station,1227,1227 #1227,200 University Dr. E.,TX,77840
Jimmy John,Lansing,1228,1228 #1228,834 N. Main St.,KS,66043
Jimmy John,Lansing,1228,1228 #1228,834 N. Main St.,MO,66043
Jimmy John,Richardson,1229,1229 #1229,285 W. Campbell Rd,TX,75080
Jimmy John,Battle Creek,1230,1230 #1230,5568 Beckley Rd,MI,49015
Jimmy John,Louisville,1231,1231 #1231,301 E. Market St,IN,40202
Jimmy John,Louisville,1231,1231 #1231,301 E. Market St,KY,40202
Jimmy John,Louisville,1232,1232 #1232,341 W. Cardinal Blvd,IN,40208
Jimmy John,Louisville,1232,1232 #1232,341 W. Cardinal Blvd,KY,40208
Jimmy John,Washington,1234,1234 #1234,1717 Pennsylvania Ave NW,DC,20530
Jimmy John,Washington,1234,1234 #1234,1717 Pennsylvania Ave NW,MD,20530
Jimmy John,Washington,1234,1234 #1234,1717 Pennsylvania Ave NW,VA,20530
Jimmy John,Rogers,1235,1235 #1235,13785 Rogers Dr.,MN,55374
Jimmy John,Chicago,1236,1236 #1236,201 W. Madison,IL,60606
Jimmy John,Colorado Springs,1237,1237 #1237,1590 Briargate Blvd.,CO,80920
Jimmy John,Norfolk,1238,1238 #1238,140 Granby St,VA,23510
Jimmy John,Hartland,1239,1239 #1239,9998 Highland Rd,MI,48353
Jimmy John,Brownsburg,1240,1240 #1240,919 N Green St,IN,46112
Jimmy John,Auburn Hills,1243,1243 #1243,4433 Interpark Dr.,MI,48326
Jimmy John,Oconomowoc,1246,1246 #1246,1674 Old School House Rd,WI,53066
Jimmy John,Rockford,1247,1247 #1247,3416 S. Alpine Rd,IL,61109
Jimmy John,Hutchinson,1248,1248 #1248,900 E. 30th Ave,KS,67502
Jimmy John,Sedalia,1249,1249 #1249,2923 W. Broadway,MO,65301
Jimmy John,Jefferson City,1250,1250 #1250,3750 W. Truman Blvd. Suite A,MO,65101
Jimmy John,Walker,1251,1251 #1251,4482 Lake Michigan Rd,MI,49534
Jimmy John,Racine,1253,1253 #1253,141 N. Main St.,IL,53403
Jimmy John,Racine,1253,1253 #1253,141 N. Main St.,WI,53403
Jimmy John,Austin,1254,1254 #1254,4001 N. Lamar Blvd,TX,78756
Jimmy John,Harrisonburg,1255,1255 #1255,1681 E. Market St.,VA,22801
Jimmy John,Pembroke Pines,1257,1257 #1257,205 N Hiatus Rd,FL,33026
Jimmy John,Greenwood Village,1259,1259 #1259,6570 S. Yosemite St,CO,80111
Jimmy John,Irving,1260,1260 #1260,118 E. John Carpenter Fwy Ste 220,TX,75062
Jimmy John,Omaha,1261,1261 #1261,2911 S 13th Ct.,IA,68108
Jimmy John,Omaha,1261,1261 #1261,2911 S 13th Ct.,NE,68108
Jimmy John,Cheyenne,1262,1262 #1262,110 E. Lincoln Way,WY,82001
Jimmy John,Collinsville,1263,1263 #1263,501 Belt Line Rd.,IL,62234
Jimmy John,South Holland,1264,1264 #1264,264 W. 162nd,IL,60473
Jimmy John,South Holland,1264,1264 #1264,264 W. 162nd,IN,60473
Jimmy John,Centennial,1265,1265 #1265,20209 E. Smoky Hill Rd,CO,80015
Jimmy John,Greeley,1266,1266 #1266,4629 Centerplace Dr.,CO,80634
Jimmy John,Blue Island,1267,1267 #1267,12601 S. Western Ave,IL,60406
Jimmy John,Blue Island,1267,1267 #1267,12601 S. Western Ave,IN,60406
Jimmy John,Altoona,1269,1269 #1269,301 Center Place SW,IA,50009
Jimmy John,St. Louis,1270,1270 #1270,1631 S. Broadway,IL,63104
Jimmy John,St. Louis,1270,1270 #1270,1631 S. Broadway,MO,63104
Jimmy John,Creve Coeur,1271,1271 #1271,11429 Olive Blvd.,MO,63141
Jimmy John,St. Louis,1272,1272 #1272,6459 Chippewa,IL,63109
Jimmy John,St. Louis,1272,1272 #1272,6459 Chippewa,MO,63109
Jimmy John,North Charleston,1274,1274 #1274,4959 Centre Pointe Dr,SC,29418
Jimmy John,West Chester,1275,1275 #1275,9239 Floer Dr,OH,45069
Jimmy John,Chicago,1276,1276 #1276,501 N. Lasalle,IL,60654
Jimmy John,Dallas,1280,1280 #1280,1222 N. Bishop,TX,75208
Jimmy John,Boone,1282,1282 #1282,1778 Blowing Rock Rd,NC,28607
Jimmy John,Baton Rouge,1283,1283 #1283,3043 Perkins Rd,LA,70806
Jimmy John,New Brunswick,1284,1284 #1284,8 Easton Ave.,NJ,8901
Jimmy John,Hebron,1285,1285 #1285,2111 N Bend Rd,KY,41048
Jimmy John,Hebron,1285,1285 #1285,2111 N Bend Rd,OH,41048
Jimmy John,Meridian,1286,1286 #1286,2959 N. Eagle Rd.,ID,83642
Jimmy John,Belleville,1287,1287 #1287,100 E. Main St.,IL,62220
Jimmy John,Houston,1288,1288 #1288,12925 FM 1960 Rd. W.,TX,77065
Jimmy John,Chesterton,1289,1289 #1289,524 Indian Boundary Rd,IN,46304
Jimmy John,Clearwater,1291,1291 #1291,2519 McMullen Booth Rd,FL,34695
Jimmy John,Austin,1292,1292 #1292,816 Congress Ave.,TX,78701
Jimmy John,Austin,1293,1293 #1293,1100 Center Ridge Dr,TX,78753
Jimmy John,Sandy Springs,1294,1294 #1294,6064 Roswell Rd,GA,30328
Jimmy John,West Valley City,1295,1295 #1295,2885 South 5600 W,UT,84120
Jimmy John,Manteno,1296,1296 #1296,104 S. Creek St.,IL,60950
Jimmy John,Topeka,1297,1297 #1297,2007 NW Topeka Blvd,KS,66608
Jimmy John,Emporia,1298,1298 #1298,726 Commercial St.,KS,66801
Jimmy John,Houston,1299,1299 #1299,6940 FM-1960 W. Suite B,TX,77069
Jimmy John,Richmond,1300,1300 #1300,7005 Three Chopt Rd.,VA,23226
Jimmy John,Wichita,1301,1301 #1301,517 N. Hillside St.,KS,67214
Jimmy John,Englewood,1302,1302 #1302,3001 S. Broadway,CO,80113
Jimmy John,Marysville,1303,1303 #1303,2880 Gratiot Rd,MI,48040
Jimmy John,Cincinnati,1305,1305 #1305,8118 Montgomery Rd,KY,45236
Jimmy John,Cincinnati,1305,1305 #1305,8118 Montgomery Rd,OH,45236
Jimmy John,Lake Bluff,1306,1306 #1306,701 Rockland Rd.,IL,60044
Jimmy John,Tampa,1307,1307 #1307,533 S. Howard Ave.,FL,33606
Jimmy John,Clinton,1310,1310 #1310,1952 N. 2000 W.,UT,84015
Jimmy John,Orlando,1311,1311 #1311,2567 Kirkman Rd,FL,32811
Jimmy John,Colorado Springs,1312,1312 #1312,4290 N. Academy Blvd,CO,80918
Jimmy John,Lexington,1313,1313 #1313,3735 Palomar Centre Dr.,KY,40513
Jimmy John,Lexington,1314,1314 #1314,1397 W. Main St.,KY,40511
Jimmy John,Brookfield,1315,1315 #1315,12460 W. Capital Dr.,WI,53005
Jimmy John,New Berlin,1316,1316 #1316,3550 S. Moorland Rd,WI,53151
Jimmy John,Oklahoma City,1317,1317 #1317,111 N. Harrison Ave.,OK,73104
Jimmy John,Conway,1318,1318 #1318,1300 Hwy. 544,SC,29526
Jimmy John,Florence,1319,1319 #1319,7921 Mall Rd,KY,41042
Jimmy John,Florence,1319,1319 #1319,7921 Mall Rd,OH,41042
Jimmy John,Tucson,1320,1320 #1320,6310 E. Tanque Verde Rd.,AZ,85715
Jimmy John,Colorado Springs,1321,1321 #1321,9275 N Union Blvd,CO,80920
Jimmy John,Lombard,1322,1322 #1322,2770 South Highland Ave,IL,60148
Jimmy John,Olathe,1323,1323 #1323,283 N. Hwy 7,KS,66061
Jimmy John,Fort Myers,1324,1324 #1324,9961 Interstate Commerce Dr.,FL,33913
Jimmy John,Statesboro,1326,1326 #1326,100 Brampton Ave.,GA,30458
Jimmy John,Atlanta,1327,1327 #1327,2941 Paces Ferry Rd SE,GA,30339
Jimmy John,Murfreesboro,1328,1328 #1328,2130 Middle Tennessee Blvd.,TN,37130
Jimmy John,Madison,1330,1330 #1330,1 N. Randall St.,WI,53711
Jimmy John,Salt Lake City,1331,1331 #1331,14 E. Broadway,UT,84111
Jimmy John,Mount Prospect,1332,1332 #1332,1220 E Central Rd,IL,60056
Jimmy John,Clifton,1333,1333 #1333,3203 I-70 Business Loop,CO,81520
Jimmy John,Spokane,1334,1334 #1334,601 W Main,WA,99201
Jimmy John,Castle Rock,1335,1335 #1335,5646 Allen Way,CO,80108
Jimmy John,Roanoke,1336,1336 #1336,3621 Blue Hills Village Dr,VA,24012
Jimmy John,Rapid City,1338,1338 #1338,36 E Stumer Rd,SD,57701
Jimmy John,Owatonna,1340,1340 #1340,670 W. Bridge St.,MN,55060
Jimmy John,Kansas City,1341,1341 #1341,9558 N. McGee St.,KS,64155
Jimmy John,Kansas City,1341,1341 #1341,9558 N. McGee St.,MO,64155
Jimmy John,Faribault,1342,1342 #1342,300 Western Ave.,MN,55021
Jimmy John,Great Falls,1343,1343 #1343,903 10th Ave S,MT,59405
Jimmy John,Independence,1344,1344 #1344,6800 Rockside Rd.,OH,44131
Jimmy John,Tukwila,1345,1345 #1345,16864 Southcenter Pkwy,WA,98188
Jimmy John,Seattle,1346,1346 #1346,701 5th Ave.,WA,98104
Jimmy John,Seattle,1347,1347 #1347,1221 Madison St.,WA,98104
Jimmy John,Seattle,1348,1348 #1348,370 Westlake Ave N.,WA,98109
Jimmy John,Seattle,1349,1349 #1349,1940 S. 1st Ave.,WA,98134
Jimmy John,Washington,1350,1350 #1350,1101 14th St. NW,DC,20005
Jimmy John,Washington,1350,1350 #1350,1101 14th St. NW,MD,20005
Jimmy John,Washington,1350,1350 #1350,1101 14th St. NW,VA,20005
Jimmy John,Provo,1351,1351 #1351,2308 N University Pkway,UT,84604
Jimmy John,Houghton,1352,1352 #1352,811 Shelden Ave,MI,49931
Jimmy John,Lincoln,1354,1354 #1354,2701 King Ln,NE,68521
Jimmy John,Omaha,1355,1355 #1355,7406 N 30th St.,IA,68112
Jimmy John,Omaha,1355,1355 #1355,7406 N 30th St.,NE,68112
Jimmy John,Berwyn,1356,1356 #1356,7028 Cermak Rd.,IL,60402
Jimmy John,Asheville,1357,1357 #1357,5 Biltmore Ave.,NC,28801
Jimmy John,Harrisonville,1358,1358 #1358,301 S. Commercial St,MO,64701
Jimmy John,Rolla,1359,1359 #1359,1051 N. Bishop Ave.,MO,65401
Jimmy John,Heath,1360,1360 #1360,1031 Hebron Rd,OH,43056
Jimmy John,Milwaukee,1361,1361 #1361,3632 S. 27th St,WI,53221
Jimmy John,Lincoln,1362,1362 #1362,1541 N 86th St.,NE,68505
Jimmy John,Conshohocken,1363,1363 #1363,101 Fayette St.,PA,19428
Jimmy John,Janesville,1364,1364 #1364,2929 Milton Ave.,WI,53545
Jimmy John,Newburgh,1365,1365 #1365,8680 High Point Dr.,IN,47630
Jimmy John,Evansville,1366,1366 #1366,130 North St. Joseph Ave,IN,47712
Jimmy John,Dallas,1367,1367 #1367,18152 Preston Rd.,TX,75252
Jimmy John,Arlington,1368,1368 #1368,2450 Crystal Dr,DC,22202
Jimmy John,Arlington,1368,1368 #1368,2450 Crystal Dr,MD,22202
Jimmy John,Arlington,1368,1368 #1368,2450 Crystal Dr,VA,22202
Jimmy John,Galesburg,1369,1369 #1369,235 E. Main,IL,61401
Jimmy John,Florence,1370,1370 #1370,483 W. Palmetto St.,SC,29501
Jimmy John,Overland Park,1371,1371 #1371,8937 W 95th Street,KS,66212
Jimmy John,Overland Park,1371,1371 #1371,8937 W 95th Street,MO,66212
Jimmy John,Brentwood,1372,1372 #1372,101 Creekside Crossing STE 400,TN,37027
Jimmy John,Petoskey,1374,1374 #1374,441 E. Mitchell St.,MI,49770
Jimmy John,Fargo,1375,1375 #1375,2511 Kirsten Lane,ND,58104
Jimmy John,Bloomington,1376,1376 #1376,2636 3rd. St.,IN,47401
Jimmy John,Lakewood,1377,1377 #1377,14725 Detroit Ave,OH,44102
Jimmy John,Largo,1378,1378 #1378,10500 Ulmerton Rd.,FL,33778
Jimmy John,Billings,1379,1379 #1379,805 N. 24th St. West,MT,59102
Jimmy John,Tampa,1380,1380 #1380,17521 Preserve Walk Lane,FL,33647
Jimmy John,Crescent Springs,1381,1381 #1381,2404 High St.,KY,41017
Jimmy John,Crescent Springs,1381,1381 #1381,2404 High St.,OH,41017
Jimmy John,Zion,1382,1382 #1382,2111 Sheridan Road,IL,60099
Jimmy John,Zion,1382,1382 #1382,2111 Sheridan Road,WI,60099
Jimmy John,Owosso,1383,1383 #1383,1018 E Main St,MI,48867
Jimmy John,Wilmington,1384,1384 #1384,2804 College Rd,NC,28412
Jimmy John,Eau Claire,1385,1385 #1385,3807 S. Oakwood Mall Dr.,WI,54701
Jimmy John,St. Peters,1386,1386 #1386,6295 Mid Rivers Mall Dr.,MO,63376
Jimmy John,Tuscaloosa,1387,1387 #1387,815 Lurleen B Wallace Blvd,AL,35401
Jimmy John,Savannah,1388,1388 #1388,7 E. Congress St,GA,31401
Jimmy John,Oshkosh,1389,1389 #1389,412 S. Koeller St.,WI,54902
Jimmy John,Jefferson City,1390,1390 #1390,128 E. High St,MO,65101
Jimmy John,Greenville,1391,1391 #1391,540 Cotanche St.,NC,27858
Jimmy John,Hillside,1392,1392 #1392,60 N. Mannheim Rd,IL,60162
Jimmy John,Richardson,1393,1393 #1393,1425 Belt Line Rd.,TX,75081
Jimmy John,Avon,1394,1394 #1394,10942 US Hwy 36,IN,46234
Jimmy John,Fenton,1395,1395 #1395,3208 Silver Lake Rd,MI,48430
Jimmy John,Columbus,1397,1397 #1397,20 S. Front St.,OH,43085
Jimmy John,Scottsbluff,1398,1398 #1398,3018 Ave I,NE,69361
Jimmy John,Salt Lake City,1400,1400 #1400,6522 S. Big Cottonwood Canyon Rd.,UT,84121
Jimmy John,Lawrence,1401,1401 #1401,1200 Oread Ave,KS,66044
Jimmy John,Wichita,1402,1402 #1402,10758 W 21st N,KS,67205
Jimmy John,St Petersburg,1404,1404 #1404,750 4th St. N,FL,33701
Jimmy John,Tucson,1405,1405 #1405,2575 N. Campbell Ave.,AZ,85719
Jimmy John,Beaverton,1406,1406 #1406,2790 SW Cedar Hills Blvd.,OR,97005
Jimmy John,Beaverton,1406,1406 #1406,2790 SW Cedar Hills Blvd.,WA,97005
Jimmy John,Lakeland,1407,1407 #1407,125 N. Kentucky Ave.,FL,33801
Jimmy John,Bloomington,1408,1408 #1408,203 W. Market,IL,61701
Jimmy John,Bala Cynwyd,1409,1409 #1409,37 E City Ave,PA,19004
Jimmy John,Portland,1410,1410 #1410,1139 NE Broadway St.,OR,97232
Jimmy John,Portland,1410,1410 #1410,1139 NE Broadway St.,WA,97232
Jimmy John,Sheboygan,1411,1411 #1411,2633 Calumet Ave.,WI,53083
Jimmy John,Lakewood,1412,1412 #1412,7850 W. Alameda Ave,CO,80226
Jimmy John,Columbus,1414,1414 #1414,2115 W Jonathon Moore Pike,IN,47201
Jimmy John,Columbus,1416,1416 #1416,1544 N. Cassady Ave,OH,43219
Jimmy John,Elmhurst,1417,1417 #1417,1035 S. York Rd.,IL,60126
Jimmy John,Spokane,1418,1418 #1418,105 E. Mission Ave.,WA,99207
Jimmy John,Spokane,1419,1419 #1419,426 E Hastings Rd,WA,99218
Jimmy John,Denver,1420,1420 #1420,7507 E 36th Ave.,CO,80238
Jimmy John,Pullman,1421,1421 #1421,600 NE Colorado St.,WA,99163
Jimmy John,Amarillo,1422,1422 #1422,2330 S. Soncy Rd.,TX,79124
Jimmy John,Greenville,1423,1423 #1423,1175 Woods Crossing Rd,SC,29607
Jimmy John,South Ogden,1424,1424 #1424,4000 Riverdale Rd,UT,84405
Jimmy John,Ogden,1425,1425 #1425,185 W. 12th St.,UT,84404
Jimmy John,Gresham,1426,1426 #1426,975 NE Hogan Dr,OR,97030
Jimmy John,Gresham,1426,1426 #1426,975 NE Hogan Dr,WA,97030
Jimmy John,Richmond,1427,1427 #1427,11500 Midlothian Turnpike,VA,23235
Jimmy John,Arlington,1428,1428 #1428,504 E Abram St.,TX,76010
Jimmy John,Longmont,1431,1431 #1431,2318 17th Ave,CO,80501
Jimmy John,Marion,1432,1432 #1432,1610 W. Kem Rd,IN,46952
Jimmy John,Virginia Beach,1434,1434 #1434,4500 Main St.,VA,23462
Jimmy John,Kent,1435,1435 #1435,229 Washington Ave. N,WA,98032
Jimmy John,Inver Grove Heights,1436,1436 #1436,5850 Blaine Ave,MN,55076
Jimmy John,South Bend,1437,1437 #1437,52931 State Rd. 933,IN,46637
Jimmy John,South Bend,1437,1437 #1437,52931 State Rd. 933,MI,46637
Jimmy John,Federal Way,1438,1438 #1438,31889 Gateway Center Blvd. S,WA,98003
Jimmy John,Puyallup,1439,1439 #1439,12009 Meridian Ave. E,WA,98373
Jimmy John,Tampa,1440,1440 #1440,2537 N. Dale Mabry Hwy,FL,33607
Jimmy John,Tampa,1441,1441 #1441,12821 N Dale Mabry Hwy,FL,33548
Jimmy John,Bismarck,1442,1442 #1442,301 S. 3rd St.,ND,58504
Jimmy John,"Birmingham,",1443,1443 #1443,33524 Woodward Ave.,MI,48009
Jimmy John,Bloomfield Township,1444,1444 #1444,42855 Woodard Ave.,MI,48304
Jimmy John,Tigard,1445,1445 #1445,7140 Hazelfern Rd,OR,97224
Jimmy John,Tigard,1445,1445 #1445,7140 Hazelfern Rd,WA,97224
Jimmy John,Germantown,1446,1446 #1446,7850 Poplar Ave.,TN,38138
Jimmy John,Des Moines,1448,1448 #1448,4926 SE 14th St.,IA,50320
Jimmy John,Ankeny,1449,1449 #1449,202 S. Ankeny Rd.,IA,50023
Jimmy John,Fishers,1450,1450 #1450,11630 Olio Rd,IN,46037
Jimmy John,Muncie,1451,1451 #1451,615 E. McGalliard Rd,IN,47303
Jimmy John,Lakeway,1452,1452 #1452,2410 Ranch Road 620 South,TX,78734
Jimmy John,Louisville,1453,1453 #1453,332 W. Broadway,IN,40202
Jimmy John,Louisville,1453,1453 #1453,332 W. Broadway,KY,40202
Jimmy John,Clarksville,1455,1455 #1455,1820 Madison St.,TN,37043
Jimmy John,Orlando,1456,1456 #1456,464 N. Alafaya Trail,FL,32828
Jimmy John,Orlando,1457,1457 #1457,3164 E Colonial Dr,FL,32803
Jimmy John,Fort Wayne,1458,1458 #1458,2894 E. Dupont Rd.,IN,46825
Jimmy John,Columbia Heights,1459,1459 #1459,4955 Central Ave,MN,55421
Jimmy John,Stillwater,1460,1460 #1460,602 N. Main St.,OK,74075
Jimmy John,Stillwater,1461,1461 #1461,217 S. Washington St.,OK,74074
Jimmy John,Indianapolis,1462,1462 #1462,6151 N. Keystone Ave.,IN,46220
Jimmy John,Garland,1463,1463 #1463,909 W. Centerville Rd,TX,75043
Jimmy John,Jacksonville,1464,1464 #1464,1725 Hendricks Ave,FL,32207
Jimmy John,York,1465,1465 #1465,150 A Memory Lane,PA,17402
Jimmy John,Aurora,1468,1468 #1468,4261 S. Buckley Rd.,CO,80013
Jimmy John,Tyler,1469,1469 #1469,1847 Troup Hwy,TX,75701
Jimmy John,Weston,1470,1470 #1470,4533 Weston Rd.,FL,33331
Jimmy John,Overland Park,1471,1471 #1471,8601 College Blvd,KS,66210
Jimmy John,Overland Park,1471,1471 #1471,8601 College Blvd,MO,66210
Jimmy John,Tempe,1472,1472 #1472,780 W. Elliot,AZ,85284
Jimmy John,Mesa,1473,1473 #1473,350 W. Baseline Rd.,AZ,85210
Jimmy John,Louisville,1474,1474 #1474,12903 Shelbyville Rd.,IN,40243
Jimmy John,Louisville,1474,1474 #1474,12903 Shelbyville Rd.,KY,40243
Jimmy John,Baltimore,1476,1476 #1476,401 W. Pratt St.,MD,21201
Jimmy John,Cincinnati,1477,1477 #1477,8190 Beechmont Ave.,KY,45255
Jimmy John,Cincinnati,1477,1477 #1477,8190 Beechmont Ave.,OH,45255
Jimmy John,Bozeman,1479,1479 #1479,1500 N. 19th Ave,MT,59718
Jimmy John,Peoria,1481,1481 #1481,8516 N. Knoxville Ave.,IL,61615
Jimmy John,Hartford,1482,1482 #1482,1540 East Sumner St,WI,53027
Jimmy John,Springfield,1483,1483 #1483,3336 Gateway St.,OR,97477
Jimmy John,Chicago,1486,1486 #1486,205 E. Ohio St.,IL,60611
Jimmy John,San Francisco,1489,1489 #1489,50 Post St,CA,94105
Jimmy John,Houston,1490,1490 #1490,1270 N. Fry,TX,77449
Jimmy John,Pittsburgh,1491,1491 #1491,501 Grant St,PA,15219
Jimmy John,Niles,1492,1492 #1492,1260 S 11th St,IN,49120
Jimmy John,Niles,1492,1492 #1492,1260 S 11th St,MI,49120
Jimmy John,Aurora,1493,1493 #1493,10551 E. Garden Dr.,CO,80012
Jimmy John,Littleton,1494,1494 #1494,91 West Mineral Ave,CO,80120
Jimmy John,West Milwaukee,1495,1495 #1495,1403 Miller Park Way,WI,53214
Jimmy John,Morgantown,1496,1496 #1496,1018 Suncrest Towne Centre,WV,26505
Jimmy John,Houston,1498,1498 #1498,9778 Katy Fwy.,TX,77055
Jimmy John,Hixson,1499,1499 #1499,5111 Hixson Pike Rd,TN,37343
Jimmy John,Harrisburg,1501,1501 #1501,3909 Union Deposit Rd,PA,17109
Jimmy John,Glendale,1502,1502 #1502,7708 W Bell Rd,AZ,85308
Jimmy John,Terre Haute,1504,1504 #1504,3734 US Hwy-41,IN,47802
Jimmy John,North Little Rock,1505,1505 #1505,4120 E McCain Blvd,AR,72117
Jimmy John,Findlay,1506,1506 #1506,536 Trenton Ave,OH,45840
Jimmy John,Wilmington,1507,1507 #1507,120 Market St.,NC,28401
Jimmy John,Blue Ash,1509,1509 #1509,11255 Reed Hartman Blvd,KY,45241
Jimmy John,Blue Ash,1509,1509 #1509,11255 Reed Hartman Blvd,OH,45241
Jimmy John,Beaverton,1510,1510 #1510,18033 NW Evergreen Pkwy,OR,97006
Jimmy John,Beaverton,1510,1510 #1510,18033 NW Evergreen Pkwy,WA,97006
Jimmy John,Arlington,1511,1511 #1511,550 N. Quincy St,DC,22203
Jimmy John,Arlington,1511,1511 #1511,550 N. Quincy St,MD,22203
Jimmy John,Arlington,1511,1511 #1511,550 N. Quincy St,VA,22203
Jimmy John,Clearwater,1513,1513 #1513,2325 Ulmerton Rd,FL,33762
Jimmy John,Westerville,1514,1514 #1514,576 Schrock Rd.,OH,43081
Jimmy John,Bloomington,1515,1515 #1515,7815 Portland Ave S,MN,55420
Jimmy John,Lynnwood,1516,1516 #1516,19220 Alderwood Mall Pkwy,WA,98036
Jimmy John,Seattle,1517,1517 #1517,1629 6th Ave,WA,98101
Jimmy John,Tukwila,1518,1518 #1518,728 Southcenter Mall,WA,98188
Jimmy John,Bellevue,1519,1519 #1519,15253 Bel Red Rd,WA,98052
Jimmy John,Renton,1520,1520 #1520,330 SW 43rd St,WA,98057
Jimmy John,Chandler,1521,1521 #1521,800 N. 54th St.,AZ,85226
Jimmy John,Chandler,1522,1522 #1522,3395 W Chandler Blvd,AZ,85226
Jimmy John,Dallas,1523,1523 #1523,1810 West Mockingbird Lane,TX,75235
Jimmy John,Tulsa,1524,1524 #1524,1931 S. Yale Ave,OK,74112
Jimmy John,Blair,1525,1525 #1525,2100 S 20th St,NE,68008
Jimmy John,Missoula,1526,1526 #1526,420 N. Higgins Ave.,MT,59802
Jimmy John,Bellaire,1527,1527 #1527,5106 Bissonnet St.,TX,77401
Jimmy John,Midlothian,1528,1528 #1528,12000 Southshore Point Rd.,VA,23112
Jimmy John,Cleveland,1530,1530 #1530,1938 Euclid Ave.,OH,44115
Jimmy John,High Point,1531,1531 #1531,3875 John Gordon Ln.,NC,27265
Jimmy John,Arden Hills,1532,1532 #1532,3775 Lexington Ave N,MN,55126
Jimmy John,Shawnee,1533,1533 #1533,12106 Shawnee Mission Pkwy,KS,66216
Jimmy John,Shawnee,1533,1533 #1533,12106 Shawnee Mission Pkwy,MO,66216
Jimmy John,Amherst,1534,1534 #1534,3550 Main St.,NY,14226
Jimmy John,Muscatine,1535,1535 #1535,1903 Park Ave,IA,52761
Jimmy John,Kalamazoo,1537,1537 #1537,232 W. Michigan,MI,49007
Jimmy John,Orlando,1538,1538 #1538,4012 Eastgate Dr.,FL,32839
Jimmy John,Marshalltown,1539,1539 #1539,1702 S Center St Marshalltown,IA,50158
Jimmy John,Strongsville,1540,1540 #1540,14993 Pearl Rd,OH,44136
Jimmy John,Pocatello,1541,1541 #1541,690 W Quinn Rd,ID,83202
Jimmy John,Fort Worth,1542,1542 #1542,4813 Bryant Irvin Rd.,TX,76132
Jimmy John,Henrietta,1543,1543 #1543,1635 E Henrietta Rd,NY,14623
Jimmy John,Parkville,1544,1544 #1544,8807 Tom Watson Parkway,KS,64152
Jimmy John,Parkville,1544,1544 #1544,8807 Tom Watson Parkway,MO,64152
Jimmy John,Birmingham,1545,1545 #1545,1919 11th Ave S Birmingham,AL,35205
Jimmy John,Wisconsin Dells,1547,1547 #1547,322 Highway 13,WI,53965
Jimmy John,Meridian,1548,1548 #1548,2951 E. Overland Rd,ID,83642
Jimmy John,Beavercreek,1549,1549 #1549,2476 Commons Blvd.,OH,45431
Jimmy John,Denver,1550,1550 #1550,2075 S. University Blvd.,CO,80210
Jimmy John,Highlands Ranch,1551,1551 #1551,9325 Dorchester St,CO,80129
Jimmy John,Nacogdoches,1552,1552 #1552,2023 North St.,TX,75965
Jimmy John,Willmar,1553,1553 #1553,1017 South First St.,MN,56201
Jimmy John,Scottsdale,1554,1554 #1554,15425 N. Scottsdale Rd.,AZ,85251
Jimmy John,Scottsdale,1555,1555 #1555,14900 N. Pima Rd,AZ,85260
Jimmy John,Phoenix,1556,1556 #1556,1650 E. Camelback Rd,AZ,85016
Jimmy John,Wood River,1558,1558 #1558,1203 E. Edwardsville Rd.,IL,62095
Jimmy John,Wood River,1558,1558 #1558,1203 E. Edwardsville Rd.,MO,62095
Jimmy John,Baton Rouge,1559,1559 #1559,10711 Coursey Blvd.,LA,70816
Jimmy John,Lemont,1560,1560 #1560,1243 State St.,IL,60439
Jimmy John,Lee\'s Summit,1561,1561 #1561,695 NW Blue Parkway,KS,64086
Jimmy John,Lee\'s Summit,1561,1561 #1561,695 NW Blue Parkway,MO,64086
Jimmy John,Tampa,1562,1562 #1562,4546 W Kennedy Blvd,FL,33609
Jimmy John,Mason City,1563,1563 #1563,1907 4th St SW,IA,50401
Jimmy John,Paducah,1564,1564 #1564,414 Lone Oak Dr,KY,28546
Jimmy John,Bradenton,1565,1565 #1565,4338 Cortez Rd W,FL,34210
Jimmy John,Fort Worth,1566,1566 #1566,3201 Western Center Blvd,TX,76137
Jimmy John,Highland Heights,1567,1567 #1567,2521 Wilson Ave,KY,41076
Jimmy John,Highland Heights,1567,1567 #1567,2521 Wilson Ave,OH,41076
Jimmy John,Boise,1568,1568 #1568,8151 Fairview Ave,ID,83704
Jimmy John,Davison,1570,1570 #1570,1133 S. State Rd,MI,48423
Jimmy John,Frederick,1571,1571 #1571,5221 Presidents Court,MD,21703
Jimmy John,Frederick,1571,1571 #1571,5221 Presidents Court,VA,21703
Jimmy John,Perrysburg,1572,1572 #1572,10081 Fremont Pike,OH,43551
Jimmy John,Little Rock,1573,1573 #1573,700 S. Broadway St,AR,72201
Jimmy John,Camas,1574,1574 #1574,19206 SE 1st St,OR,98607
Jimmy John,Camas,1574,1574 #1574,19206 SE 1st St,WA,98607
Jimmy John,Bend,1576,1576 #1576,330 SW Powerhouse Dr.,OR,97702
Jimmy John,Corvallis,1577,1577 #1577,1557 NW Monroe Ave.,OR,97330
Jimmy John,Orlando,1578,1578 #1578,7335 Sand Lake Road West,FL,32819
Jimmy John,Sarasota,1579,1579 #1579,83 N. Cattlemen Rd,FL,34243
Jimmy John,San Marcos,1580,1580 #1580,"1290 Wonder World Dr.,",TX,78666
Jimmy John,Clarksville,1581,1581 #1581,1120 Veterans Pkwy,IN,47129
Jimmy John,Clarksville,1581,1581 #1581,1120 Veterans Pkwy,KY,47129
Jimmy John,Lake Mary,1583,1583 #1583,4044 W Lake Mary Blvd,FL,32746
Jimmy John,Riverton,1584,1584 #1584,12570 S. Rhetski Ln,UT,84065
Jimmy John,Ogden,1585,1585 #1585,3685 Harrison Blvd.,UT,84403
Jimmy John,Annapolis,1586,1586 #1586,139 Main St.,MD,21401
Jimmy John,Sherman,1587,1587 #1587,3209 N Hwy 75,TX,75090
Jimmy John,Clinton Township,1588,1588 #1588,37119 S. Gratiot Ave,MI,48036
Jimmy John,Atlantic Beach,1589,1589 #1589,363 Atlantic Blvd,FL,32233
Jimmy John,Conway,1591,1591 #1591,317 Oak St.,AR,72032
Jimmy John,Hamilton,1592,1592 #1592,3335 Princeton Rd.,OH,45011
Jimmy John,Blue Ash,1593,1593 #1593,9708 Kenwood Rd,KY,45242
Jimmy John,Blue Ash,1593,1593 #1593,9708 Kenwood Rd,OH,45242
Jimmy John,Maple Grove,1595,1595 #1595,13300 Bass Lake Rd.,MN,55311
Jimmy John,Nassau Bay,1596,1596 #1596,1830 Nasa Parkway,TX,77058
Jimmy John,Olathe,1597,1597 #1597,20180 West 153rd Street,KS,66062
Jimmy John,Olathe,1597,1597 #1597,20180 West 153rd Street,MO,66062
Jimmy John,West Valley,1599,1599 #1599,3671 S. 2700 W,UT,84109
Jimmy John,Muskego,1600,1600 #1600,S74W16837 Janesville Rd.,WI,53150
Jimmy John,Columbus,1601,1601 #1601,6915 E Broad,OH,43213
Jimmy John,Bellingham,1602,1602 #1602,1204 Railroad Ave,WA,98225
Jimmy John,Alpharetta,1603,1603 #1603,4180 Old Milton Parkway,GA,30005
Jimmy John,Atlanta,1604,1604 #1604,60 Luckie St,GA,30303
Jimmy John,Decatur,1605,1605 #1605,335 W. Ponce De Leon Ave.,GA,30030
Jimmy John,Marietta,1606,1606 #1606,801 Church St NE,GA,30060
Jimmy John,Spokane Valley,1608,1608 #1608,615 N. Sullivan Rd,WA,99037
Jimmy John,Speedway,1610,1610 #1610,5945 Crawfordsville Rd.,IN,46224
Jimmy John,Bloomington,1611,1611 #1611,10603 France Ave. S,MN,55431
Jimmy John,Waco,1613,1613 #1613,100 S. 4th St.,TX,76701
Jimmy John,Coeur D Alene,1614,1614 #1614,2626 N. Government Way,ID,83815
Jimmy John,Denver,1615,1615 #1615,2325 E. Colfax Ave.,CO,80206
Jimmy John,Columbus,1616,1616 #1616,6618 Sawmill Rd,OH,43017
Jimmy John,Boca Raton,1618,1618 #1618,9774 Glades Rd,FL,33428
Jimmy John,Port St Lucie,1619,1619 #1619,1785 NW Saint Lucie West Blvd,FL,34986
Jimmy John,Jacksonville,1620,1620 #1620,431 Western Blvd,NC,28546
Jimmy John,Troy,1622,1622 #1622,6842 S. Rochester Rd,MI,48085
Jimmy John,Minneapolis,1623,1623 #1623,219 Oak St SE,MN,55455
Jimmy John,Oklahoma City,1624,1624 #1624,5801 N. May Ave,OK,73112
Jimmy John,Decatur,1625,1625 #1625,1910 Mt Zion Rd,IL,43213
Jimmy John,Everett,1626,1626 #1626,1510 SE Everett Mall Way,WA,98208
Jimmy John,Fayetteville,1627,1627 #1627,1918 Skibo Rd.,NC,28314
Jimmy John,Cleveland,1628,1628 #1628,11446 Euclid Ave,OH,44106
Jimmy John,Wheeling,1629,1629 #1629,250 E. Dundee Rd,IL,60090
Jimmy John,South Euclid,1630,1630 #1630,13961 Cedar Rd,OH,44118
Jimmy John,Pella,1631,1631 #1631,608 Oskaloosa St.,IA,50219
Jimmy John,Hattiesburg,1632,1632 #1632,3317 Hardy St,MS,39401
Jimmy John,Washington Township,1633,1633 #1633,65940 Van Dyke Ave,MI,48095
Jimmy John,Annapolis,1634,1634 #1634,1901 Towne Centre Blvd,MD,21401
Jimmy John,Phoenix,1635,1635 #1635,11 W. Washington,AZ,85003
Jimmy John,Beaverton,1636,1636 #1636,8838 SW Hall Blvd.,OR,97008
Jimmy John,Beaverton,1636,1636 #1636,8838 SW Hall Blvd.,WA,97008
Jimmy John,Lakeland,1639,1639 #1639,4128 S. Florida Ave,FL,33813
Jimmy John,Daytona Beach,1640,1640 #1640,151 South Ridgewood Ave.,FL,32114
Jimmy John,Henderson,1641,1641 #1641,310 W Lake Mead Pkwy,NV,89015
Jimmy John,Pittsburgh,1644,1644 #1644,6425 Penn Ave,PA,15206
Jimmy John,Aberdeen,1645,1645 #1645,901 6th Ave SE,SD,57401
Jimmy John,Billings,1646,1646 #1646,122 N. Broadway,MT,59101
Jimmy John,Hayden,1647,1647 #1647,8160 N. Cornerstone Dr.,ID,83835
Jimmy John,Jacksonville,1648,1648 #1648,7159 Phillips Hwy,FL,32256
Jimmy John,New Hope,1650,1650 #1650,5555 Winnetka Ave N,MN,55428
Jimmy John,Spanish Fork,1651,1651 #1651,786 N 800 E,UT,84660
Jimmy John,Carrollton,1652,1652 #1652,1745 E. Hebron Pkwy,TX,75010
Jimmy John,Metairie,1653,1653 #1653,4301 Veterans Blvd.,LA,70006
Jimmy John,Warsaw,1654,1654 #1654,1979 N Detroit St.,IN,46580
Jimmy John,Kirksville,1655,1655 #1655,510 S. Baltimore St.,MO,63501
Jimmy John,Herndon,1656,1656 #1656,454 Elden St,MD,20170
Jimmy John,Herndon,1656,1656 #1656,454 Elden St,VA,20170
Jimmy John,Hoover,1657,1657 #1657,4730 Chace Circle,AL,35244
Jimmy John,Wixom,1659,1659 #1659,49773 Grand River Ave,MI,48393
Jimmy John,Vienna,1661,1661 #1661,8359 Leesburg Pike,DC,22182
Jimmy John,Vienna,1661,1661 #1661,8359 Leesburg Pike,MD,22182
Jimmy John,Vienna,1661,1661 #1661,8359 Leesburg Pike,VA,22182
Jimmy John,Eugene,1662,1662 #1662,495 W 7th Ave,OR,97401
Jimmy John,Rochester,1663,1663 #1663,90 14th St SW,MN,55904
Jimmy John,Naples,1665,1665 #1665,1201 Piper Blvd,FL,34110
Jimmy John,Kentwood,1666,1666 #1666,3870 52nd St. SE,MI,49512
Jimmy John,Georgetown,1667,1667 #1667,101 Magnolia Dr.,KY,40324
Jimmy John,Abilene,1668,1668 #1668,4213 Southwest Dr,TX,79606
Jimmy John,Bethesda,1669,1669 #1669,4710 Bethesda Ave,DC,20814
Jimmy John,Bethesda,1669,1669 #1669,4710 Bethesda Ave,MD,20814
Jimmy John,Bethesda,1669,1669 #1669,4710 Bethesda Ave,VA,20814
Jimmy John,San Antonio,1670,1670 #1670,8802 Potranco Rd.,TX,78251
Jimmy John,Springboro,1671,1671 #1671,732 N Main,OH,45066
Jimmy John,Roswell,1672,1672 #1672,875 Mansell Rd,GA,30076
Jimmy John,Sheridan,1673,1673 #1673,727 E Brundage Ln,WY,82801
Jimmy John,Davie,1674,1674 #1674,4613 S. University Dr,FL,33328
Jimmy John,Glendale,1676,1676 #1676,1140 S. Colorado Blvd.,CO,80246
Jimmy John,Texarkana,1677,1677 #1677,4222 St Michaels Dr,TX,75503
Jimmy John,Duluth,1678,1678 #1678,2040 Pleasant Hill Road,GA,30096
Jimmy John,York,1679,1679 #1679,2058 S Queen St,PA,17403
Jimmy John,Houston,1680,1680 #1680,10850 Louetta Rd,TX,77070
Jimmy John,Chelsea,1681,1681 #1681,1149 S. Main St,MI,48118
Jimmy John,Lafayette,1682,1682 #1682,2920 Johnston St,LA,70503
Jimmy John,Fitchburg,1683,1683 #1683,6231 Mckee Rd,WI,53719
Jimmy John,Salt Lake City,1685,1685 #1685,675 E. 2100 S,UT,84106
Jimmy John,Draper,1686,1686 #1686,148 E 12300 S,UT,84020
Jimmy John,Virginia Beach,1687,1687 #1687,2712 N. Mall Drive,VA,23452
Jimmy John,Dillon,1688,1688 #1688,324 Dillon Ridge Way,CO,80435
Jimmy John,Lawrence,1689,1689 #1689,9920 Pendleton Pike,IN,46236
Jimmy John,Columbus,1690,1690 #1690,4018 Morse Crossing,OH,43219
Jimmy John,Franklin,1691,1691 #1691,980 N. Morton St,IN,46131
Jimmy John,Kokomo,1692,1692 #1692,3705 S Reed Rd,IN,46902
Jimmy John,Bloomfield Hills,1693,1693 #1693,4087 W. Maple Rd,MI,48301
Jimmy John,Scottsdale,1694,1694 #1694,8300 N Hayden Rd,AZ,85258
Jimmy John,Phoenix,1695,1695 #1695,4716 E. Cactus Rd,AZ,85032
Jimmy John,Phoenix,1696,1696 #1696,2805 W. Aqua Fria Fwy,AZ,85027
Jimmy John,Broomfield,1697,1697 #1697,1240 E. 1st Ave,CO,80020
Jimmy John,Maryville,1698,1698 #1698,1005 S. Main St.,MO,64468
Jimmy John,Helena,1699,1699 #1699,619 N Montana Ave,MT,59601
Jimmy John,Twin Falls,1700,1700 #1700,130 Blue Lakes Blvd N,ID,83301
Jimmy John,Kennewick,1701,1701 #1701,7530 W. Clearwater Ave,WA,99336
Jimmy John,Birmingham,1704,1704 #1704,2808 7th Ave. S,AL,35233
Jimmy John,Oxford,1705,1705 #1705,2206 Jackson Ave. West,MS,38655
Jimmy John,Mesquite,1706,1706 #1706,1300 N. Town East Blvd.,TX,75150
Jimmy John,Orlando,1709,1709 #1709,6125 S. Semoran Blvd,FL,32822
Jimmy John,Leesburg,1710,1710 #1710,11 Catoctin Circle NE,MD,20176
Jimmy John,Leesburg,1710,1710 #1710,11 Catoctin Circle NE,VA,20176
Jimmy John,Albuquerque,1711,1711 #1711,2132 Central Ave,NM,87106
Jimmy John,Albuquerque,1712,1712 #1712,6650 Holly Ave NE,NM,87113
Jimmy John,Wauconda,1713,1713 #1713,614 W. Liberty St.,IL,60084
Jimmy John,Webster,1714,1714 #1714,1075 Ridge Road,NY,14580
Jimmy John,Rockville,1715,1715 #1715,11416 Rockville Pike,DC,20852
Jimmy John,Rockville,1715,1715 #1715,11416 Rockville Pike,MD,20852
Jimmy John,Rockville,1715,1715 #1715,11416 Rockville Pike,VA,20852
Jimmy John,Norfolk,1717,1717 #1717,222 W 21st Street,VA,23517
Jimmy John,Yakima,1718,1718 #1718,122 E Yakima Ave,WA,98901
Jimmy John,Chippewa Falls,1719,1719 #1719,424 Bridge St.,WI,54729
Jimmy John,Tyler,1720,1720 #1720,5303 S. Broadway Ave,TX,75703
Jimmy John,Galveston,1721,1721 #1721,6302 Seawall Blvd,TX,77551
Jimmy John,Little Rock,1722,1722 #1722,12206 W Markham St.,AR,72211
Jimmy John,Kennesaw,1723,1723 #1723,1133 Chastain Rd,GA,30144
Jimmy John,Indianapolis,1724,1724 #1724,10110 E Washington St,IN,46229
Jimmy John,Mesa,1725,1725 #1725,1229 S. Power Rd,AZ,85206
Jimmy John,Cranberry Township,1726,1726 #1726,20018 Route 19,PA,16066
Jimmy John,Spokane,1729,1729 #1729,2931 E. 29th St.,WA,99223
Jimmy John,Spokane,1730,1730 #1730,6515 N. Division St,WA,99208
Jimmy John,Waukee,1731,1731 #1731,105 N. Warrior Ln,IA,50263
Jimmy John,West Des Moines,1732,1732 #1732,1271 8th St.,IA,50265
Jimmy John,Urbandale,1733,1733 #1733,3928 NW Urbandale Dr,IA,50322
Jimmy John,Clermont,1734,1734 #1734,2517 S Highway 27,FL,34711
Jimmy John,Omaha,1735,1735 #1735,445 N 114th St,IA,68154
Jimmy John,Omaha,1735,1735 #1735,445 N 114th St,NE,68154
Jimmy John,Boise,1736,1736 #1736,1590 Vista Ave,ID,83705
Jimmy John,Live Oak,1737,1737 #1737,7915 Pat Booker Rd,TX,78233
Jimmy John,Columbus,1738,1738 #1738,1540 W James St,WI,53925
Jimmy John,Chandler,1739,1739 #1739,2170 N Arizona Ave,AZ,85225
Jimmy John,Richmond,1740,1740 #1740,520 W Franklin St,VA,23220
Jimmy John,Richmond,1741,1741 #1741,1318 E. Cary St.,VA,23223
Jimmy John,Peoria,1742,1742 #1742,25101 N Lake Pleasant Pkwy,AZ,85383
Jimmy John,Osseo,1744,1744 #1744,8809 Jefferson Hwy,MN,55369
Jimmy John,St. Paul,1746,1746 #1746,241 7th Street West,MN,55102
Jimmy John,St. Paul,1747,1747 #1747,444 Cedar St,MN,55101
Jimmy John,Springville,1748,1748 #1748,40 East 400 South,UT,84663
Jimmy John,Knoxville,1749,1749 #1749,5525 Clinton Highway,TN,37912
Jimmy John,Philadelphia,1750,1750 #1750,3400 Civic Center Blvd,PA,19104
Jimmy John,Winter Springs,1751,1751 #1751,5950 Red Bug Lake Rd,FL,32708
Jimmy John,Nicholasville,1752,1752 #1752,113 Bryant Drive,KY,40356
Jimmy John,Coppell,1753,1753 #1753,171 N. Denton Tap Rd.,TX,75019
Jimmy John,Mason,1754,1754 #1754,2364 Kings Center Ct,OH,45040
Jimmy John,Coralville,1755,1755 #1755,2451 2nd St.,IA,52241
Jimmy John,Des Moines,1756,1756 #1756,2705 Grand Ave Des Moines,IA,50312
Jimmy John,Ames,1757,1757 #1757,2721 East 13th St,IA,50010
Jimmy John,Houston,1758,1758 #1758,174 Yale St.,TX,77007
Jimmy John,Addison,1759,1759 #1759,1450 W. Lake St.,IL,60101
Jimmy John,Portland,1760,1760 #1760,733 SW 10th St,OR,97205
Jimmy John,Portland,1760,1760 #1760,733 SW 10th St,WA,97205
Jimmy John,Surprise,1761,1761 #1761,14155 W Bell Rd.,AZ,85374
Jimmy John,Avondale,1762,1762 #1762,10110 W McDowell Rd,AZ,85392
Jimmy John,Hollywood,1763,1763 #1763,4322 Hollywood Blvd,FL,33021
Jimmy John,Beaufort,1764,1764 #1764,2015 Boundary St,SC,29902
Jimmy John,Youngstown,1765,1765 #1765,131 Lincoln Avenue,OH,44503
Jimmy John,Mesa,1766,1766 #1766,1730 W. Southern Ave,AZ,85202
Jimmy John,Jacksonville,1767,1767 #1767,11702 Beach Blvd,FL,32224
Jimmy John,Avon,1769,1769 #1769,35925 Detroit Rd,OH,44011
Jimmy John,Dubuque,1770,1770 #1770,356 Main St.,IA,52001
Jimmy John,Dubuque,1770,1770 #1770,356 Main St.,WI,52001
Jimmy John,Manassas,1771,1771 #1771,9685 Liberia Ave,VA,20110
Jimmy John,Hillsboro,1772,1772 #1772,22279 NW Imbrie Dr,OR,97124
Jimmy John,Coral Springs,1774,1774 #1774,2346 N University Dr,FL,33065
Jimmy John,Hammond,1776,1776 #1776,1712 SW Railroad Ave,LA,70403
Jimmy John,Rock Hill,1777,1777 #1777,147 E. Main St,NC,29730
Jimmy John,Rock Hill,1777,1777 #1777,147 E. Main St,SC,29730
Jimmy John,Arnolds Park,1778,1778 #1778,228 N Highway 71,IA,51331
Jimmy John,Papillion,1779,1779 #1779,304 Olsen Dr,IA,68046
Jimmy John,Papillion,1779,1779 #1779,304 Olsen Dr,NE,68046
Jimmy John,Marysville,1782,1782 #1782,401 Colemans Crossing Blvd,OH,43040
Jimmy John,Florence,1783,1783 #1783,960 Pamplico Hwy,SC,29505
Jimmy John,Grapevine,1784,1784 #1784,1401 William D Tate Ave,TX,76051
Jimmy John,Indianapolis,1786,1786 #1786,5228 W. Southern Ave.,IN,46241
Jimmy John,Leawood,1787,1787 #1787,10314 State Line Rd,KS,64114
Jimmy John,Leawood,1787,1787 #1787,10314 State Line Rd,MO,64114
Jimmy John,Johnson City,1788,1788 #1788,2108 W. Market St.,TN,37604
Jimmy John,Brandon,1789,1789 #1789,659 W Brandon Blvd,FL,33511
Jimmy John,Salem,1791,1791 #1791,2990 Commercial St. SE,OR,97302
Jimmy John,Vermillion,1792,1792 #1792,853 E. Cherry St,SD,57069
Jimmy John,Tulsa,1793,1793 #1793,3543 S. Peoria Ave,OK,74105
Jimmy John,Frankfort,1794,1794 #1794,325 Versailles Rd,KY,40601
Jimmy John,Portland,1795,1795 #1795,937 SW 5th Ave.,OR,97204
Jimmy John,Portland,1795,1795 #1795,937 SW 5th Ave.,WA,97204
Jimmy John,Arvada,1796,1796 #1796,8410 Wadsworth Blvd,CO,80003
Jimmy John,Brighton,1797,1797 #1797,10004 E. Grand River Ave.,MI,48116
Jimmy John,Vancouver,1799,1799 #1799,7715 NE 5th Ave,OR,98665
Jimmy John,Vancouver,1799,1799 #1799,7715 NE 5th Ave,WA,98665
Jimmy John,Crawfordsville,1800,1800 #1800,1540 S. Washington St.,IN,47933
Jimmy John,Nashville,1801,1801 #1801,424 Church St.,TN,37219
Jimmy John,New Albany,1802,1802 #1802,2221 State St. New Albany,IN,47150
Jimmy John,New Albany,1802,1802 #1802,2221 State St. New Albany,KY,47150
Jimmy John,Coconut Creek,1803,1803 #1803,6970 N SR 7,FL,33073
Jimmy John,Clearwater,1804,1804 #1804,2613 Gulf to Bay Blvd,FL,33759
Jimmy John,Upper Arlington,1805,1805 #1805,3241 Tremont Rd,OH,43221
Jimmy John,New Orleans,1807,1807 #1807,7621 Maple St,LA,70118
Jimmy John,Alexandria,1808,1808 #1808,6305 Richmond Hwy,DC,22303
Jimmy John,Alexandria,1808,1808 #1808,6305 Richmond Hwy,MD,22303
Jimmy John,Alexandria,1808,1808 #1808,6305 Richmond Hwy,VA,22303
Jimmy John,Cedar Park,1810,1810 #1810,1400 E. Whitestone Drive,TX,78613
Jimmy John,Westlake,1811,1811 #1811,29998 Detroit Road,OH,44145
Jimmy John,Hagerstown,1812,1812 #1812,1723 Dual Hwy,MD,21740
Jimmy John,Fairfield,1813,1813 #1813,5374 Dixie Hwy.,KY,45014
Jimmy John,Fairfield,1813,1813 #1813,5374 Dixie Hwy.,OH,45014
Jimmy John,Visalia,1814,1814 #1814,312 W. Main St,CA,93291
Jimmy John,Parker,1815,1815 #1815,11411 S. 20 Mile Rd,CO,80134
Jimmy John,Louisville,1816,1816 #1816,3507 Poplar Level Rd,IN,40213
Jimmy John,Louisville,1816,1816 #1816,3507 Poplar Level Rd,KY,40213
Jimmy John,Jacksonville,1818,1818 #1818,5960 Beach Blvd,FL,32216
Jimmy John,Waco,1819,1819 #1819,824 Hewitt Dr.,TX,76712
Jimmy John,De Pere,1821,1821 #1821,1035 Main Ave,WI,54115
Jimmy John,Humble,1822,1822 #1822,9490 FM 1960 Bypass Rd W,TX,77338
Jimmy John,Flower Mound,1824,1824 #1824,2321 Cross Timbers Rd,TX,75028
Jimmy John,Nampa,1825,1825 #1825,1471 N. Happy Valley Rd,ID,83687
Jimmy John,Huntley,1826,1826 #1826,12260 Princeton Dr,IL,60142
Jimmy John,Savannah,1829,1829 #1829,11605 Abercorn St.,GA,31419
Jimmy John,Middleburg Heights,1830,1830 #1830,18340 Bagley Rd,OH,44130
Jimmy John,Tampa,1831,1831 #1831,1600 E. 8th Ave,FL,33605
Jimmy John,Newark,1832,1832 #1832,1500 W Church St,OH,43055
Jimmy John,Madison,1833,1833 #1833,7690 Hwy 72 W,AL,35758
Jimmy John,Galveston,1834,1834 #1834,102 Kempner St.,TX,77550
Jimmy John,Webster,1835,1835 #1835,400 W. Bay Area Blvd,TX,77598
Jimmy John,Richmond,1836,1836 #1836,66822 Gratiot Ave,MI,48062
Jimmy John,St. George,1837,1837 #1837,910 N Dixie Downs Rd,UT,84770
Jimmy John,Springfield,1838,1838 #1838,3305 S. Campbell Ave,MO,65807
Jimmy John,Rogers,1839,1839 #1839,2004 Promenade Blvd,AR,72758
Jimmy John,Denver,1840,1840 #1840,3467 W. 32nd Ave,CO,80211
Jimmy John,Arvada,1841,1841 #1841,5220 Wadsworth Bypass,CO,80002
Jimmy John,Jacksonville,1842,1842 #1842,630 Park St,FL,32204
Jimmy John,Orange Park,1843,1843 #1843,280 Blanding Rd,FL,32073
Jimmy John,Wilmington,1844,1844 #1844,413 S. College Rd.,NC,28403
Jimmy John,Elmira,1847,1847 #1847,1011 College Ave,NY,14901
Jimmy John,Georgetown,1848,1848 #1848,950 W. University Ave,TX,78626
Jimmy John,Glenwood Springs,1849,1849 #1849,1331 Grand Ave,CO,81601
Jimmy John,Waldorf,1850,1850 #1850,2481 Crain Hwy,DC,20601
Jimmy John,Waldorf,1850,1850 #1850,2481 Crain Hwy,MD,20601
Jimmy John,Waldorf,1850,1850 #1850,2481 Crain Hwy,VA,20601
Jimmy John,Loveland,1852,1852 #1852,1569 Fall River Dr,CO,80538
Jimmy John,Kissimmee,1854,1854 #1854,5770 W. Irlo Bronson Memorial Hwy,FL,34746
Jimmy John,Kissimmee,1855,1855 #1855,3236 N. John Young Parkway,FL,34741
Jimmy John,Kirkland,1856,1856 #1856,12305 120th NE Ave,WA,98034
Jimmy John,Peachtree City,1857,1857 #1857,2800 W. Hwy 54,GA,30269
Jimmy John,Norcross,1860,1860 #1860,6135 Peachtree Pkwy,GA,30092
Jimmy John,Charlotte,1861,1861 #1861,8912 Pineville-Matthews Road,NC,28226
Jimmy John,Charlotte,1861,1861 #1861,8912 Pineville-Matthews Road,SC,28226
Jimmy John,Charlotte,1862,1862 #1862,16015 Lancaster Hwy,NC,28277
Jimmy John,Charlotte,1862,1862 #1862,16015 Lancaster Hwy,SC,28277
Jimmy John,Tucson,1865,1865 #1865,7350 N La Cholla Blvd,AZ,85741
Jimmy John,Columbus,1867,1867 #1867,1902 Highway 45 N,MS,39705
Jimmy John,Naples,1868,1868 #1868,6434 Naples Blvd,FL,34109
Jimmy John,San Antonio,1869,1869 #1869,518 E Houston St,TX,78205
Jimmy John,Arlington,1870,1870 #1870,4008 172nd St. NE,WA,98223
Jimmy John,Madison,1872,1872 #1872,527 State St.,WI,53703
Jimmy John,Mount Pleasant,1874,1874 #1874,966 Houston Northcutt Blvd,SC,29464
Jimmy John,Asheboro,1876,1876 #1876,405 E. Dixie Dr,NC,27203
Jimmy John,Morehead,1877,1877 #1877,110 Flemingsburg Rd,KY,40351
Jimmy John,Hurst,1878,1878 #1878,9986 Grapevine Hwy,TX,76054
Jimmy John,Bradenton,1879,1879 #1879,5300 Manatee Ave. W.,FL,34209
Jimmy John,Hampton,1880,1880 #1880,4611 E. Claiborne Sq,VA,23666
Jimmy John,Allen,1881,1881 #1881,801 Baumgartner Way,TX,75013
Jimmy John,Cedar City,1882,1882 #1882,1001 W 200 S,UT,84720
Jimmy John,Burlington,1883,1883 #1883,1449 University Dr,NC,27215
Jimmy John,Broken Arrow,1887,1887 #1887,2311 W. Kenosha Street,OK,74012
Jimmy John,Tulsa,1888,1888 #1888,8518 E. 71st St.,OK,74133
Jimmy John,Dyer,1890,1890 #1890,823 Joliet St,IL,46311
Jimmy John,Dyer,1890,1890 #1890,823 Joliet St,IN,46311
Jimmy John,Pensacola,1891,1891 #1891,7175-A N. Davis Hwy,FL,32504
Jimmy John,Maitland,1893,1893 #1893,400 South Orlando Av,FL,32751
Jimmy John,Steamboat Springs,1894,1894 #1894,1755 Central Park Dr.,CO,80487
Jimmy John,West Palm Beach,1896,1896 #1896,7750 Okeechobee Blvd,FL,33411
Jimmy John,Detroit Lakes,1897,1897 #1897,147 Veterans Memorial Pkwy,MN,56501
Jimmy John,Saint Charles,1898,1898 #1898,100 N. Kingshighway St,MO,63301
Jimmy John,Lexington,1899,1899 #1899,2535 Nicholasville Road,KY,40503
Jimmy John,Vestal,1900,1900 #1900,3915 Vestal Parkway E,NY,13850
Jimmy John,Wichita Falls,1907,1907 #1907,3210 Midwestern Pkwy,TX,76308
Jimmy John,Cedar Rapids,1908,1908 #1908,411 3rd St SE,IA,52401
Jimmy John,Baltimore,1909,1909 #1909,1723 Whetstone Way,MD,21230
Jimmy John,Fort Worth,1911,1911 #1911,6370 Camp Bowie Blvd,TX,76116
Jimmy John,Las Cruces,1912,1912 #1912,901 E. University Ave.,NM,88001
Jimmy John,Kalispell,1913,1913 #1913,135 W Idaho St.,MT,59901
Jimmy John,Columbia,1914,1914 #1914,4712 Forest Dr.,SC,29206
Jimmy John,Fort Wayne,1915,1915 #1915,101 W. Wayne St.,IN,46802
Jimmy John,Fort Myers,1916,1916 #1916,16240 Summerlin Rd,FL,33908
Jimmy John,South Ogden,1919,1919 #1919,1657 E. Skyline Dr,UT,84405
Jimmy John,Aurora,1921,1921 #1921,14302 E. Cedar Ave.,CO,80012
Jimmy John,Arvada,1922,1922 #1922,12650 W 64th Ave,CO,80004
Jimmy John,Indianapolis,1923,1923 #1923,1155 Stop 11 Rd,IN,46227
Jimmy John,Troy,1924,1924 #1924,1888 W. Main St.,OH,45373
Jimmy John,Murfreesboro,1927,1927 #1927,1520 Memorial Blvd.,TN,37130
Jimmy John,Hobart,1928,1928 #1928,1661 E 37th Ave,IN,46342
Jimmy John,Bowling Green,1929,1929 #1929,1689 S. Campbell Lane,KY,42104
Jimmy John,Boise,1930,1930 #1930,7300 W. State St,ID,83714
Jimmy John,Henderson,1931,1931 #1931,2450 Windmill Ln,NV,89074
Jimmy John,Cockeysville,1933,1933 #1933,10128 York Road,MD,21030
Jimmy John,Albuquerque,1934,1934 #1934,301 Central Ave. NW,NM,87102
Jimmy John,Bremerton,1935,1935 #1935,304 Park Ave,WA,98337
Jimmy John,Norfolk,1936,1936 #1936,4120 Monarch Way,VA,23508
Jimmy John,Lawrenceville,1937,1937 #1937,4850 Sugarloaf Parkway,GA,30044
Jimmy John,Sugar Grove,1938,1938 #1938,472 North Rt. 47,IL,60554
Jimmy John,Sunrise,1940,1940 #1940,12679 W Sunrise Blvd.,FL,33323
Jimmy John,Macon,1942,1942 #1942,4650 Forsyth Rd,GA,31210
Jimmy John,Hamilton,1943,1943 #1943,1388 Main St.,OH,45013
Jimmy John,Dallas,1945,1945 #1945,6102 Luther Ln,TX,75225
Jimmy John,Granite City,1947,1947 #1947,3142 Nameoki Rd,IL,62040
Jimmy John,Granite City,1947,1947 #1947,3142 Nameoki Rd,MO,62040
Jimmy John,Cheney,1948,1948 #1948,327 1st St,WA,99004
Jimmy John,Raytown,1949,1949 #1949,9201 E. State Route 350,KS,64133
Jimmy John,Raytown,1949,1949 #1949,9201 E. State Route 350,MO,64133
Jimmy John,Troy,1950,1950 #1950,5373 Crooks Rd,MI,48098
Jimmy John,Beverly Hills,1951,1951 #1951,31255 Southfield Rd,MI,48025
Jimmy John,Madison Heights,1952,1952 #1952,32215 John R. Rd.,MI,48071
Jimmy John,Bingham Farms,1953,1953 #1953,30130 Telegraph Rd.,MI,48025
Jimmy John,Troy,1954,1954 #1954,2016 W. Big Beaver Rd,MI,48084
Jimmy John,Phoenix,1955,1955 #1955,3317 E. Bell Rd.,AZ,85032
Jimmy John,Glendale,1956,1956 #1956,5890 W Thunderbird Rd,AZ,85018
Jimmy John,Phoenix,1957,1957 #1957,2814 N. 44th St.,AZ,85018
Jimmy John,Hickory Hills,1958,1958 #1958,7604 West 95th St.,IL,60457
Jimmy John,Stoughton,1959,1959 #1959,2376 Jackson St,WI,53589
Jimmy John,Logan,1960,1960 #1960,630 S. Main Street,UT,84321
Jimmy John,Vienna,1961,1961 #1961,2750 Gallows Rd,DC,22180
Jimmy John,Vienna,1961,1961 #1961,2750 Gallows Rd,MD,22180
Jimmy John,Vienna,1961,1961 #1961,2750 Gallows Rd,VA,22180
Jimmy John,Oregon City,1963,1963 #1963,431 Beavercreek Rd,OR,97045
Jimmy John,Oregon City,1963,1963 #1963,431 Beavercreek Rd,WA,97045
Jimmy John,Bismarck,1964,1964 #1964,1001 W Interstate Ave,ND,58503
Jimmy John,Coldwater,1965,1965 #1965,422 E. Chicago St,MI,49036
Jimmy John,Jacksonville,1966,1966 #1966,9971 Baymeadows Rd,FL,32256
Jimmy John,Woodstock,1969,1969 #1969,12201 Hwy 92,GA,30188
Jimmy John,Columbia,1970,1970 #1970,5580 Bull Run Drive,MO,65201
Jimmy John,Fort Lauderdale,1971,1971 #1971,2550B W Commercial Blvd,FL,33309
Jimmy John,Medford,1972,1972 #1972,1093 Medford Center,OR,97504
Jimmy John,New Baltimore,1974,1974 #1974,35100 23 Mile Rd,MI,48047
Jimmy John,Delaware,1976,1976 #1976,47 N. Sandusky St,OH,43015
Jimmy John,Harahan,1977,1977 #1977,1000 South Clearview Pkwy,LA,70123
Jimmy John,Athens,1978,1978 #1978,2301 College Station Rd,GA,30605
Jimmy John,Baton Rouge,1980,1980 #1980,201 N. 3rd St,LA,70801
Jimmy John,Redmond,1981,1981 #1981,8074 160th Ave NE,WA,98052
Jimmy John,Woodinville,1982,1982 #1982,13780 NE 175th St.,WA,98072
Jimmy John,Issaquah,1983,1983 #1983,1567 Highlands Dr. NE,WA,98029
Jimmy John,Sammamish,1984,1984 #1984,710 228th Ave NE,WA,98074
Jimmy John,Springfield,1986,1986 #1986,2421 North Dirksen Parkway,IL,62702
Jimmy John,Severna Park,1987,1987 #1987,537 Ritchie Hwy,MD,21146
Jimmy John,Houston,1988,1988 #1988,4407-A FM 1960 W,TX,77014
Jimmy John,Kingsport,1989,1989 #1989,1825 N. Eastman Rd,TN,37664
Jimmy John,Lenexa,1990,1990 #1990,"11902 W 95th St.,",KS,66215
Jimmy John,Lenexa,1990,1990 #1990,"11902 W 95th St.,",MO,66215
Jimmy John,Lancaster,1992,1992 #1992,1804 N. Mermorial Dr.,OH,43130
Jimmy John,Dayton,1993,1993 #1993,6252 Wilmington Pike,OH,45459
Jimmy John,Everett,1994,1994 #1994,909 Sievers Duecy Blvd,WA,98203
Jimmy John,Piscataway,1995,1995 #1995,1264 Stelton Rd,NJ,8854
Jimmy John,Pickerington,1996,1996 #1996,1698 Hill Rd. N,OH,43147
Jimmy John,Mesa,1997,1997 #1997,68 E. Main St.,AZ,85201
Jimmy John,Pensacola,1999,1999 #1999,720 N Navy Blvd,FL,32507
Jimmy John,Concord,2001,2001 #2001,1225 Concord Parkway North,NC,28025
Jimmy John,Silver Spring,2003,2003 #2003,8710 Cameron St,DC,20910
Jimmy John,Silver Spring,2003,2003 #2003,8710 Cameron St,MD,20910
Jimmy John,Silver Spring,2003,2003 #2003,8710 Cameron St,VA,20910
Jimmy John,Grand Rapids,2004,2004 #2004,1009 S Pokegama Ave,MN,55744
Jimmy John,Goodyear,2006,2006 #2006,13824 West McDowell Rd,AZ,85395
Jimmy John,Platteville,2007,2007 #2007,105 E Main Street,IA,53818
Jimmy John,Platteville,2007,2007 #2007,105 E Main Street,WI,53818
Jimmy John,Salt Lake City,2008,2008 #2008,1842 S. 300 W.,UT,84115
Jimmy John,Cincinnati,2011,2011 #2011,4450 Eastgate South Dr,KY,45245
Jimmy John,Cincinnati,2011,2011 #2011,4450 Eastgate South Dr,OH,45245
Jimmy John,Louisville,2012,2012 #2012,5105 Dixie Highway,IN,40258
Jimmy John,Louisville,2012,2012 #2012,5105 Dixie Highway,KY,40258
Jimmy John,Wilsonville,2013,2013 #2013,8403 SW Main St,OR,97070
Jimmy John,Marietta,2014,2014 #2014,1337 Powers Ferry Road SE,GA,30067
Jimmy John,Pompano Beach,2018,2018 #2018,2240 N. Federal Highway,FL,33062
Jimmy John,Farmington Hills,2019,2019 #2019,24208 Orchard Lake Rd,MI,48336
Jimmy John,Sandusky,2020,2020 #2020,4201 Milan Rd,OH,44870
Jimmy John,Mankato,2021,2021 #2021,511 N Holly Ln,MN,56001
Jimmy John,Conway,2022,2022 #2022,603 Salem Road,AR,72034
Jimmy John,Jacksonville,2023,2023 #2023,510 Airport Center Dr.,FL,32218
Jimmy John,Fort Lauderdale,2024,2024 #2024,1507 N. Federal Hwy,FL,33304
Jimmy John,Dodge City,2025,2025 #2025,1601 W. Wyatt Earp Blvd,KS,67801
Jimmy John,Tucson,2026,2026 #2026,910 W. Irvington Rd,AZ,85746
Jimmy John,Corinth,2027,2027 #2027,1310 Hwy 72 E,MS,38834
Jimmy John,Abingdon,2029,2029 #2029,3454 Emmorton Rd,MD,21009
Jimmy John,North Charleston,2031,2031 #2031,7565 Rivers Ave,SC,29406
Jimmy John,Forest Park,2032,2032 #2032,4568 Old Dixie Hwy,GA,30297
Jimmy John,Arlington,2033,2033 #2033,1512 Clarendon Blvd,DC,22209
Jimmy John,Arlington,2033,2033 #2033,1512 Clarendon Blvd,MD,22209
Jimmy John,Arlington,2033,2033 #2033,1512 Clarendon Blvd,VA,22209
Jimmy John,Birmingham,2034,2034 #2034,3411 Colonnade Parkway,AL,35243
Jimmy John,Cheyenne,2035,2035 #2035,3306 McCann Ave,WY,82001
Jimmy John,Ellicott City,2036,2036 #2036,9339 Baltimore National Pike,MD,21042
Jimmy John,Indianapolis,2037,2037 #2037,4914 S. Emerson Ave,IN,46203
Jimmy John,Silvis,2038,2038 #2038,685 Avenue of the Cities,IL,61244
Jimmy John,Silvis,2038,2038 #2038,685 Avenue of the Cities,IA,61244
Jimmy John,Burlington,2039,2039 #2039,3310 W Agency,IA,52601
Jimmy John,College Station,2041,2041 #2041,3505 Longmire Dr.,TX,77845
Jimmy John,Colonial Heights,2048,2048 #2048,1903 Southpark Blvd,VA,23834
Jimmy John,Southgate,2050,2050 #2050,12964 Dix-Toledo Rd,MI,48195
Jimmy John,Redford,2051,2051 #2051,9017 Telegraph Rd,MI,48239
Jimmy John,Virginia Beach,2052,2052 #2052,1345 Kempsville Rd,VA,23464
Jimmy John,Shreveport,2053,2053 #2053,7140 Youree Dr.,LA,71105
Jimmy John,San Antonio,2054,2054 #2054,9234 North Loop 1604 West,TX,78249
Jimmy John,Cookeville,2055,2055 #2055,377 West Jackson St.,TN,38501
Jimmy John,Cleveland,2057,2057 #2057,125 Keith St. NW,TN,37311
Jimmy John,Austintown,2058,2058 #2058,5450 Mahoning Ave.,OH,44515
Jimmy John,Harrisburg,2059,2059 #2059,219 N. 2nd St.,PA,17101
Jimmy John,Sarasota,2060,2060 #2060,5304 Clark Rd.,FL,34233
Jimmy John,Fredericksburg,2061,2061 #2061,1291 Carl D. Silver Parkway,VA,22401
Jimmy John,Grand Rapids,2063,2063 #2063,3428 Plainfield Ave NE,MI,49525
Jimmy John,Albuquerque,2064,2064 #2064,5901 Wyoming Blvd NE,NM,87109
Jimmy John,Melbourne,2066,2066 #2066,1508 S. Babcock St.,FL,32901
Jimmy John,West Windsor,2068,2068 #2068,64 Princeton Hightstown Rd,NJ,8550
Jimmy John,Jackson,2069,2069 #2069,715 Poplar Boulevard,MS,39202
Jimmy John,Willow Grove,2070,2070 #2070,3612 Welsh Rd,PA,19090
Jimmy John,Ludington,2072,2072 #2072,5865 W US HWY 10,MI,49431
Jimmy John,Bartlesville,2073,2073 #2073,2431 SE Washington Blvd,OK,74006
Jimmy John,Spencer,2074,2074 #2074,500 Grand Ave,IA,51301
Jimmy John,Albuquerque,2078,2078 #2078,10260 Coors Bypass NW,NM,87114
Jimmy John,Gaylord,2079,2079 #2079,1429 W. Main St,MI,49735
Jimmy John,Billings,2080,2080 #2080,611 Hilltop Rd.,MT,59105
Jimmy John,Hialeah,2081,2081 #2081,1295 W. 49th St.,FL,33012
Jimmy John,Stow,2082,2082 #2082,3490 Hudson Dr.,OH,44221
Jimmy John,Waverly,2083,2083 #2083,620 W Bremer,IA,50677
Jimmy John,Fort Worth,2084,2084 #2084,7968 South Freeway,TX,76134
Jimmy John,Monroe,2085,2085 #2085,1300 Sterlington Rd,LA,71203
Jimmy John,Winchester,2086,2086 #2086,2033 S Pleasant Valley Rd,VA,22601
Jimmy John,Platte City,2089,2089 #2089,2302 Running Horse Rd,KS,64079
Jimmy John,Platte City,2089,2089 #2089,2302 Running Horse Rd,MO,64079
Jimmy John,Amelia,2091,2091 #2091,1210 SR 125,KY,45102
Jimmy John,Amelia,2091,2091 #2091,1210 SR 125,OH,45102
Jimmy John,Columbus,2092,2092 #2092,4740 Reed Rd,OH,43220
Jimmy John,Colorado Springs,2093,2093 #2093,389 E Fillmore St,CO,80907
Jimmy John,Ocala,2095,2095 #2095,2611 SW 19th Avenue Rd,FL,34474
Jimmy John,Wyoming,2096,2096 #2096,1851 44th St. SW,MI,49519
Jimmy John,Henderson,2097,2097 #2097,1321 W. Sunset Rd,NV,89014
Jimmy John,Waco,2098,2098 #2098,4267 N. I-35 Frontage Rd,TX,76705
Jimmy John,Belton,2099,2099 #2099,203A N I-35,TX,76513
Jimmy John,Minneapolis,2100,2100 #2100,14 University Ave NE,MN,55414
Jimmy John,North Liberty,2101,2101 #2101,725 Pacha Pkwy,IA,52317
Jimmy John,Newton,2102,2102 #2102,117 W. 2nd St. N,IA,50208
Jimmy John,Grinnell,2103,2103 #2103,812 6th Ave.,IA,50112
Jimmy John,Dothan,2106,2106 #2106,4440 West Main St.,AL,36305
Jimmy John,Spokane,2107,2107 #2107,1330 N. Argonne Rd.,WA,99206
Jimmy John,Columbus,2108,2108 #2108,171 W. Nationwide Blvd,OH,43215
Jimmy John,Eugene,2109,2109 #2109,2502 Willamette St,OR,97405
Jimmy John,Lexington,2110,2110 #2110,547 Euclid Ave.,KY,40502
Jimmy John,Oklahoma City,2111,2111 #2111,6400 SW 3rd St,OK,73128
Jimmy John,Nampa,2115,2115 #2115,1850 Caldwell Blv.,ID,83651
Jimmy John,Portsmouth,2116,2116 #2116,341 High St,VA,23704
Jimmy John,Salt Lake City,2117,2117 #2117,81 W. 3300 S.,UT,84115
Jimmy John,Murray,2118,2118 #2118,5461 S State St,UT,84107
Jimmy John,Vincennes,2120,2120 #2120,2361 N. 6th St.,IN,47591
Jimmy John,Atlanta,2121,2121 #2121,5626 Fulton Industrial Blvd,GA,30336
Jimmy John,Snellville,2122,2122 #2122,1850 Scenic Hwy,GA,30078
Jimmy John,Tulsa,2124,2124 #2124,9168 S Yale Ave,OK,74137
Jimmy John,Sheboygan,2125,2125 #2125,506 South 8th Street,WI,53081
Jimmy John,Colorado Springs,2126,2126 #2126,817 Cheyenne Meadows Rd,CO,80906
Jimmy John,Oklahoma City,2127,2127 #2127,5900 W Memorial Rd,OK,73142
Jimmy John,Suwanee,2128,2128 #2128,3429 Lawrenceville-Suwanee Road,GA,30024
Jimmy John,Buford,2129,2129 #2129,3333 Buford Drive,GA,30519
Jimmy John,Chandler,2130,2130 #2130,2640 E Germann Rd,AZ,85286
Jimmy John,Gilbert,2131,2131 #2131,1515 N Gilbert Rd,AZ,85234
Jimmy John,Casa Grande,2133,2133 #2133,1321 E Florence Blvd,AZ,85122
Jimmy John,Fresno,2136,2136 #2136,3090 W. Shaw Ave,CA,93711
Jimmy John,Washington,2140,2140 #2140,2428 Wisconsin Ave NW,DC,20007
Jimmy John,Washington,2140,2140 #2140,2428 Wisconsin Ave NW,MD,20007
Jimmy John,Washington,2140,2140 #2140,2428 Wisconsin Ave NW,VA,20007
Jimmy John,Evans,2141,2141 #2141,4274 Washington Rd.,GA,30809
Jimmy John,Sarasota,2147,2147 #2147,3957 Cattlemen Rd,FL,34233
Jimmy John,Norfolk,2149,2149 #2149,1153 N Military Highway,VA,23513
Jimmy John,Chesapeake,2150,2150 #2150,601 Battlefield Blvd. South,VA,23322
Jimmy John,Ashburn,2151,2151 #2151,44110 Ashburn Village Blvd,VA,20147
Jimmy John,Wilmington,2152,2152 #2152,1119 Military Cutoff Rd.,NC,28405
Jimmy John,Charlotte,2154,2154 #2154,9130 Harris Corners Pkwy,NC,28269
Jimmy John,Lenexa,2158,2158 #2158,9410 Renner Blvd,KS,66219
Jimmy John,Lenexa,2158,2158 #2158,9410 Renner Blvd,MO,66219
Jimmy John,Overland Park,2159,2159 #2159,11921 W. 119th St.,KS,66213
Jimmy John,Overland Park,2159,2159 #2159,11921 W. 119th St.,MO,66213
Jimmy John,New Braunfels,2160,2160 #2160,263 Loop 337,TX,78130
Jimmy John,Columbus,2161,2161 #2161,1675 N National Rd.,IN,47201
Jimmy John,Las Vegas,2164,2164 #2164,2950 S Durango Dr,NV,89117
Jimmy John,Chantilly,2166,2166 #2166,4300 Chantilly Shopping Center,VA,20151
Jimmy John,Iron Mountain,2168,2168 #2168,W8159 S. US Hwy 2,MI,49801
Jimmy John,Indianapolis,2170,2170 #2170,2055 N. Shadeland Ave,IN,46219
Jimmy John,Houston,2171,2171 #2171,4701 Calhoun Rd,TX,77004
Jimmy John,Eureka,2173,2173 #2173,14 Hilltop Village Center Dr.,MO,63025
Jimmy John,Jacksonville,2174,2174 #2174,11616 San Jose Blvd.,FL,32223
Jimmy John,Phoenix,2176,2176 #2176,21001 N. Tatum Blvd,AZ,85050
Jimmy John,Phoenix,2177,2177 #2177,7000 E. Mayo Blvd,AZ,85374
Jimmy John,Phoenix,2178,2178 #2178,430 E. Bell Rd.,AZ,85022
Jimmy John,Scottsdale,2179,2179 #2179,10701 North Scottsdale Rd,AZ,85254
Jimmy John,Phoenix,2180,2180 #2180,7000 N. 16th,AZ,85020
Jimmy John,Warren,2184,2184 #2184,7568 E. 9 Mile Rd,MI,48091
Jimmy John,Newnan,2185,2185 #2185,51 Newnan Crossing Bypass,GA,30265
Jimmy John,Enid,2187,2187 #2187,2312 W Owen K Garriott Rd,OK,73703
Jimmy John,Canton,2188,2188 #2188,6535 N. Canton Center Rd,MI,48187
Jimmy John,Katy,2189,2189 #2189,24449 Katy Freeway,TX,77494
Jimmy John,Pittsburgh,2190,2190 #2190,1717 E. Carson St.,PA,15203
Jimmy John,Newark,2192,2192 #2192,133 E Main St.,DE,19711
Jimmy John,Bexley,2193,2193 #2193,2497 E. Main St.,OH,43209
Jimmy John,Garden City,2194,2194 #2194,501 E. Kansas Ave,KS,67846
Jimmy John,Clemson,2195,2195 #2195,393 College Ave,SC,29631
Jimmy John,Virginia Beach,2197,2197 #2197,1908 Landstown Centre Way,VA,23456
Jimmy John,Freehold,2198,2198 #2198,13 Village Center Drive,NJ,7728
Jimmy John,Kernersville,2199,2199 #2199,120-A Century Place Blvd,NC,27284
Jimmy John,Louisville,2200,2200 #2200,4919 Brownsboro Rd,IN,40222
Jimmy John,Louisville,2200,2200 #2200,4919 Brownsboro Rd,KY,40222
Jimmy John,Carson City,2204,2204 #2204,2329 N. Carson St.,NV,89706
Jimmy John,Somerset,2206,2206 #2206,650 S. Hwy 27,KY,42501
Jimmy John,Visalia,2207,2207 #2207,2038 S. Mooney Blvd,CA,93277
Jimmy John,Liberty Lake,2208,2208 #2208,1429 B Liberty Lake Road,WA,99019
Jimmy John,Danville,2209,2209 #2209,3120 N. Vermilion St.,IL,61832
Jimmy John,Houma,2210,2210 #2210,1297 St. Charles St.,LA,70360
Jimmy John,Kennesaw,2211,2211 #2211,440 Barrett Parkway NW,GA,30144
Jimmy John,Hazel Park,2213,2213 #2213,24063 Dequindre Rd,MI,48030
Jimmy John,Staunton,2216,2216 #2216,856 Statler Boulevard,VA,24401
Jimmy John,Kansas City,2218,2218 #2218,2345 Grand Ave,KS,64108
Jimmy John,Kansas City,2218,2218 #2218,2345 Grand Ave,MO,64108
Jimmy John,Atlanta,2221,2221 #2221,2949 N. Druid Hills Rd.,GA,30033
Jimmy John,Columbia,2223,2223 #2223,8827 Centre Park Dr,MD,21045
Jimmy John,Fresno,2227,2227 #2227,7730 N. 1st St.,CA,93720
Jimmy John,Twin Falls,2228,2228 #2228,799 Cheney Dr.,ID,83301
Jimmy John,Rice Lake,2230,2230 #2230,602 S Main St.,WI,54868
Jimmy John,Rockford,2231,2231 #2231,400 E. Division St,MI,49341
Jimmy John,Virginia Beach,2234,2234 #2234,1348 N Great Neck Rd.,VA,23454
Jimmy John,Tacoma,2236,2236 #2236,1708 Pacific Ave,WA,98402
Jimmy John,Southfield,2237,2237 #2237,25247 Telegraph Rd,MI,48033
Jimmy John,Pittsburgh,2239,2239 #2239,1935 Settlers Ridge Center Drive,PA,15136
Jimmy John,Erie,2241,2241 #2241,821 W. Erie Plaza,PA,16505
Jimmy John,Aberdeen,2242,2242 #2242,200 Aberdeen Pines St.,NC,28315
Jimmy John,Chicago,2244,2244 #2244,1431 N. Kingsbury St.,IL,60642
Jimmy John,Orlando,2245,2245 #2245,1718 W. Sand Lake Rd.,FL,32809
Jimmy John,Kent,2253,2253 #2253,21100 84th Ave. S,WA,98032
Jimmy John,Waxahachie,2254,2254 #2254,895 North Hwy 77,TX,75165
Jimmy John,Easton,2255,2255 #2255,28601 Marlboro Ave,MD,21601
Jimmy John,Rock Springs,2257,2257 #2257,1577 Dewar Dr.,WY,82901
Jimmy John,Delavan,2259,2259 #2259,1807 E. Geneva St.,WI,53115
Jimmy John,Owings Mills,2260,2260 #2260,10450 Owings Mills Blvd,MD,21117
Jimmy John,Vancouver,2261,2261 #2261,305 SE Chkalov Dr.,OR,98684
Jimmy John,Vancouver,2261,2261 #2261,305 SE Chkalov Dr.,WA,98684
Jimmy John,Vancouver,2262,2262 #2262,8700 NE Vancouver Mall Dr.,OR,98662
Jimmy John,Vancouver,2262,2262 #2262,8700 NE Vancouver Mall Dr.,WA,98662
Jimmy John,Fort Worth,2274,2274 #2274,150 Throckmorton Street,TX,76102
Jimmy John,Sandusky,2278,2278 #2278,1304 Hayes Ave.,OH,44870
Jimmy John,Goldsboro,2279,2279 #2279,1209 N. Berkeley Blvd.,NC,27534
Jimmy John,Frederick,2280,2280 #2280,200 Shorebird St.,MD,21701
Jimmy John,Frederick,2280,2280 #2280,200 Shorebird St.,VA,21701
Jimmy John,Missouri City,2281,2281 #2281,5830 Hwy 6,TX,77459
Jimmy John,Lake St Louis,2284,2284 #2284,6299 Ronald Reagan Dr,MO,63367
Jimmy John,Lincoln,2286,2286 #2286,601 R St.,NE,68508
Jimmy John,Springfield,2287,2287 #2287,114 S. Chatham Rd.,IL,62702
Jimmy John,Chatham,2288,2288 #2288,208 N Main,IL,62629
Jimmy John,Gallatin,2293,2293 #2293,1007 Nashville Pike,TN,37066
Jimmy John,Cape Coral,2295,2295 #2295,822 Del Prado Blvd S,FL,33990
Jimmy John,Fort Lauderdale,2298,2298 #2298,1501 E. Commercial Blvd,FL,33334
Jimmy John,New Orleans,2300,2300 #2300,"900 Poydras St,",LA,70113
Jimmy John,Columbus,2305,2305 #2305,1839 Morse Rd,OH,43224
Jimmy John,Henderson,2311,2311 #2311,9985 S. Eastern Ave.,NV,89052
Jimmy John,Fort Mill,2312,2312 #2312,1642 Hwy 160 W,NC,29708
Jimmy John,Fort Mill,2312,2312 #2312,1642 Hwy 160 W,SC,29708
Jimmy John,Erie,2314,2314 #2314,5043 Peach St.,PA,16509
Jimmy John,Jonesboro,2315,2315 #2315,1319 Stadium Blvd,AR,72401
Jimmy John,Mount Pleasant,2317,2317 #2317,1492 N Hwy 17,SC,29464
Jimmy John,Atlanta,2318,2318 #2318,1684 Monroe Dr. NE,GA,30324
Jimmy John,Moore,2319,2319 #2319,110 SW 19th St.,OK,73160
Jimmy John,Holland,2323,2323 #2323,23 East 8th St.,MI,49423
Jimmy John,Missoula,2325,2325 #2325,2230 N. Reserve St,MT,59808
Jimmy John,Hickory,2327,2327 #2327,1207 2nd St. NE,NC,28601
Jimmy John,Woodstock,2330,2330 #2330,121 Lauren Lane,GA,30189
Jimmy John,Greensburg,2331,2331 #2331,448 Greensburg Commons Shopping Ctr.,IN,47240
Jimmy John,Duluth,2338,2338 #2338,4602 Grand Ave,MN,55807
Jimmy John,Duluth,2338,2338 #2338,4602 Grand Ave,WI,55807
Jimmy John,Indianapolis,2342,2342 #2342,2402 N. Meridian Street,IN,46208
Jimmy John,Indianapolis,2343,2343 #2343,7002 Lake Plaza Dr.,IN,46220
Jimmy John,Carmel,2344,2344 #2344,365 W. 116th St.,IN,46032
Jimmy John,Oldsmar,2346,2346 #2346,3970 Tampa Rd.,FL,34684
Jimmy John,Tulsa,2349,2349 #2349,20 E 5th St,OK,74103
Jimmy John,Carson City,2353,2353 #2353,3849 S Carson St,NV,89703
Jimmy John,Ijamsville,2354,2354 #2354,3321 Worthington Boulevard,MD,21704
Jimmy John,Ijamsville,2354,2354 #2354,3321 Worthington Boulevard,VA,21704
Jimmy John,Salem,2355,2355 #2355,601 Lancaster Dr. NE,OR,97301
Jimmy John,Olympia,2356,2356 #2356,4530 Martin Way E,WA,98516
Jimmy John,Austin,2357,2357 #2357,803 18th Ave NW,MN,55912
Jimmy John,Acworth,2358,2358 #2358,3450 N. Cobb Parkway NW,GA,30101
Jimmy John,Houston,2359,2359 #2359,1106 Silber Rd.,TX,77024
Jimmy John,Cincinnati,2361,2361 #2361,171 E. Freedom Way,KY,45202
Jimmy John,Cincinnati,2361,2361 #2361,171 E. Freedom Way,OH,45202
Jimmy John,Houston,2364,2364 #2364,500 Dallas St,TX,77002
Jimmy John,Savage,2367,2367 #2367,4111 Hwy 13 W.,MN,55337
Jimmy John,Madison,2373,2373 #2373,1896 Main St,MS,39110
Jimmy John,Canton,2374,2374 #2374,4201 Tuscarawas St. W,OH,44708
Jimmy John,Port Richey,2379,2379 #2379,9308 US Highway 19,FL,34668
Jimmy John,McMinnville,2380,2380 #2380,1421 NE Hwy 99 W,OR,97128
Jimmy John,Radford,2381,2381 #2381,1020 Clement St,VA,24141
Jimmy John,Rochelle,2382,2382 #2382,370 Illinois Route 38 E.,IL,61068
Jimmy John,Aiken,2383,2383 #2383,1412 Whiskey Rd,SC,29803
Jimmy John,Hyattsville,2385,2385 #2385,5777 Baltimore Ave,DC,20781
Jimmy John,Hyattsville,2385,2385 #2385,5777 Baltimore Ave,MD,20781
Jimmy John,Hyattsville,2385,2385 #2385,5777 Baltimore Ave,VA,20781
Jimmy John,Mesa,2386,2386 #2386,5229 S Power Rd,AZ,85212
Jimmy John,Topeka,2387,2387 #2387,2038 SW Gage Blvd,KS,66604
Jimmy John,Houston,2389,2389 #2389,5201 W. 34th St.,TX,77092
Jimmy John,Houston,2390,2390 #2390,6388 North Eldridge Parkway,TX,77041
Jimmy John,Anderson,2395,2395 #2395,4741 S. Scatterfield Rd,IN,46013
Jimmy John,Alma,2396,2396 #2396,1480 Wright Ave,MI,48801
Jimmy John,Indianapolis,2397,2397 #2397,5620 Georgetown Rd,IN,46254
Jimmy John,Mitchell,2399,2399 #2399,1610 S. Burr St.,SD,57301
Jimmy John,Farmington,2401,2401 #2401,3060 E 20th St,NM,87402
Jimmy John,Decatur,2402,2402 #2402,2401 6th Ave SE,AL,35601
Jimmy John,Huntsville,2403,2403 #2403,975 Airport Rd SW,AL,35802
Jimmy John,Houston,2409,2409 #2409,12303 Westheimer Rd,TX,77077
Jimmy John,Baltimore,2415,2415 #2415,3735 Boston St.,MD,21224
Jimmy John,Port Huron,2419,2419 #2419,915 24th St,MI,48060
Jimmy John,Aventura,2422,2422 #2422,21213 Biscayne Blvd,FL,33180
Jimmy John,Heber City,2425,2425 #2425,210 N Main St,UT,84032
Jimmy John,Park City,2426,2426 #2426,1626 Uinta Way,UT,84098
Jimmy John,Columbus,2429,2429 #2429,1381 Georgesville Rd.,OH,43228
Jimmy John,Plano,2430,2430 #2430,4004 W. Plano Parkway,TX,75093
Jimmy John,McDonough,2431,2431 #2431,1419 HWY 20 West.,GA,30253
Jimmy John,East Syracuse,2435,2435 #2435,6570 Weighlock Dr.,NY,13057
Jimmy John,Syracuse,2436,2436 #2436,105 W Fayette St.,NY,13202
Jimmy John,Cicero,2437,2437 #2437,5785 East Circle Dr,NY,13039
Jimmy John,Cypress,2438,2438 #2438,17330 Spring Cypress Rd,TX,77429
Jimmy John,Waco,2439,2439 #2439,1230 N Valley Mills Drive,TX,76710
Jimmy John,Kansas City,2444,2444 #2444,17 W. 63rd St,KS,64113
Jimmy John,Kansas City,2444,2444 #2444,17 W. 63rd St,MO,64113
Jimmy John,Warrensburg,2446,2446 #2446,100 N. Maguire St.,MO,64093
Jimmy John,Hannibal,2455,2455 #2455,345 N. Highway 61,IL,63401
Jimmy John,Hannibal,2455,2455 #2455,345 N. Highway 61,MO,63401
Jimmy John,Ashville,2458,2458 #2458,2 Hendersonville Rd,NC,28803
Jimmy John,Fort Dodge,2461,2461 #2461,3022 5th Ave S.,IA,50501
Jimmy John,Houston,2468,2468 #2468,2505 Bagby St.,TX,77006
Jimmy John,Johnston,2471,2471 #2471,5950 NW 86th St.,IA,50131
Jimmy John,Rosemount,2479,2479 #2479,15088 Claret Ave W,MN,55068
Jimmy John,Lancaster,2484,2484 #2484,1601 Manheim Pike,PA,17601
Jimmy John,Gurnee,2491,2491 #2491,3430 Grand Ave,IL,60085
Jimmy John,Gurnee,2491,2491 #2491,3430 Grand Ave,WI,60085
Jimmy John,Cincinnati,2496,2496 #2496,3972 Red Bank Rd,KY,45227
Jimmy John,Cincinnati,2496,2496 #2496,3972 Red Bank Rd,OH,45227
Jimmy John,Lauderhill,2499,2499 #2499,7948 W. Commerical Blvd,FL,33351
Jimmy John,Phoenix,2500,2500 #2500,620 E. Roosevelt St.,AZ,85004
Jimmy John,Phoenix,2501,2501 #2501,20235 N. Cave Creek Rd.,AZ,85024
Jimmy John,Phoenix,2502,2502 #2502,3110 N. Central Ave.,AZ,85013
Jimmy John,Hapeville,2506,2506 #2506,801 Doug Davis Drive,GA,30354
Jimmy John,Corvallis,2518,2518 #2518,1830 NW 9th St,OR,97330
Jimmy John,Niles,2521,2521 #2521,9641 N. Milwaukee Ave.,IL,60714
Jimmy John,Rochester,2534,2534 #2534,330 Monroe Ave,NY,14607
Jimmy John,Findlay,2540,2540 #2540,1803 Tiffin Ave,OH,45840
Jimmy John,Beaumont,2562,2562 #2562,426 Dowlen Rd,TX,77706
Jimmy John,Rockwall,2563,2563 #2563,2785 Ridge Rd,TX,75032
Jimmy John,Louisville,2564,2564 #2564,5023 Mud Ln.,IN,40229
Jimmy John,Louisville,2564,2564 #2564,5023 Mud Ln.,KY,40229
Jimmy John,Williamsburg,2567,2567 #2567,4808 Courthouse St.,VA,23188
Jimmy John,Williamsburg,2568,2568 #2568,747 Scotland St,VA,23185
Jimmy John,Plano,2570,2570 #2570,6141 Windhaven Pkwy,TX,75093
Jimmy John,Pasadena,2571,2571 #2571,165 S Lake Ave,CA,91101
Jimmy John,Wooster,2582,2582 #2582,131 W. Liberty St.,OH,44691
Jimmy John,Akron,2584,2584 #2584,3867 Medina Rd,OH,44333
Jimmy John,Greenville,2617,2617 #2617,703 S. Greenville West Dr.,MI,48838
Jimmy John,Columbus,2634,2634 #2634,4860 Sawmill Rd,OH,43235
Jimmy John,Longview,2665,2665 #2665,1208 Washington Way,WA,98632
Jimmy John,Redmond,2672,2672 #2672,1400 SW Canal Blvd,OR,97756
Jimmy John,Belvidere,2735,2735 #2735,1483 N. State St.,IL,61008
Jimmy John,Norcross,2744,2744 #2744,1560 Indian Trail Lilburn Rd,GA,30093
Jimmy John,Champaign,90003,90003 #90003,43 East Green Street,IL,61820
Jimmy John,West Lafayette,90006,90006 #90006,134 West State,IN,47906
Jimmy John,Urbana,90008,90008 #90008,807 South Lincoln Avenue,IL,61801
Jimmy John,East Lansing,90011,90011 #90011,4790 South Hagadorn Road,MI,48823
Jimmy John,Ann Arbor,90012,90012 #90012,929 East Ann Street,MI,48104
Jimmy John,Champaign,90015,90015 #90015,1811 West Kirby Avenue,IL,61821
Jimmy John,Ann Arbor,90016,90016 #90016,600 Packard,MI,48104
Jimmy John,Ann Arbor,90017,90017 #90017,1207 South University,MI,48104
Jimmy John,East Lansing,90018,90018 #90018,643 East Grand River,MI,48823
Jimmy John,Champaign,90019,90019 #90019,1511 North Prospect Ave.,IL,61821
Jimmy John,East Lansing,90021,90021 #90021,143 North Harrison,MI,48823
Jimmy John,Lafayette,90024,90024 #90024,103 North Farabee,IN,47905
Jimmy John,Champaign,90025,90025 #90025,601B East Green Street,IL,61820
Jimmy John,Ann Arbor,90026,90026 #90026,342 South State Street,MI,48104
Jimmy John,Ypsilanti,90027,90027 #90027,537 W. Cross Street,MI,48197
Jimmy John,Ann Arbor,90028,90028 #90028,2615 Plymouth Rd.,MI,48105
Jimmy John,Charleston,90029,90029 #90029,315 Lincoln St.,IL,61920
Jimmy John,Ann Arbor,90030,90030 #90030,3365 Washtenaw Ave.,MI,48104
Jimmy John,Lansing,90031,90031 #90031,134 S Washington Sq,MI,48933
Jimmy John,Tempe,90033,90033 #90033,680 S. Mill Ave.,AZ,85281
Jimmy John,Tempe,90034,90034 #90034,681 E Apache Blvd Ste 101B,AZ,85281
Jimmy John,Tempe,90035,90035 #90035,5128 S. Rural Rd,AZ,85282
Jimmy John,Urbana,90036,90036 #90036,102 E. University,IL,61801
Jimmy John,Tempe,90037,90037 #90037,2000 E. Rio Salado Parkway,AZ,85281
Jimmy John,Tempe,90038,90038 #90038,840 E. Southern,AZ,85282
Jimmy John,Champaign,90039,90039 #90039,1801 W. Springfield Ave,IL,61821
Jimmy John,Lafayette,90040,90040 #90040,2810 S. Creasy Ln.,IN,47905
Jimmy John,Flagstaff,90041,90041 #90041,1020 S. Milton Rd.,AZ,86001
Jimmy John,Tempe,90042,90042 #90042,521 S College Avenue,AZ,85281
Jimmy John,Champaign,99999,99999 #99999,2212 Fox Drive,IL,61820
