Keywords,city,Agg store_number,store_number,address,state,zip_code
Big Lots,Columbus,1,1 #001 #01 #1 01,2837 Winchester Pike,OH,43232
Big Lots,Augusta,3,3 #003 #03 #3 03,2708 Peach Orchard Road,GA,30906
Big Lots,Englewood,21,21 #0021 #021 #21 021,606 Taywood Road,OH,45322
Big Lots,Athens,29,29 #0029 #029 #29 029,918 East State Street,OH,45701
Big Lots,Bowling Green,30,30 #0030 #030 #30 030,818 South Main Street,OH,43402
Big Lots,Kettering,32,32 #0032 #032 #32 032,2800 Wilmington Pike,OH,45419
Big Lots,Marietta,37,37 #0037 #037 #37 037,13 Acme Street,OH,45750
Big Lots,Portsmouth,42,42 #0042 #042 #42 042,2523 Gallia Street,OH,45662
Big Lots,Toledo,43,43 #0043 #043 #43 043,3410 Glendale Avenue,OH,43614
Big Lots,Oregon,45,45 #0045 #045 #45 045,3365 Navarre Avenue,OH,43616
Big Lots,Milford,49,49 #0049 #049 #49 049,825 Main Street,OH,45150
Big Lots,Winchester,51,51 #0051 #051 #51 051,1090 Millwood Pike,VA,22602
Big Lots,Richmond,57,57 #0057 #057 #57 057,3041 Mechanicsville Pike,VA,23223
Big Lots,Morehead,58,58 #0058 #058 #58 058,370 Kroger Center,KY,40351
Big Lots,Huntington,61,61 #0061 #061 #61 061,800 14th Street West,WV,25704
Big Lots,Fairmont,62,62 #0062 #062 #62 062,1228 Country Club Road,WV,26554
Big Lots,La Grange,64,64 #0064 #064 #64 064,127 Commerce Avenue,GA,30241
Big Lots,Peoria,72,72 #0072 #072 #72 072,3013 North Sterling Avenue,IL,61604
Big Lots,Marion,77,77 #0077 #077 #77 077,1615 Marion Mount Gilead Road,OH,43302
Big Lots,Princeton,82,82 #0082 #082 #82 082,1350 Stafford Drive,WV,24740
Big Lots,Lorain,83,83 #0083 #083 #83 083,1211 Tower Boulevard,OH,44053
Big Lots,Alton,86,86 #0086 #086 #86 086,1751 Homer Adams Parkway,IL,62002
Big Lots,Indianapolis,91,91 #0091 #091 #91 091,5520 Madison Avenue,IN,46227
Big Lots,Reynoldsburg,97,97 #0097 #097 #97 097,1900 Brice Road,OH,43068
Big Lots,Wintersville,98,98 #0098 #098 #98 098,498 Cadiz Road,OH,43953
Big Lots,Bellevue,109,109 #00109 #0109 #109 0109,15 East 6th Street,KY,41073
Big Lots,Waterford,111,111 #00111 #0111 #111 0111,5640 Dixie Highway,MI,48329
Big Lots,Charleston,117,117 #00117 #0117 #117 0117,1401 Sam Rittenberg Boulevard,SC,29407
Big Lots,Bellefontaine,122,122 #00122 #0122 #122 0122,1760 South Main Street,OH,43311
Big Lots,Lafayette,132,132 #00132 #0132 #132 0132,2050 South 22nd Street,IN,47905
Big Lots,Wilmington,134,134 #00134 #0134 #134 0134,1334 Rombach Avenue,OH,45177
Big Lots,Elizabethtown,135,135 #00135 #0135 #135 0135,Sycamore & West Dixie,KY,42701
Big Lots,New Albany,137,137 #00137 #0137 #137 0137,440 New Albany Plaza,IN,47150
Big Lots,Indianapolis,138,138 #00138 #0138 #138 0138,3415 English Avenue,IN,46201
Big Lots,Indianapolis,139,139 #00139 #0139 #139 0139,4711 West 30th Street,IN,46222
Big Lots,Mount Pleasant,141,141 #00141 #0141 #141 0141,Route 7,PA,15666
Big Lots,Sterling Heights,152,152 #00152 #0152 #152 0152,33100 Schoenherr Road,MI,48312
Big Lots,Harrison,153,153 #00153 #0153 #153 0153,10939 New Haven Road,OH,45030
Big Lots,New Castle,157,157 #00157 #0157 #157 0157,2611 Ellwood Road,PA,16101
Big Lots,Mckees Rocks,164,164 #00164 #0164 #164 0164,Chartiers Avenue,PA,15136
Big Lots,Huntington,172,172 #00172 #0172 #172 0172,101 Eastern Heights,WV,25705
Big Lots,Louisville,175,175 #00175 #0175 #175 0175,5318 Bardstown Road,KY,40291
Big Lots,Bowling Green,180,180 #00180 #0180 #180 0180,2445 Nashville Road,KY,42101
Big Lots,Owensboro,182,182 #00182 #0182 #182 0182,4010 Frederica Street,KY,42301
Big Lots,Parkersburg,186,186 #00186 #0186 #186 0186,2107 Pike Street,WV,26101
Big Lots,New Haven,188,188 #00188 #0188 #188 0188,918 Lincoln Highway West,IN,46774
Big Lots,Henderson,190,190 #00190 #0190 #190 0190,1321 2nd Street,KY,42420
Big Lots,Corbin,198,198 #00198 #0198 #198 0198,Highway 25 East,KY,40701
Big Lots,Leechburg,200,200 #00200 #0200 #200 0200,500 Hyde Park Road,PA,15656
Big Lots,Johnson City,204,204 #00204 #0204 #204 0204,3110 East Oakland Avenue,TN,37601
Big Lots,Somerset,205,205 #00205 #0205 #205 0205,345 North Highway 27,KY,42503
Big Lots,Fayetteville,206,206 #00206 #0206 #206 0206,3910 Raeford Road,NC,28304
Big Lots,Kalamazoo,208,208 #00208 #0208 #208 0208,4425 South Westnedge Avenue,MI,49008
Big Lots,Niles,209,209 #00209 #0209 #209 0209,1907 South 11th Street,MI,49120
Big Lots,Westover,211,211 #00211 #0211 #211 0211,902 Fairmont Road,WV,26501
Big Lots,Lenoir,212,212 #00212 #0212 #212 0212,308A Blowing Rock Boulevard,NC,28645
Big Lots,Anderson,213,213 #00213 #0213 #213 0213,302 Pearman Dairy Road,SC,29625
Big Lots,Springfield,214,214 #00214 #0214 #214 0214,3173 South Dirksen Parkway,IL,62703
Big Lots,Shepherdsville,216,216 #00216 #0216 #216 0216,I-65 Highway and 44,KY,40165
Big Lots,Moncks Corner,219,219 #00219 #0219 #219 0219,1013 Old Highway 52,SC,29461
Big Lots,Sevierville,220,220 #00220 #0220 #220 0220,324 West Main Street,TN,37862
Big Lots,Jefferson City,221,221 #00221 #0221 #221 0221,264 East Broadway Boulevard,TN,37760
Big Lots,Rogersville,222,222 #00222 #0222 #222 0222,420 Park Boulevard,TN,37857
Big Lots,Elkin,224,224 #00224 #0224 #224 0224,1504 North Bridge Street,NC,28621
Big Lots,Kingsport,225,225 #00225 #0225 #225 0225,1913 Sherwood Road,TN,37664
Big Lots,Louisville,226,226 #00226 #0226 #226 0226,4121 Shelbyville Road,KY,40207
Big Lots,State College,228,228 #00228 #0228 #228 0228,503 Benner Pike,PA,16801
Big Lots,Clinton,229,229 #00229 #0229 #229 0229,105 Longmire Road,TN,37716
Big Lots,Knoxville,230,230 #00230 #0230 #230 0230,4006 Champman Highway,TN,37920
Big Lots,Saint Ann,235,235 #00235 #0235 #235 0235,10415 Saint Charles Rock Road,MO,63074
Big Lots,Gainesville,242,242 #00242 #0242 #242 0242,1500 Browns Bridge Road,GA,30501
Big Lots,Wheelersburg,244,244 #00244 #0244 #244 0244,9025 Ohio River Road,OH,45694
Big Lots,Jackson,245,245 #00245 #0245 #245 0245,1050 West Argyle Street,MI,49202
Big Lots,Bridgeport,246,246 #00246 #0246 #246 0246,104 Thompson Drive,WV,26330
Big Lots,Bloomington,247,247 #00247 #0247 #247 0247,3620 West 3rd Street,IN,47404
Big Lots,Lebanon,250,250 #00250 #0250 #250 0250,2425 North Lebanon Street,IN,46052
Big Lots,Greenfield,251,251 #00251 #0251 #251 0251,1612 North State Street,IN,46140
Big Lots,Jasper,254,254 #00254 #0254 #254 0254,195 US 231 Southgate Center,IN,47546
Big Lots,Madison,255,255 #00255 #0255 #255 0255,1345 Cliffy Drive,IN,47250
Big Lots,Seymour,256,256 #00256 #0256 #256 0256,2000 East Tipton Street,IN,47274
Big Lots,Bedford,257,257 #00257 #0257 #257 0257,3309 West 16th Street,IN,47421
Big Lots,Vincennes,258,258 #00258 #0258 #258 0258,2323 North 6th Street,IN,47591
Big Lots,Mount Vernon,259,259 #00259 #0259 #259 0259,701 Prairie Street,IL,62864
Big Lots,Mattoon,260,260 #00260 #0260 #260 0260,Route 16 East And Logan,IL,61938
Big Lots,Covington,265,265 #00265 #0265 #265 0265,3905 Winston Avenue,KY,41015
Big Lots,Cincinnati,268,268 #00268 #0268 #268 0268,9345 Colerain Avenue,OH,45251
Big Lots,Seneca,275,275 #00275 #0275 #275 0275,207 Oconee Square Drive,SC,29678
Big Lots,Staunton,276,276 #00276 #0276 #276 0276,2030 West Beverley Street,VA,24401
Big Lots,Pekin,277,277 #00277 #0277 #277 0277,3500 Court Street,IL,61554
Big Lots,Frankfort,278,278 #00278 #0278 #278 0278,1169 Century Plaza South,KY,40601
Big Lots,Columbus,280,280 #00280 #0280 #280 0280,2855 Olentangy River Road,OH,43202
Big Lots,Cookeville,282,282 #00282 #0282 #282 0282,633 South Jefferson Avenue,TN,38501
Big Lots,Oak Ridge,283,283 #00283 #0283 #283 0283,250 South Illinois Avenue,TN,37830
Big Lots,Janesville,286,286 #00286 #0286 #286 0286,1800 Milton Avenue,WI,53545
Big Lots,Murfreesboro,290,290 #00290 #0290 #290 0290,1220 Northwest Broad Street,TN,37129
Big Lots,Columbia,292,292 #00292 #0292 #292 0292,1301 South James Campbell Boulevard,TN,38401
Big Lots,Sandusky,293,293 #00293 #0293 #293 0293,410 East Perkins Avenue,OH,44870
Big Lots,Alcoa,294,294 #00294 #0294 #294 0294,116 South Hall Road,TN,37701
Big Lots,Florence,296,296 #00296 #0296 #296 0296,6829 Burlington Pike,KY,41042
Big Lots,Richmond,297,297 #00297 #0297 #297 0297,472 Eastern Bypass,KY,40475
Big Lots,Elizabethton,298,298 #00298 #0298 #298 0298,US Highway 321,TN,37643
Big Lots,Alliance,303,303 #00303 #0303 #303 0303,1965 West State Street,OH,44601
Big Lots,Clarksville,310,310 #00310 #0310 #310 0310,1041 South Riverside Drive,TN,37040
Big Lots,Lancaster,313,313 #00313 #0313 #313 0313,1277 North Memorial Drive,OH,43130
Big Lots,Shelby,315,315 #00315 #0315 #315 0315,1645 East Dixon Boulevard,NC,28152
Big Lots,Prestonsburg,316,316 #00316 #0316 #316 0316,US Highway 23,KY,41653
Big Lots,Fremont,317,317 #00317 #0317 #317 0317,1791 East State Street,OH,43420
Big Lots,Pikeville,318,318 #00318 #0318 #318 0318,58 Power Drive,KY,41501
Big Lots,West Chester,320,320 #00320 #0320 #320 0320,7779 Tylersville Road,OH,45069
Big Lots,Tullahoma,331,331 #00331 #0331 #331 0331,1600 N. Jackson Street,TN,37388
Big Lots,Florence,333,333 #00333 #0333 #333 0333,1700 Darby Drive,AL,35630
Big Lots,Greenville,335,335 #00335 #0335 #335 0335,2111 North Pleasantburg Drive,SC,29609
Big Lots,Martinsburg,340,340 #00340 #0340 #340 0340,1275 North Queen Street,WV,25401
Big Lots,High Point,343,343 #00343 #0343 #343 0343,2200 Westchester Drive,NC,27262
Big Lots,Heath,344,344 #00344 #0344 #344 0344,635 Hebron Road,OH,43056
Big Lots,Louisville,346,346 #00346 #0346 #346 0346,5518 New Cut Road,KY,40214
Big Lots,Chattanooga,347,347 #00347 #0347 #347 0347,3901 Hixson Pike,TN,37415
Big Lots,Richlands,348,348 #00348 #0348 #348 0348,180 Kents Ridge Road,VA,24641
Big Lots,Nashville,353,353 #00353 #0353 #353 0353,3734 Annex Avenue,TN,37209
Big Lots,Carrollton,354,354 #00354 #0354 #354 0354,1111 Bankhead Highway,GA,30117
Big Lots,Gadsden,356,356 #00356 #0356 #356 0356,2509 West Meighan Boulevard,AL,35904
Big Lots,Smyrna,358,358 #00358 #0358 #358 0358,3791 South Cobb Drive,GA,30080
Big Lots,Hartville,368,368 #00368 #0368 #368 0368,840 West Maple Street,OH,44632
Big Lots,Lawrenceville,370,370 #00370 #0370 #370 0370,250 Grayson Hwy SW,GA,30045
Big Lots,Hermitage,371,371 #00371 #0371 #371 0371,2301 East State Street,PA,16148
Big Lots,Austell,372,372 #00372 #0372 #372 0372,5055 Austell Road,GA,30106
Big Lots,Perrysburg,373,373 #00373 #0373 #373 0373,144 East South Boundary Street,OH,43551
Big Lots,Cullman,375,375 #00375 #0375 #375 0375,1619 Town Square Southwest,AL,35055
Big Lots,Homewood,376,376 #00376 #0376 #376 0376,142 Green Springs Highway,AL,35209
Big Lots,Charleston,378,378 #00378 #0378 #378 0378,7200 Maccorkle Avenue SE,WV,25304
Big Lots,Marion,380,380 #00380 #0380 #380 0380,1535 South Western Avenue,IN,46953
Big Lots,Erie,381,381 #00381 #0381 #381 0381,4401 Buffalo Road,PA,16510
Big Lots,Fort Oglethorpe,382,382 #00382 #0382 #382 0382,1830 Lafayette Road,GA,30742
Big Lots,Vinton,383,383 #00383 #0383 #383 0383,981 Hardy Road,VA,24179
Big Lots,Mishawaka,386,386 #00386 #0386 #386 0386,2320 Miracle Lane,IN,46545
Big Lots,Eastpointe,387,387 #00387 #0387 #387 0387,16100 East 10 Mile Road,MI,48021
Big Lots,Bridgeport,388,388 #00388 #0388 #388 0388,56104 National Road,OH,43912
Big Lots,Barberton,389,389 #00389 #0389 #389 0389,161 Wooster Road North,OH,44203
Big Lots,Depew,391,391 #00391 #0391 #391 0391,5165 Broadway,NY,14043
Big Lots,Franklin,396,396 #00396 #0396 #396 0396,697 Allegheny Boulevard,PA,16323
Big Lots,Norfolk,397,397 #00397 #0397 #397 0397,1851 East Little Creek Road,VA,23518
Big Lots,Hampton,401,401 #00401 #0401 #401 0401,2330C West Mercury Boulevard,VA,23666
Big Lots,Cleveland,405,405 #00405 #0405 #405 0405,840 25th Street Northwest,TN,37311
Big Lots,Danville,407,407 #00407 #0407 #407 0407,20 North Gilbert Street,IL,61832
Big Lots,Kentwood,409,409 #00409 #0409 #409 0409,5450 Division Avenue South,MI,49548
Big Lots,Columbus,410,410 #00410 #0410 #410 0410,4645 Morse Centre Road,OH,43229
Big Lots,Lynchburg,411,411 #00411 #0411 #411 0411,20722 Timberlake Road,VA,24502
Big Lots,Madison Heights,412,412 #00412 #0412 #412 0412,115 Seminole Plaza,VA,24572
Big Lots,Monroe,414,414 #00414 #0414 #414 0414,1575 North Telegraph Road,MI,48162
Big Lots,Latrobe,416,416 #00416 #0416 #416 0416,Route 30 & 981 Unity Plaza,PA,15650
Big Lots,Evansville,418,418 #00418 #0418 #418 0418,410 East Diamond Avenue,IN,47711
Big Lots,Warren,419,419 #00419 #0419 #419 0419,26800 Dequindre Road,MI,48091
Big Lots,Bay City,420,420 #00420 #0420 #420 0420,1001 North Euclid Avenue,MI,48706
Big Lots,Ypsilanti,422,422 #00422 #0422 #422 0422,2299 Ellsworth Road,MI,48197
Big Lots,Kenosha,423,423 #00423 #0423 #423 0423,3536 52nd Street,WI,53144
Big Lots,Circleville,424,424 #00424 #0424 #424 0424,201 Lancaster Pike,OH,43113
Big Lots,Milwaukee,425,425 #00425 #0425 #425 0425,5667-5671 South 27th Street,WI,53221
Big Lots,Cincinnati,428,428 #00428 #0428 #428 0428,8576 Beechmont Avenue,OH,45255
Big Lots,Marysville,429,429 #00429 #0429 #429 0429,1159 West 5th Street,OH,43040
Big Lots,Adrian,430,430 #00430 #0430 #430 0430,1370 South Main Street,MI,49221
Big Lots,Fredericksburg,432,432 #00432 #0432 #432 0432,2000 Plank Road,VA,22401
Big Lots,Champaign,438,438 #00438 #0438 #438 0438,2004 West Springfield Avenue,IL,61821
Big Lots,Summersville,445,445 #00445 #0445 #445 0445,2093 Webster Road,WV,26651
Big Lots,Peru,446,446 #00446 #0446 #446 0446,38th Street And US Highway 251,IL,61354
Big Lots,Greenville,448,448 #00448 #0448 #448 0448,633 Wagner Avenue,OH,45331
Big Lots,Michigan City,449,449 #00449 #0449 #449 0449,4108 Franklin Street,IN,46360
Big Lots,Grove City,451,451 #00451 #0451 #451 0451,3961 Hoover Road,OH,43123
Big Lots,Hannibal,452,452 #00452 #0452 #452 0452,230 Huck Finn Shopping Center,MO,63401
Big Lots,Stow,453,453 #00453 #0453 #453 0453,4301 Kent Road,OH,44224
Big Lots,Toledo,454,454 #00454 #0454 #454 0454,3946 Alexis Road,OH,43623
Big Lots,Virginia Beach,455,455 #00455 #0455 #455 0455,5612 Princess Anne Road,VA,23462
Big Lots,Elkins,458,458 #00458 #0458 #458 0458,710 Beverly Pike,WV,26241
Big Lots,Auburn,459,459 #00459 #0459 #459 0459,1716 Opelika Road,AL,36830
Big Lots,Cumberland,461,461 #00461 #0461 #461 0461,Industrial Boulevard,MD,21502
Big Lots,Knoxville,462,462 #00462 #0462 #462 0462,4825 North Broadway Street,TN,37918
Big Lots,Martinsville,463,463 #00463 #0463 #463 0463,2646 Greensboro Road,VA,24112
Big Lots,Festus,464,464 #00464 #0464 #464 0464,1255 North Truman Boulevard,MO,63028
Big Lots,Johnstown,467,467 #00467 #0467 #467 0467,1425 Scalp Avenue,PA,15904
Big Lots,Richmond,468,468 #00468 #0468 #468 0468,5730 Hopkins Road,VA,23234
Big Lots,Coshocton,469,469 #00469 #0469 #469 0469,300 Downtowner Plaza,OH,43812
Big Lots,Howell,471,471 #00471 #0471 #471 0471,1135 East Grand River Avenue,MI,48843
Big Lots,Suffolk,472,472 #00472 #0472 #472 0472,924 North Main Street,VA,23434
Big Lots,Butler,473,473 #00473 #0473 #473 0473,190 Alameda Plaza,PA,16001
Big Lots,Crawfordsville,474,474 #00474 #0474 #474 0474,1424 Darlington Avenue,IN,47933
Big Lots,East Rochester,475,475 #00475 #0475 #475 0475,750 Ohio River Boulevard,PA,15074
Big Lots,Valdosta,476,476 #00476 #0476 #476 0476,3103 North Ashley Street,GA,31602
Big Lots,Middlesboro,477,477 #00477 #0477 #477 0477,312 North 12th Street,KY,40965
Big Lots,Uniontown,478,478 #00478 #0478 #478 0478,575 Morgantown Road,PA,15401
Big Lots,Phenix City,480,480 #00480 #0480 #480 0480,1109 280 Bypass,AL,36867
Big Lots,Westminster,481,481 #00481 #0481 #481 0481,521a Jermor Lane,MD,21157
Big Lots,Albany,483,483 #00483 #0483 #483 0483,2304 North Slappey Boulevard,GA,31701
Big Lots,Bristol,487,487 #00487 #0487 #487 0487,1103 Volunteer Parkway,TN,37620
Big Lots,Lapeer,490,490 #00490 #0490 #490 0490,1875 West Genesee Street,MI,48446
Big Lots,Crossville,491,491 #00491 #0491 #491 0491,106 Cumberland Square,TN,38555
Big Lots,Topeka,493,493 #00493 #0493 #493 0493,5121 Southwest 29th Street,KS,66614
Big Lots,Cleona,494,494 #00494 #0494 #494 0494,467 West Penn Avenue,PA,17042
Big Lots,Piqua,497,497 #00497 #0497 #497 0497,1254 East Ash Street,OH,45356
Big Lots,Athens,498,498 #00498 #0498 #498 0498,1637 Decatur Pike,TN,37303
Big Lots,Burlington,499,499 #00499 #0499 #499 0499,1811 South Church Street,NC,27215
Big Lots,Pensacola,507,507 #00507 #0507 #507 0507,400 North Navy Boulevard,FL,32507
Big Lots,Saint Augustine,509,509 #00509 #0509 #509 0509,308 State Road 312,FL,32086
Big Lots,Inverness,512,512 #00512 #0512 #512 0512,445 West Highland Boulevard Space 300,FL,34452
Big Lots,Port Richey,513,513 #00513 #0513 #513 0513,11854 US Highway 19,FL,34668
Big Lots,Saint Cloud,514,514 #00514 #0514 #514 0514,3401 13th Street Suite 100,FL,34769
Big Lots,Eustis,515,515 #00515 #0515 #515 0515,405 Plaza Drive,FL,32726
Big Lots,Crystal River,516,516 #00516 #0516 #516 0516,146 Southeast Highway 19,FL,34429
Big Lots,Jacksonville,517,517 #00517 #0517 #517 0517,9718 Saint Augustine Road,FL,32257
Big Lots,Winter Haven,518,518 #00518 #0518 #518 0518,1520 3rd Street Southwest,FL,33880
Big Lots,Bradenton,519,519 #00519 #0519 #519 0519,5108 15th Street East,FL,34203
Big Lots,New Port Richey,522,522 #00522 #0522 #522 0522,5241 US Highway 19,FL,34652
Big Lots,Winter Garden,523,523 #00523 #0523 #523 0523,1013 South Dillard Street,FL,34787
Big Lots,Orlando,524,524 #00524 #0524 #524 0524,1880 South Semoran Boulevard,FL,32822
Big Lots,Saint Petersburg,525,525 #00525 #0525 #525 0525,1055 62nd Avenue North,FL,33702
Big Lots,Melbourne,526,526 #00526 #0526 #526 0526,1345 South Babcock Street,FL,32901
Big Lots,Clearwater,527,527 #00527 #0527 #527 0527,1492 South Belcher Road,FL,33764
Big Lots,Orange City,528,528 #00528 #0528 #528 0528,2412 South Volusia Avenue,FL,32763
Big Lots,Venice,529,529 #00529 #0529 #529 0529,565 US Highway 41 Bypass,FL,34292
Big Lots,Sarasota,530,530 #00530 #0530 #530 0530,3251 17th Street,FL,34235
Big Lots,Ocala,535,535 #00535 #0535 #535 0535,2653 East Silver Springs,FL,34470
Big Lots,Union Park,536,536 #00536 #0536 #536 0536,11672 East Colonial Drive,FL,32817
Big Lots,Seminole,539,539 #00539 #0539 #539 0539,7600 Starkey Road,FL,33777
Big Lots,Saint Petersburg,540,540 #00540 #0540 #540 0540,2900 34th Street North,FL,33713
Big Lots,Fort Myers,541,541 #00541 #0541 #541 0541,4901 Palm Beach Boulevard,FL,33905
Big Lots,Dade City,546,546 #00546 #0546 #546 0546,12820 US Highway 301 South,FL,33525
Big Lots,Tampa,547,547 #00547 #0547 #547 0547,7565 West Hillsborough Avenue,FL,33615
Big Lots,Leesburg,548,548 #00548 #0548 #548 0548,923 North 14th Street,FL,34748
Big Lots,Avon Park,550,550 #00550 #0550 #550 0550,818 US Highway 27 South,FL,33825
Big Lots,Longwood,552,552 #00552 #0552 #552 0552,250 North US Highway,FL,32750
Big Lots,Fort Lauderdale,553,553 #00553 #0553 #553 0553,1003 State Road 84,FL,33315
Big Lots,Saint Petersburg,554,554 #00554 #0554 #554 0554,950 58th Street North,FL,33710
Big Lots,Stuart,555,555 #00555 #0555 #555 0555,2236 South Federal Highway,FL,34994
Big Lots,Tampa,556,556 #00556 #0556 #556 0556,14948 North Florida Avenue,FL,33613
Big Lots,Fort Myers,559,559 #00559 #0559 #559 0559,13970 North Cleveland Avenue,FL,33903
Big Lots,Brandon,560,560 #00560 #0560 #560 0560,843 West Bloomingdale Avenue,FL,33511
Big Lots,Port Charlotte,561,561 #00561 #0561 #561 0561,1825 Tamiami Trail,FL,33948
Big Lots,Coconut Creek,562,562 #00562 #0562 #562 0562,4847 Coconut Creek Parkway,FL,33063
Big Lots,Ormond Beach,563,563 #00563 #0563 #563 0563,122 South Nova Road,FL,32174
Big Lots,Tarpon Springs,564,564 #00564 #0564 #564 0564,41306 US 19 North,FL,34689
Big Lots,Casselberry,565,565 #00565 #0565 #565 0565,1452 South State Road 436,FL,32707
Big Lots,Fort Pierce,568,568 #00568 #0568 #568 0568,2311 South Federal Highway,FL,34982
Big Lots,Deland,569,569 #00569 #0569 #569 0569,911 North Woodland Boulevard,FL,32724
Big Lots,Crestview,571,571 #00571 #0571 #571 0571,2507 South Ferdon Boulevard,FL,32536
Big Lots,Fort Myers,574,574 #00574 #0574 #574 0574,15600 San Carlos Boulevard,FL,33908
Big Lots,Tampa,575,575 #00575 #0575 #575 0575,5353 Gunn Highway,FL,33624
Big Lots,Lake Worth,578,578 #00578 #0578 #578 0578,4515 Lake Worth Road,FL,33463
Big Lots,Shallotte,603,603 #00603 #0603 #603 0603,4600 Main Street Suite 1,NC,28470
Big Lots,Hickory,604,604 #00604 #0604 #604 0604,505 US Highway 70 SW,NC,28602
Big Lots,Meadville,801,801 #00801 #0801 #801 0801,820 Water Street,PA,16335
Big Lots,Anniston,802,802 #00802 #0802 #802 0802,3124 Mcclellan Boulevard,AL,36201
Big Lots,Galesburg,804,804 #00804 #0804 #804 0804,1280 North Henderson Street,IL,61401
Big Lots,Decatur,805,805 #00805 #0805 #805 0805,1383 East Pershing Road #a3,IL,62526
Big Lots,Decatur,807,807 #00807 #0807 #807 0807,2617 North Decatur Road,GA,30033
Big Lots,Dalton,809,809 #00809 #0809 #809 0809,1335 Walnut Avenue,GA,30720
Big Lots,Chesapeake,810,810 #00810 #0810 #810 0810,1971 Military Highway South,VA,23320
Big Lots,Sugar Hill,811,811 #00811 #0811 #811 0811,4450 Highway 20,GA,30518
Big Lots,Augusta,812,812 #00812 #0812 #812 0812,3232 Wrightsboro Road,GA,30909
Big Lots,Columbus,814,814 #00814 #0814 #814 0814,3170 National Road,IN,47203
Big Lots,New Philadelphia,815,815 #00815 #0815 #815 0815,408 Bluebell Drive,OH,44663
Big Lots,Canandaigua,819,819 #00819 #0819 #819 0819,4406 State Route 5 & 20,NY,14424
Big Lots,Lebanon,820,820 #00820 #0820 #820 0820,726 East Main Street,OH,45036
Big Lots,Eau Claire,822,822 #00822 #0822 #822 0822,3004 East Hamilton Avenue,WI,54701
Big Lots,Newport News,823,823 #00823 #0823 #823 0823,14347 Warwick Boulevard,VA,23602
Big Lots,Cincinnati,824,824 #00824 #0824 #824 0824,3690 Werk Road,OH,45248
Big Lots,Memphis,827,827 #00827 #0827 #827 0827,4224 Summer Avenue,TN,38122
Big Lots,Maysville,829,829 #00829 #0829 #829 0829,US Route 68 & Mapleleaf Road,KY,41056
Big Lots,Ithaca,830,830 #00830 #0830 #830 0830,Route 13 & Triphammer Road,NY,14850
Big Lots,Lockport,831,831 #00831 #0831 #831 0831,5987 South Transit Road,NY,14094
Big Lots,Ashland,833,833 #00833 #0833 #833 0833,711 Martin Luther King Junior Boulevard,KY,41101
Big Lots,Port Huron,835,835 #00835 #0835 #835 0835,659 24th Street,MI,48060
Big Lots,Oak Hill,837,837 #00837 #0837 #837 0837,291 Mall Road,WV,25901
Big Lots,Wooster,838,838 #00838 #0838 #838 0838,1925 Cleveland Road,OH,44691
Big Lots,Gulfport,840,840 #00840 #0840 #840 0840,19 Hardy Court,MS,39507
Big Lots,Spartanburg,843,843 #00843 #0843 #843 0843,1000 North Pine Street,SC,29303
Big Lots,Teays Valley,849,849 #00849 #0849 #849 0849,Route 34 & Interstate 64,WV,25569
Big Lots,McMinnville,1001,1001 #001001 #01001 #1001 01001,231 Northgate Drive,TN,37110
Big Lots,Cartersville,1003,1003 #001003 #01003 #1003 01003,160 Market Square,GA,30120
Big Lots,Lexington,1005,1005 #001005 #01005 #1005 01005,810 Winston Road,NC,27292
Big Lots,Myrtle Beach,1006,1006 #001006 #01006 #1006 01006,1370 South Kings Highway,SC,29577
Big Lots,Olathe,1007,1007 #001007 #01007 #1007 01007,140 South Clairborne Road,KS,66062
Big Lots,Slidell,1009,1009 #001009 #01009 #1009 01009,196 Gause Boulevard West,LA,70460
Big Lots,Cumming,1011,1011 #001011 #01011 #1011 01011,580 Atlanta Road,GA,30040
Big Lots,Columbia,1012,1012 #001012 #01012 #1012 01012,6880 Garners Ferry Road,SC,29209
Big Lots,Winston Salem,1013,1013 #001013 #01013 #1013 01013,5952 University Parkway,NC,27105
Big Lots,York,1016,1016 #001016 #01016 #1016 01016,2140 White Street,PA,17404
Big Lots,Portage,1017,1017 #001017 #01017 #1017 01017,5960 US Highway 6,IN,46368
Big Lots,Jamestown,1018,1018 #001018 #01018 #1018 01018,21 South Main Street,NY,14701
Big Lots,Kansas City,1019,1019 #001019 #01019 #1019 01019,7533 State Avenue,KS,66112
Big Lots,Irondequoit,1020,1020 #001020 #01020 #1020 01020,525 Titus Avenue,NY,14617
Big Lots,Greenwood,1021,1021 #001021 #01021 #1021 01021,701 West Park Avenue,MS,38930
Big Lots,Watertown,1022,1022 #001022 #01022 #1022 01022,1125 Arsenal Street,NY,13601
Big Lots,Sherman,1027,1027 #001027 #01027 #1027 01027,2222 Texoma Parkway,TX,75090
Big Lots,Kansas City,1037,1037 #001037 #01037 #1037 01037,8236 Wornall,MO,64114
Big Lots,Tyler,1038,1038 #001038 #01038 #1038 01038,1421 South Beckham Avenue,TX,75701
Big Lots,Spartanburg,1046,1046 #001046 #01046 #1046 01046,204 Cedar Springs Road,SC,29302
Big Lots,Parkersburg,1049,1049 #001049 #01049 #1049 01049,270 Park Center,WV,26101
Big Lots,Hammond,1051,1051 #001051 #01051 #1051 01051,1701 West Thomas Street,LA,70401
Big Lots,Morristown,1052,1052 #001052 #01052 #1052 01052,2342 East Andrew Johnson Highway,TN,37814
Big Lots,Orange,1053,1053 #001053 #01053 #1053 01053,2260 Macarthur Drive,TX,77630
Big Lots,Garfield Heights,1055,1055 #001055 #01055 #1055 01055,12588 Rockside Road,OH,44125
Big Lots,Pelham,1057,1057 #001057 #01057 #1057 01057,3550 U.S. Highway 31 South,AL,35124
Big Lots,Selma,1058,1058 #001058 #01058 #1058 01058,1403 South Pollock Street,NC,27576
Big Lots,Muskogee,1060,1060 #001060 #01060 #1060 01060,2300 East Shawnee Road,OK,74403
Big Lots,Jackson,1061,1061 #001061 #01061 #1061 01061,570 East Main Street,OH,45640
Big Lots,Tulsa,1062,1062 #001062 #01062 #1062 01062,2144 South Sheridan Road,OK,74129
Big Lots,Leadington,1063,1063 #001063 #01063 #1063 01063,107 Elizabeth Court,MO,63601
Big Lots,Saint Joseph,1066,1066 #001066 #01066 #1066 01066,1417 North Belt Highway,MO,64506
Big Lots,Beaufort,1068,1068 #001068 #01068 #1068 01068,11 B Robert Smalls Parkway,SC,29906
Big Lots,Midlothian,1069,1069 #001069 #01069 #1069 01069,10161 Hull Street Road,VA,23112
Big Lots,Haltom City,1072,1072 #001072 #01072 #1072 01072,3185 Denton Highway,TX,76117
Big Lots,Harlan,1073,1073 #001073 #01073 #1073 01073,116 Village Center Road,KY,40831
Big Lots,Oswego,1074,1074 #001074 #01074 #1074 01074,140 State Route 104,NY,13126
Big Lots,South Williamson,1075,1075 #001075 #01075 #1075 01075,US Highway Route 119,KY,41503
Big Lots,Shawnee,1076,1076 #001076 #01076 #1076 01076,704 West Ayre Street,OK,74801
Big Lots,Groves,1077,1077 #001077 #01077 #1077 01077,5000 Twins City Highway,TX,77619
Big Lots,Dickson,1078,1078 #001078 #01078 #1078 01078,220 Dickson Plaza,TN,37055
Big Lots,Cambridge,1079,1079 #001079 #01079 #1079 01079,1755 Southgate Parkway,OH,43725
Big Lots,Guntersville,1081,1081 #001081 #01081 #1081 01081,14228 Highway 431 South,AL,35976
Big Lots,Saraland,1083,1083 #001083 #01083 #1083 01083,8 Highway 43 South,AL,36571
Big Lots,Bradford,1084,1084 #001084 #01084 #1084 01084,1001 East Main Street,PA,16701
Big Lots,Corsicana,1085,1085 #001085 #01085 #1085 01085,1955 West 7th Avenue,TX,75110
Big Lots,Porter,1087,1087 #001087 #01087 #1087 01087,US Highway 59,TX,77365
Big Lots,Paducah,1089,1089 #001089 #01089 #1089 01089,3200 Irvin Cobb Drive,KY,42003
Big Lots,Milledgeville,1090,1090 #001090 #01090 #1090 01090,2485 North Columbia Street,GA,31061
Big Lots,Tulsa,1091,1091 #001091 #01091 #1091 01091,5644 West Skelly Drive,OK,74107
Big Lots,Covington,1093,1093 #001093 #01093 #1093 01093,3111 Highway 278 Northwest,GA,30014
Big Lots,Hazard,1094,1094 #001094 #01094 #1094 01094,294 Village Lane,KY,41701
Big Lots,Gates,1095,1095 #001095 #01095 #1095 01095,2175 Buffalo Road,NY,14646
Big Lots,Greenwood,1096,1096 #001096 #01096 #1096 01096,339 Bypass 72 West,SC,29649
Big Lots,Highland,1098,1098 #001098 #01098 #1098 01098,8301-8359 Indianapolis Boulevard,IN,46322
Big Lots,Woodbridge,1100,1100 #001100 #01100 #1100 01100,13969 Jefferson Davis Highway,VA,22191
Big Lots,Lafayette,1102,1102 #001102 #01102 #1102 01102,3557 Ambassador Caffery,LA,70503
Big Lots,Tillmans Corner,1103,1103 #001103 #01103 #1103 01103,5363 C Highway 90 West,AL,36619
Big Lots,Mesquite,1106,1106 #001106 #01106 #1106 01106,3737 Gus Thomasson Road,TX,75150
Big Lots,Shreveport,1117,1117 #001117 #01117 #1117 01117,9074 Mansfield Road,LA,71118
Big Lots,Miamisburg,1118,1118 #001118 #01118 #1118 01118,1220 East Central Avenue,OH,45342
Big Lots,Alexandria,1120,1120 #001120 #01120 #1120 01120,111 Macarthur Drive,LA,71303
Big Lots,Yukon,1121,1121 #001121 #01121 #1121 01121,1155 Garth Brooks Boulevard,OK,73099
Big Lots,Riverdale,1122,1122 #001122 #01122 #1122 01122,7055 Highway 85,GA,30296
Big Lots,East Rochester,1123,1123 #001123 #01123 #1123 01123,825 Fairport Road,NY,14445
Big Lots,Lawton,1124,1124 #001124 #01124 #1124 01124,3801 Northwest Cache Road,OK,73505
Big Lots,Glasgow,1125,1125 #001125 #01125 #1125 01125,942 Happy Valley Road,KY,42141
Big Lots,Texarkana,1131,1131 #001131 #01131 #1131 01131,2729 New Boston Rd.,TX,75501
Big Lots,Poplar Bluff,1132,1132 #001132 #01132 #1132 01132,2160 North Westwood Boulevard,MO,63901
Big Lots,West Monroe,1134,1134 #001134 #01134 #1134 01134,112 Blanchard Street,LA,71291
Big Lots,Newton,1138,1138 #001138 #01138 #1138 01138,2725 Northwest Boulevard,NC,28658
Big Lots,Mount Vernon,1139,1139 #001139 #01139 #1139 01139,911 Coshocton Avenue,OH,43050
Big Lots,North Versailles,1140,1140 #001140 #01140 #1140 01140,Lincoln Highway State Route 30,PA,15137
Big Lots,Bloomsburg,1141,1141 #001141 #01141 #1141 01141,2431 New Berwick Highway,PA,17815
Big Lots,Hot Springs,1143,1143 #001143 #01143 #1143 01143,207 Airport Road,AR,71913
Big Lots,Broken Arrow,1144,1144 #001144 #01144 #1144 01144,1750 South Elm Place,OK,74012
Big Lots,Springfield,1145,1145 #001145 #01145 #1145 01145,2565 North Kansas Expressway,MO,65803
Big Lots,Mansfield,1148,1148 #001148 #01148 #1148 01148,1033 Ashland Road,OH,44905
Big Lots,Front Royal,1152,1152 #001152 #01152 #1152 01152,340 Remount Road,VA,22630
Big Lots,New Braunfels,1154,1154 #001154 #01154 #1154 01154,139 South Interstate Highway 35,TX,78130
Big Lots,Lake Jackson,1155,1155 #001155 #01155 #1155 01155,125 Highway 332 West,TX,77566
Big Lots,West Plains,1157,1157 #001157 #01157 #1157 01157,1362 Southern Hills Center,MO,65775
Big Lots,Athens,1158,1158 #001158 #01158 #1158 01158,603 US Highway 72 West,AL,35611
Big Lots,Lake Charles,1159,1159 #001159 #01159 #1159 01159,3260 Highway 14,LA,70601
Big Lots,Van Wert,1160,1160 #001160 #01160 #1160 01160,1155 South Shannon Street,OH,45891
Big Lots,Rensselaer,1162,1162 #001162 #01162 #1162 01162,164 Columbia Pike,NY,12144
Big Lots,Shelbyville,1164,1164 #001164 #01164 #1164 01164,1840 East Michigan Road,IN,46176
Big Lots,Dunmore,1166,1166 #001166 #01166 #1166 01166,1010 Oneill Highway,PA,18512
Big Lots,Newnan,1167,1167 #001167 #01167 #1167 01167,216 Bullsboro Drive,GA,30263
Big Lots,Rockingham,1168,1168 #001168 #01168 #1168 01168,491 East Broad Avenue,NC,28379
Big Lots,Richmond,1169,1169 #001169 #01169 #1169 01169,8533 Midlothian Turnpike,VA,23235
Big Lots,Stockbridge,1171,1171 #001171 #01171 #1171 01171,31 Highway 138 W,GA,30281
Big Lots,Lehighton,1173,1173 #001173 #01173 #1173 01173,1241 East Blakeslee Boulevard,PA,18235
Big Lots,Luzerne,1177,1177 #001177 #01177 #1177 01177,560 Union Street,PA,18709
Big Lots,Columbia,1178,1178 #001178 #01178 #1178 01178,9221 Two Notch Road,SC,29223
Big Lots,Bedford,1179,1179 #001179 #01179 #1179 01179,2853 Central Drive,TX,76021
Big Lots,Marrero,1180,1180 #001180 #01180 #1180 01180,5005 Lapalco Boulevard,LA,70072
Big Lots,Newburgh,1181,1181 #001181 #01181 #1181 01181,102 North Plank Road,NY,12550
Big Lots,Colonial Heights,1182,1182 #001182 #01182 #1182 01182,1217 Boulevard,VA,23834
Big Lots,Carbondale,1183,1183 #001183 #01183 #1183 01183,1150 East Main Street,IL,62901
Big Lots,New Bern,1184,1184 #001184 #01184 #1184 01184,520 Berne Square,NC,28560
Big Lots,Waycross,1185,1185 #001185 #01185 #1185 01185,1803 Knight Avenue,GA,31501
Big Lots,Findlay,1187,1187 #001187 #01187 #1187 01187,1925 Tiffin Avenue,OH,45840
Big Lots,Springfield,1188,1188 #001188 #01188 #1188 01188,205 East Leffel Lane,OH,45505
Big Lots,Odessa,1189,1189 #001189 #01189 #1189 01189,3118 Andrews Highway,TX,79762
Big Lots,Dallas,1190,1190 #001190 #01190 #1190 01190,260 Merchants Square,GA,30132
Big Lots,Oneida,1191,1191 #001191 #01191 #1191 01191,2132 Glenwood Shopping Plaza,NY,13421
Big Lots,Arlington,1192,1192 #001192 #01192 #1192 01192,2110 South Cooper Street,TX,76013
Big Lots,Somers Point,1195,1195 #001195 #01195 #1195 01195,257 New Road,NJ,8244
Big Lots,Plattsburgh,1196,1196 #001196 #01196 #1196 01196,316 Cornelia Street,NY,12901
Big Lots,Sylacauga,1198,1198 #001198 #01198 #1198 01198,1391 West Fort Williams Street,AL,35150
Big Lots,South Bend,1200,1200 #001200 #01200 #1200 01200,1911 East Ireland Road,IN,46614
Big Lots,Greer,1202,1202 #001202 #01202 #1202 01202,805 West Wade Hampton,SC,29650
Big Lots,Edgewood,1203,1203 #001203 #01203 #1203 01203,1815 Pulaski Highway,MD,21040
Big Lots,Murray,1204,1204 #001204 #01204 #1204 01204,700 US Highway 641 North,KY,42071
Big Lots,Lawrenceburg,1205,1205 #001205 #01205 #1205 01205,2000 Locust Avenue,TN,38464
Big Lots,Roanoke Rapids,1207,1207 #001207 #01207 #1207 01207,110 Julian Allsbrook Highway,NC,27870
Big Lots,Pearl,1213,1213 #001213 #01213 #1213 01213,5778 Highway 80 East,MS,39208
Big Lots,Webster Groves,1215,1215 #001215 #01215 #1215 01215,8563 Watson Road,MO,63119
Big Lots,Glassboro,1216,1216 #001216 #01216 #1216 01216,624 Delsea Drive North,NJ,8028
Big Lots,Mattydale,1217,1217 #001217 #01217 #1217 01217,2413-2499 Brewerton Road,NY,13211
Big Lots,Gaithersburg,1218,1218 #001218 #01218 #1218 01218,19142 Montgomery Village Avenue,MD,20879
Big Lots,Greenville,1221,1221 #001221 #01221 #1221 01221,6408 Wesley Street,TX,75402
Big Lots,Dayton,1222,1222 #001222 #01222 #1222 01222,164 Woodman Drive,OH,45431
Big Lots,San Antonio,1224,1224 #001224 #01224 #1224 01224,6900 San Pedro Avenue,TX,78216
Big Lots,Fort Wayne,1226,1226 #001226 #01226 #1226 01226,6128 Stellhorn Road,IN,46815
Big Lots,Hopkinsville,1227,1227 #001227 #01227 #1227 01227,2601 Fort Campbell Boulevard,KY,42240
Big Lots,Natrona Heights,1228,1228 #001228 #01228 #1228 01228,1726 Pacific Avenue,PA,15065
Big Lots,Virginia Beach,1230,1230 #001230 #01230 #1230 01230,3600 Holland Road,VA,23452
Big Lots,Thomasville,1233,1233 #001233 #01233 #1233 01233,1530 East Jackson Street,GA,31792
Big Lots,Greeneville,1235,1235 #001235 #01235 #1235 01235,1475 East Andrew Johnson Highway,TN,37745
Big Lots,Moundsville,1236,1236 #001236 #01236 #1236 01236,1230 North Lafayette Avenue,WV,26041
Big Lots,Tupelo,1237,1237 #001237 #01237 #1237 01237,2605 West Main,MS,38801
Big Lots,Fitchburg,1238,1238 #001238 #01238 #1238 01238,353-385 John Fitch Highway,MA,1420
Big Lots,Harrisonburg,1241,1241 #001241 #01241 #1241 01241,129 South Carlton Street,VA,22801
Big Lots,Lumberton,1242,1242 #001242 #01242 #1242 01242,1731 Roberts Avenue,NC,28358
Big Lots,Aurora,1243,1243 #001243 #01243 #1243 01243,888-a Green Boulevard,IN,47001
Big Lots,Knoxville,1244,1244 #001244 #01244 #1244 01244,101 North Seven Oaks Drive,TN,37922
Big Lots,Desoto,1245,1245 #001245 #01245 #1245 01245,719 North Hampton Road Suite 217,TX,75115
Big Lots,Rome,1246,1246 #001246 #01246 #1246 01246,1146 Erie Boulevard West,NY,13440
Big Lots,Richmond,1247,1247 #001247 #01247 #1247 01247,3779 National Road East,IN,47374
Big Lots,Cape Girardeau,1249,1249 #001249 #01249 #1249 01249,210 South Silver Springs Road,MO,63703
Big Lots,Crest Hill,1250,1250 #001250 #01250 #1250 01250,1608 Larkin,IL,60435
Big Lots,Claremont,1251,1251 #001251 #01251 #1251 01251,216 Washington Street,NH,3743
Big Lots,Terrell,1255,1255 #001255 #01255 #1255 01255,1418 West Moore Avenue,TX,75160
Big Lots,Conway,1257,1257 #001257 #01257 #1257 01257,150 East Oak Street,AR,72032
Big Lots,Niles,1258,1258 #001258 #01258 #1258 01258,5796 Youngstown Warren Road,OH,44446
Big Lots,Massena,1260,1260 #001260 #01260 #1260 01260,138 Harte Haven Plaza,NY,13662
Big Lots,Jonesboro,1261,1261 #001261 #01261 #1261 01261,1907 Woodsprings Road,AR,72401
Big Lots,Gaffney,1262,1262 #001262 #01262 #1262 01262,1329 West Floyd Baker Boulevard,SC,29341
Big Lots,Beckley,1263,1263 #001263 #01263 #1263 01263,51 Raleigh Mall,WV,25801
Big Lots,Albany,1264,1264 #001264 #01264 #1264 01264,1892 Central Avenue,NY,12205
Big Lots,Springfield,1265,1265 #001265 #01265 #1265 01265,390 Cooley Street,MA,1128
Big Lots,Pittsburg,1266,1266 #001266 #01266 #1266 01266,2804 North Broadway Street,KS,66762
Big Lots,Torrington,1267,1267 #001267 #01267 #1267 01267,1931 East Main Street,CT,6790
Big Lots,Amsterdam,1270,1270 #001270 #01270 #1270 01270,4879 State Highway 30,NY,12010
Big Lots,West Bridgewater,1272,1272 #001272 #01272 #1272 01272,828 North Main Street,MA,2379
Big Lots,Union City,1274,1274 #001274 #01274 #1274 01274,1418 South First Street,TN,38261
Big Lots,Plover,1277,1277 #001277 #01277 #1277 01277,1901 Post Road,WI,54467
Big Lots,Durham,1280,1280 #001280 #01280 #1280 01280,2000 Avondale Drive,NC,27704
Big Lots,Utica,1283,1283 #001283 #01283 #1283 01283,350 Leland Avenue,NY,13502
Big Lots,Cleburne,1286,1286 #001286 #01286 #1286 01286,1615 West Henderson Road,TX,76033
Big Lots,Greensburg,1288,1288 #001288 #01288 #1288 01288,6041 Route 30 Suite 200,PA,15601
Big Lots,Burlington,1289,1289 #001289 #01289 #1289 01289,3320 Agency Street,IA,52601
Big Lots,District Heights,1291,1291 #001291 #01291 #1291 01291,6419 Marlboro Pike,MD,20747
Big Lots,Enterprise,1292,1292 #001292 #01292 #1292 01292,630 Boll Wevil Circle,AL,36330
Big Lots,Fort Payne,1293,1293 #001293 #01293 #1293 01293,110 Dekalb Plaza Boulevard Southwest,AL,35967
Big Lots,Greenville,1294,1294 #001294 #01294 #1294 01294,2600 Anderson Road,SC,29611
Big Lots,Mount Airy,1296,1296 #001296 #01296 #1296 01296,1328 Carter Street,NC,27030
Big Lots,Statesboro,1297,1297 #001297 #01297 #1297 01297,Highway 80 And Lester Street,GA,30458
Big Lots,Danville,1298,1298 #001298 #01298 #1298 01298,1714 Perryville Road,KY,40422
Big Lots,Clarksville,1310,1310 #001310 #01310 #1310 01310,706 B Lewis & Clark Parkway,IN,47129
Big Lots,Louisville,1311,1311 #001311 #01311 #1311 01311,3938 Taylorsville Road,KY,40220
Big Lots,Saint Louis,1314,1314 #001314 #01314 #1314 01314,4433 Lemay Ferry Road,MO,63129
Big Lots,Memphis,1349,1349 #001349 #01349 #1349 01349,7950 Giacosa Place,TN,38133
Big Lots,Yorktown,1361,1361 #001361 #01361 #1361 01361,4318 George Washington Memorial Hwy,VA,23692
Big Lots,Tulsa,1362,1362 #001362 #01362 #1362 01362,8939 South Memorial,OK,74133
Big Lots,Tustin,1363,1363 #001363 #01363 #1363 01363,13852 Red Hill Avenue,CA,92780
Big Lots,Folsom,1364,1364 #001364 #01364 #1364 01364,9523 Greenback Lane,CA,95630
Big Lots,Franklin,1365,1365 #001365 #01365 #1365 01365,273 Franklin Plaza Drive,NC,28734
Big Lots,Jacksonville,1366,1366 #001366 #01366 #1366 01366,9119 Merrill Road #45,FL,32225
Big Lots,Ruskin,1369,1369 #001369 #01369 #1369 01369,3048 East College Avenue,FL,33570
Big Lots,Washington,1370,1370 #001370 #01370 #1370 01370,1060 Washington Square,MO,63090
Big Lots,Vidalia,1371,1371 #001371 #01371 #1371 01371,2305 East First Street,GA,30474
Big Lots,Clemmons,1372,1372 #001372 #01372 #1372 01372,100 Westwood Village Drive,NC,27012
Big Lots,Orange Park,1373,1373 #001373 #01373 #1373 01373,700-1 South Blanding Blvd,FL,32065
Big Lots,Bridgeton,1374,1374 #001374 #01374 #1374 01374,44b Cornwell Drive,NJ,8302
Big Lots,Brooksville,1375,1375 #001375 #01375 #1375 01375,20050 Cortez Blvd,FL,34601
Big Lots,Lewisburg,1376,1376 #001376 #01376 #1376 01376,7405 West Branch Highway,PA,17837
Big Lots,Middletown,1377,1377 #001377 #01377 #1377 01377,400 Route 211 East,NY,10940
Big Lots,Columbus,1379,1379 #001379 #01379 #1379 01379,1245 Polaris Parkway,OH,43240
Big Lots,Bethlehem,1380,1380 #001380 #01380 #1380 01380,2192 West Union Blvd.,PA,18018
Big Lots,Harrison,1381,1381 #001381 #01381 #1381 01381,613 North Highway,AR,72601
Big Lots,Cornelia,1382,1382 #001382 #01382 #1382 01382,323 Habersham Village Circle,GA,30531
Big Lots,Lenoir City,1383,1383 #001383 #01383 #1383 01383,"455 Hwy 321 North, Suite N",TN,37771
Big Lots,Fort Walton Beach,1384,1384 #001384 #01384 #1384 01384,111-A Racetrack Road,FL,32547
Big Lots,Laurinburg,1385,1385 #001385 #01385 #1385 01385,1664-BS. Main St.,NC,28352
Big Lots,Chalmette,1386,1386 #001386 #01386 #1386 01386,8700 Judge Perez Dr.,LA,70043
Big Lots,Collierville,1387,1387 #001387 #01387 #1387 01387,952 W. Poplar Ave.,TN,38017
Big Lots,Philadelphia,1388,1388 #001388 #01388 #1388 01388,15501 Bustleton Ave.,PA,19116
Big Lots,North Myrtle Beach,1389,1389 #001389 #01389 #1389 01389,"710 HWY 17 South, Suite B",SC,29582
Big Lots,Waldorf,1390,1390 #001390 #01390 #1390 01390,1200 Smallwood Dr. W.,MD,20603
Big Lots,Raynham Center,1391,1391 #001391 #01391 #1391 01391,59 New State Highway,MA,2767
Big Lots,Hanover,1392,1392 #001392 #01392 #1392 01392,1150 Carlisle St,PA,17331
Big Lots,Lancaster,1393,1393 #001393 #01393 #1393 01393,1262 Millersville Pike,PA,17603
Big Lots,Boynton Beach,1394,1394 #001394 #01394 #1394 01394,901 N. Congress Ave.,FL,33426
Big Lots,Putnam,1395,1395 #001395 #01395 #1395 01395,40 Providence Pike Suite A,CT,6260
Big Lots,Wappingers Falls,1396,1396 #001396 #01396 #1396 01396,1574 Route 9 Suite 5,NY,12590
Big Lots,West Palm Beach,1397,1397 #001397 #01397 #1397 01397,1930 North Military Trail,FL,33409
Big Lots,Attleboro,1398,1398 #001398 #01398 #1398 01398,217 S. Main Street,MA,2703
Big Lots,Saginaw,1399,1399 #001399 #01399 #1399 01399,2580 Tittabawassee Rd.,MI,48604
Big Lots,Milford,1400,1400 #001400 #01400 #1400 01400,631 North Dupont Highway,DE,19963
Big Lots,Decatur,1401,1401 #001401 #01401 #1401 01401,1820 6th Avenue Southeast,AL,35601
Big Lots,Wichita Falls,1402,1402 #001402 #01402 #1402 01402,3923 Kell Boulevard,TX,76308
Big Lots,Wilmington,1403,1403 #001403 #01403 #1403 01403,7316 North Market Street,NC,28405
Big Lots,Dunkirk,1404,1404 #001404 #01404 #1404 01404,1170 Central Avenue,NY,14048
Big Lots,Belton,1405,1405 #001405 #01405 #1405 01405,124 Cedar Tree Square,MO,64012
Big Lots,Elkhart,1408,1408 #001408 #01408 #1408 01408,138-11 West Hively Avenue,IN,46517
Big Lots,Richmond,1411,1411 #001411 #01411 #1411 01411,8151 Brook Road,VA,23227
Big Lots,Winston Salem,1412,1412 #001412 #01412 #1412 01412,1233 Silas Creek Parkway,NC,27127
Big Lots,Camp Hill,1413,1413 #001413 #01413 #1413 01413,3437 Simpson Ferry Road,PA,17011
Big Lots,Waynesboro,1417,1417 #001417 #01417 #1417 01417,2713 D West Main Street,VA,22980
Big Lots,Phillipsburg,1420,1420 #001420 #01420 #1420 01420,755 Memorial Parkway,NJ,8865
Big Lots,Zanesville,1421,1421 #001421 #01421 #1421 01421,3293 Maple Avenue,OH,43701
Big Lots,Snellville,1422,1422 #001422 #01422 #1422 01422,2278 Main Street East,GA,30078
Big Lots,Swansea,1423,1423 #001423 #01423 #1423 01423,207 Swansea Mall Drive,MA,2777
Big Lots,Southgate,1425,1425 #001425 #01425 #1425 01425,14155 Eureka Road,MI,48195
Big Lots,Indiana,1426,1426 #001426 #01426 #1426 01426,2444 Philadelphia Street,PA,15701
Big Lots,Bartlesville,1428,1428 #001428 #01428 #1428 01428,3001 East Frank Boulevard,OK,74006
Big Lots,Athens,1429,1429 #001429 #01429 #1429 01429,3190 Atlanta Highway,GA,30606
Big Lots,Savannah,1430,1430 #001430 #01430 #1430 01430,1900 East Victory Drive,GA,31404
Big Lots,Midland,1433,1433 #001433 #01433 #1433 01433,4715 Billingsley Boulevard #c,TX,79705
Big Lots,Milford,1435,1435 #001435 #01435 #1435 01435,146 South Main Street,MA,1757
Big Lots,Amarillo,1436,1436 #001436 #01436 #1436 01436,3510 Interstate 40 East,TX,79103
Big Lots,Derry,1446,1446 #001446 #01446 #1446 01446,55 Crystal Avenue,NH,3038
Big Lots,Lincolnton,1447,1447 #001447 #01447 #1447 01447,1555 North Aspen Street,NC,28092
Big Lots,Allentown,1448,1448 #001448 #01448 #1448 01448,2349 Lehigh Street,PA,18103
Big Lots,Newark,1449,1449 #001449 #01449 #1449 01449,311 Deo Drive,OH,43055
Big Lots,Houston,1450,1450 #001450 #01450 #1450 01450,6138 Highway 6 North,TX,77084
Big Lots,San Antonio,1451,1451 #001451 #01451 #1451 01451,3715 Colony Drive,TX,78230
Big Lots,Wyoming,1452,1452 #001452 #01452 #1452 01452,958 28th Street SW,MI,49509
Big Lots,Asheville,1460,1460 #001460 #01460 #1460 01460,85 Tunnel Road,NC,28805
Big Lots,Columbus,1461,1461 #001461 #01461 #1461 01461,5300 Sidney-simons Boulevard,GA,31904
Big Lots,Mckinney,1462,1462 #001462 #01462 #1462 01462,105 South Central Expressway,TX,75070
Big Lots,Greenville,1464,1464 #001464 #01464 #1464 01464,100 Hadley Road,PA,16125
Big Lots,Boardman,1466,1466 #001466 #01466 #1466 01466,7100 South Avenue,OH,44512
Big Lots,Apopka,1468,1468 #001468 #01468 #1468 01468,775 South Orange Blossom Trail,FL,32703
Big Lots,Taylor,1469,1469 #001469 #01469 #1469 01469,7010 Monroe Boulevard,MI,48180
Big Lots,Portsmouth,1470,1470 #001470 #01470 #1470 01470,2454 Lafayette Road,NH,3801
Big Lots,Auburn,1471,1471 #001471 #01471 #1471 01471,360 Grant Avenue,NY,13021
Big Lots,Rome,1473,1473 #001473 #01473 #1473 01473,2204 Shorter Avenue,GA,30165
Big Lots,Henrietta,1474,1474 #001474 #01474 #1474 01474,1100 Jefferson Road,NY,14623
Big Lots,Grand Rapids,1477,1477 #001477 #01477 #1477 01477,3464 Plainfield Avenue Northeast,MI,49525
Big Lots,Pittsburgh,1478,1478 #001478 #01478 #1478 01478,11628 Penn Hills Drive,PA,15235
Big Lots,London,1483,1483 #001483 #01483 #1483 01483,845 South Main Street,KY,40741
Big Lots,Amarillo,1484,1484 #001484 #01484 #1484 01484,3415 Bell Street,TX,79109
Big Lots,Lewisville,1487,1487 #001487 #01487 #1487 01487,1374 West Main Street,TX,75067
Big Lots,Midwest City,1488,1488 #001488 #01488 #1488 01488,160 North Airport Depot Boulevard,OK,73110
Big Lots,Wallingford,1489,1489 #001489 #01489 #1489 01489,968 North Colony Road,CT,6492
Big Lots,Davenport,1490,1490 #001490 #01490 #1490 01490,3562 North Brady Street,IA,52806
Big Lots,Monroe,1491,1491 #001491 #01491 #1491 01491,1209 West Spring Street,GA,30655
Big Lots,Northampton,1493,1493 #001493 #01493 #1493 01493,178 North King Street,MA,1060
Big Lots,Jasper,1494,1494 #001494 #01494 #1494 01494,1100 Highway 78 West,AL,35501
Big Lots,Mount Sterling,1495,1495 #001495 #01495 #1495 01495,1342 Indian Mound Drive,KY,40353
Big Lots,Parma Heights,1496,1496 #001496 #01496 #1496 01496,6282 Pearl Road,OH,44130
Big Lots,Kennesaw,1497,1497 #001497 #01497 #1497 01497,4200 Wade Green Road NW,GA,30144
Big Lots,Summerville,1498,1498 #001498 #01498 #1498 01498,10055-A Dorchester Road,SC,29485
Big Lots,Charlottesville,1499,1499 #001499 #01499 #1499 01499,260 Zan Road,VA,22901
Big Lots,Zephyrhills,1501,1501 #001501 #01501 #1501 01501,4840 Allen Road,FL,33541
Big Lots,Gallipolis,1505,1505 #001505 #01505 #1505 01505,400 Silver Bridge Plaza,OH,45631
Big Lots,Brunswick,1507,1507 #001507 #01507 #1507 01507,4420 Altama Avenue Suite C2,GA,31520
Big Lots,Lexington,1511,1511 #001511 #01511 #1511 01511,820 Lane Allen Road,KY,40504
Big Lots,Rochester,1512,1512 #001512 #01512 #1512 01512,1607 Highway 14 East,MN,55904
Big Lots,Goffstown,1513,1513 #001513 #01513 #1513 01513,533 Mast Road,NH,3045
Big Lots,Muncy,1514,1514 #001514 #01514 #1514 01514,809 Lycoming Mall Road,PA,17756
Big Lots,Ferguson,1515,1515 #001515 #01515 #1515 01515,10803 West Florissant Avenue,MO,63135
Big Lots,Weslaco,1516,1516 #001516 #01516 #1516 01516,1025 North Texas Boulevard Suite #1,TX,78596
Big Lots,Lynn,1517,1517 #001517 #01517 #1517 01517,126 Boston Street,MA,1904
Big Lots,Hallandale,1519,1519 #001519 #01519 #1519 01519,1761 East Hallandale Beach,FL,33009
Big Lots,West Seneca,1520,1520 #001520 #01520 #1520 01520,1980 Ridge Road,NY,14224
Big Lots,Concord,1521,1521 #001521 #01521 #1521 01521,280 Highway 29 South,NC,28027
Big Lots,Laurel,1524,1524 #001524 #01524 #1524 01524,1910 Highway 15 North,MS,39443
Big Lots,Saint Cloud,1527,1527 #001527 #01527 #1527 01527,3320 West Division Street,MN,56301
Big Lots,Auburn,1528,1528 #001528 #01528 #1528 01528,730 Center Street,ME,4240
Big Lots,East Stroudsburg,1529,1529 #001529 #01529 #1529 01529,156 Eagles Glen Plz.,PA,18301
Big Lots,Madison,1531,1531 #001531 #01531 #1531 01531,180 Madison Square Drive,KY,42431
Big Lots,Toledo,1532,1532 #001532 #01532 #1532 01532,4925 Jackman Road,OH,43613
Big Lots,East Peoria,1534,1534 #001534 #01534 #1534 01534,2500 East Washington Street,IL,61611
Big Lots,Rolla,1535,1535 #001535 #01535 #1535 01535,1001 South Bishop Avenue,MO,65401
Big Lots,Gastonia,1536,1536 #001536 #01536 #1536 01536,2587 West Franklin Boulevard,NC,28052
Big Lots,Webb City,1537,1537 #001537 #01537 #1537 01537,1899 South Madison Street,MO,64870
Big Lots,Plant City,1539,1539 #001539 #01539 #1539 01539,1427 S. Collins Street,FL,33563
Big Lots,Sandy Springs,1542,1542 #001542 #01542 #1542 01542,7300 Roswell Road Northeast,GA,30328
Big Lots,Round Lake Beach,1543,1543 #001543 #01543 #1543 01543,400 West Rollins Road,IL,60073
Big Lots,McAllen,1544,1544 #001544 #01544 #1544 01544,1801 South 10th Street,TX,78501
Big Lots,Fort Myers,1545,1545 #001545 #01545 #1545 01545,4429 Cleveland Avenue,FL,33901
Big Lots,Fort Smith,1546,1546 #001546 #01546 #1546 01546,4900 Rogers Avenue,AR,72903
Big Lots,Tallahassee,1548,1548 #001548 #01548 #1548 01548,2990 Apalachee Parkway,FL,32301
Big Lots,Elyria,1550,1550 #001550 #01550 #1550 01550,1020 East Broad Street,OH,44035
Big Lots,Aurora,1553,1553 #001553 #01553 #1553 01553,1971-B Galena Boulevard,IL,60506
Big Lots,Port Orange,1555,1555 #001555 #01555 #1555 01555,3830 South Nova Road,FL,32127
Big Lots,Dover,1561,1561 #001561 #01561 #1561 01561,1005 North State Street,DE,19901
Big Lots,Victoria,1562,1562 #001562 #01562 #1562 01562,8402 North Navarro,TX,77904
Big Lots,Belle Vernon,1570,1570 #001570 #01570 #1570 01570,142 Finley Road,PA,15012
Big Lots,Danvers,1571,1571 #001571 #01571 #1571 01571,10-a Newbury Street,MA,1923
Big Lots,Hamilton Square,1580,1580 #001580 #01580 #1580 01580,630 Route 33,NJ,8619
Big Lots,Salisbury,1581,1581 #001581 #01581 #1581 01581,404 North Fruitland Boulevard,MD,21801
Big Lots,Indianapolis,1582,1582 #001582 #01582 #1582 01582,6225 Allisonville Road,IN,46220
Big Lots,Lexington Park,1585,1585 #001585 #01585 #1585 01585,21800 North Shangri La Drive Unit 20,MD,20653
Big Lots,Nashua,1586,1586 #001586 #01586 #1586 01586,12 Northwest Boulevard,NH,3063
Big Lots,Lancaster,1588,1588 #001588 #01588 #1588 01588,1128 Highway 9 Bypass,SC,29720
Big Lots,Millington,1589,1589 #001589 #01589 #1589 01589,8055 US Highway 51 North,TN,38053
Big Lots,Savannah,1590,1590 #001590 #01590 #1590 01590,13051 Abercoren Road,GA,31419
Big Lots,Searcy,1591,1591 #001591 #01591 #1591 01591,103 North Poplar Street,AR,72143
Big Lots,Dundalk,1595,1595 #001595 #01595 #1595 01595,1400 Merritt Boulevard,MD,21222
Big Lots,Bismarck,1596,1596 #001596 #01596 #1596 01596,1026 East Bismarck Expressway,ND,58504
Big Lots,Buffalo,1597,1597 #001597 #01597 #1597 01597,2276 Delaware Avenue,NY,14216
Big Lots,Arlington,1598,1598 #001598 #01598 #1598 01598,715 West Lamar,TX,76012
Big Lots,San Antonio,1599,1599 #001599 #01599 #1599 01599,13914 Nacogdoches,TX,78217
Big Lots,Homewood,1600,1600 #001600 #01600 #1600 01600,3055 183rd Street,IL,60430
Big Lots,Flint,1601,1601 #001601 #01601 #1601 01601,G-5112 Miller Road,MI,48507
Big Lots,East Hartford,1603,1603 #001603 #01603 #1603 01603,940 Silver Lane Suite D1,CT,6118
Big Lots,Laredo,1604,1604 #001604 #01604 #1604 01604,2310 East Saunders,TX,78041
Big Lots,Methuen,1606,1606 #001606 #01606 #1606 01606,40 Jackson Street,MA,1844
Big Lots,Poughkeepsie,1607,1607 #001607 #01607 #1607 01607,43 Burnett Boulevard,NY,12603
Big Lots,Glen Burnie,1608,1608 #001608 #01608 #1608 01608,344 Hospital Drive,MD,21061
Big Lots,Washington,1609,1609 #001609 #01609 #1609 01609,254 Oak Spring Road,PA,15301
Big Lots,Miami Lakes,1612,1612 #001612 #01612 #1612 01612,5580 Northwest 167th Street,FL,33015
Big Lots,Cincinnati,1615,1615 #001615 #01615 #1615 01615,5375 Ridge Road,OH,45213
Big Lots,Griffin,1617,1617 #001617 #01617 #1617 01617,1659 North Expressway,GA,30223
Big Lots,Jackson,1620,1620 #001620 #01620 #1620 01620,103 Old Hickory Boulevard,TN,38305
Big Lots,Waynesville,1621,1621 #001621 #01621 #1621 01621,1176 Russ Avenue,NC,28786
Big Lots,Canton,1622,1622 #001622 #01622 #1622 01622,1336 Whipple Avenue Northwest,OH,44708
Big Lots,Shawnee,1623,1623 #001623 #01623 #1623 01623,7408 Nieman Road,KS,66214
Big Lots,Carrollton,1624,1624 #001624 #01624 #1624 01624,3621 North Josey Lane,TX,75007
Big Lots,Galveston,1625,1625 #001625 #01625 #1625 01625,5910 Broadway,TX,77551
Big Lots,Plantation,1628,1628 #001628 #01628 #1628 01628,7067-b West Broward Boulevard,FL,33317
Big Lots,Tonawanda,1629,1629 #001629 #01629 #1629 01629,750 Young Street,NY,14150
Big Lots,Elmira,1631,1631 #001631 #01631 #1631 01631,801 Lake Avenue,NY,14901
Big Lots,Logansport,1633,1633 #001633 #01633 #1633 01633,2525 East Market Street,IN,46947
Big Lots,Pittsfield,1635,1635 #001635 #01635 #1635 01635,11 Cheshire Road,MA,1201
Big Lots,Pontiac,1636,1636 #001636 #01636 #1636 01636,300 North Telegraph Road,MI,48341
Big Lots,Kennett Square,1638,1638 #001638 #01638 #1638 01638,345 Scarlet Road Suite 22,PA,19348
Big Lots,Frackville,1640,1640 #001640 #01640 #1640 01640,940 Schuylkill Mall,PA,17931
Big Lots,Matthews,1643,1643 #001643 #01643 #1643 01643,10416 East Independence Boulevard,NC,28105
Big Lots,Alpena,1644,1644 #001644 #01644 #1644 01644,2680 US Highway 23 South,MI,49707
Big Lots,Southhaven,1648,1648 #001648 #01648 #1648 01648,875 Stateline Road,MS,38671
Big Lots,Land O'Lakes,1649,1649 #001649 #01649 #1649 01649,2414 Land O'Lakes Boulevard,FL,34639
Big Lots,Allen,1650,1650 #001650 #01650 #1650 01650,117 North Greenville Avenue,TX,75002
Big Lots,Pascagoula,1656,1656 #001656 #01656 #1656 01656,4201 Denny Avenue,MS,39581
Big Lots,Smyrna,1657,1657 #001657 #01657 #1657 01657,299 North Lowry Street,TN,37167
Big Lots,Sheboygan,1659,1659 #001659 #01659 #1659 01659,3426 Kohler Memorial Drive,WI,53081
Big Lots,Newington,1660,1660 #001660 #01660 #1660 01660,3105 Berlin Turnpike,CT,6111
Big Lots,Egg Harbor Township,1661,1661 #001661 #01661 #1661 01661,6718 Black Horse Pike,NJ,8234
Big Lots,Katy,1662,1662 #001662 #01662 #1662 01662,923 South Mason Road,TX,77450
Big Lots,Pearland,1663,1663 #001663 #01663 #1663 01663,2028 North Main Street,TX,77581
Big Lots,Brownwood,1664,1664 #001664 #01664 #1664 01664,315-b East Commerce,TX,76801
Big Lots,Dublin,1666,1666 #001666 #01666 #1666 01666,6569 Sawmill Road,OH,43017
Big Lots,Delaware,1667,1667 #001667 #01667 #1667 01667,2081 Route 23 North,OH,43015
Big Lots,Westerville,1668,1668 #001668 #01668 #1668 01668,60 E. Schrock Road,OH,43081
Big Lots,Dayton,1671,1671 #001671 #01671 #1671 01671,359 Miami/centerville Road,OH,45459
Big Lots,Anderson,1672,1672 #001672 #01672 #1672 01672,2140 South Scatterfield Road,IN,46016
Big Lots,Springfield,1674,1674 #001674 #01674 #1674 01674,303-j Battlefield Road,MO,65804
Big Lots,Danville,1675,1675 #001675 #01675 #1675 01675,211 Nordan Drive,VA,24540
Big Lots,Ocean Springs,1676,1676 #001676 #01676 #1676 01676,2648 Bienville Road,MS,39564
Big Lots,Orlando,1678,1678 #001678 #01678 #1678 01678,11230 South Orange Blossom Trail,FL,32837
Big Lots,Salem,1680,1680 #001680 #01680 #1680 01680,1227 West Main Street,VA,24153
Big Lots,Muncie,1681,1681 #001681 #01681 #1681 01681,1795 West Mcgalliard Road Unit 2,IN,47304
Big Lots,Owasso,1682,1682 #001682 #01682 #1682 01682,8787 Owasso Expressway Unit F,OK,74055
Big Lots,Boone,1684,1684 #001684 #01684 #1684 01684,223 New Market Boulevard,NC,28607
Big Lots,Quincy,1685,1685 #001685 #01685 #1685 01685,3812 Broadway Street,IL,62305
Big Lots,Louisville,1686,1686 #001686 #01686 #1686 01686,6201 Preston Highway,KY,40219
Big Lots,Statesville,1690,1690 #001690 #01690 #1690 01690,1020 Crossroads Drive,NC,28677
Big Lots,Coldwater,1691,1691 #001691 #01691 #1691 01691,373 North Willowbrook Road,MI,49036
Big Lots,Sumter,1692,1692 #001692 #01692 #1692 01692,1121 Broad Street,SC,29150
Big Lots,Brunswick,1694,1694 #001694 #01694 #1694 01694,8 Gurnet Road Unit 6,ME,4011
Big Lots,Norman,1696,1696 #001696 #01696 #1696 01696,2211 West Main Street,OK,73069
Big Lots,Trotwood,1697,1697 #001697 #01697 #1697 01697,5009 Salem Avenue,OH,45426
Big Lots,Brunswick,1699,1699 #001699 #01699 #1699 01699,1733 Pearl Road,OH,44212
Big Lots,Gonzales,1701,1701 #001701 #01701 #1701 01701,120 Airline Highway,LA,70737
Big Lots,Kinston,1703,1703 #001703 #01703 #1703 01703,2407 East North Heritage Street,NC,28501
Big Lots,Sterling,1704,1704 #001704 #01704 #1704 01704,300 Enterprise Street,VA,20164
Big Lots,Milton,1705,1705 #001705 #01705 #1705 01705,6247 Highway 90,FL,32583
Big Lots,Union City,1706,1706 #001706 #01706 #1706 01706,6851 Shannon Parkway,GA,30291
Big Lots,Calcutta,1707,1707 #001707 #01707 #1707 01707,15977 State Route 170,OH,43920
Big Lots,Sault Saint Marie,1708,1708 #001708 #01708 #1708 01708,33961 I-75 Business Spur,MI,49783
Big Lots,Meridian,1710,1710 #001710 #01710 #1710 01710,832 Highway 19 North Suite 580,MS,39307
Big Lots,Norristown,1713,1713 #001713 #01713 #1713 01713,2644 Dekalb Pike,PA,19401
Big Lots,Eldersburg,1714,1714 #001714 #01714 #1714 01714,6400 Ridge Road Suite 104,MD,21784
Big Lots,Roanoke,1715,1715 #001715 #01715 #1715 01715,2911 Hershberger Road,VA,24017
Big Lots,Chillicothe,1718,1718 #001718 #01718 #1718 01718,985 North Bridge Street,OH,45601
Big Lots,Big Rapids,1719,1719 #001719 #01719 #1719 01719,750 Perry Street,MI,49307
Big Lots,Huntington,1721,1721 #001721 #01721 #1721 01721,2080 North Jefferson Street,IN,46750
Big Lots,Little Rock,1722,1722 #001722 #01722 #1722 01722,5820 Asher Avenue,AR,72204
Big Lots,Temple,1723,1723 #001723 #01723 #1723 01723,2603 Thornton Lane,TX,76502
Big Lots,Clearfield,1725,1725 #001725 #01725 #1725 01725,130 Plaza Drive,PA,16830
Big Lots,Dunn,1726,1726 #001726 #01726 #1726 01726,1140 West Broad Street,NC,28334
Big Lots,High Point,1727,1727 #001727 #01727 #1727 01727,2531 Eastchester Drive,NC,27265
Big Lots,Fort Wayne,1728,1728 #001728 #01728 #1728 01728,3958 Illinois Road,IN,46804
Big Lots,Terre Haute,1729,1729 #001729 #01729 #1729 01729,4650 Dixie Bee Road,IN,47802
Big Lots,Des Moines,1732,1732 #001732 #01732 #1732 01732,4365 Merle Hay Road,IA,50310
Big Lots,Tiffin,1734,1734 #001734 #01734 #1734 01734,644 West Market Street,OH,44883
Big Lots,Wilkes-barre,1737,1737 #001737 #01737 #1737 01737,Route 309 Kidder Street Space 9,PA,18702
Big Lots,Bristol,1738,1738 #001738 #01738 #1738 01738,1235 Farmington Avenue,CT,6010
Big Lots,Kittanning,1740,1740 #001740 #01740 #1740 01740,30 Franklin Village,PA,16201
Big Lots,West Hazleton,1741,1741 #001741 #01741 #1741 01741,214-290 Susquehana Boulevard Route 93,PA,18201
Big Lots,Jacksonville Beach,1743,1743 #001743 #01743 #1743 01743,14333 Beach Boulevard Suite 18,FL,32250
Big Lots,West Babylon,1744,1744 #001744 #01744 #1744 01744,501 Montauk Highway,NY,11704
Big Lots,Holland,1746,1746 #001746 #01746 #1746 01746,1588 Spring Meadows Drive,OH,43528
Big Lots,Durham,1747,1747 #001747 #01747 #1747 01747,4723 South Apex Highway,NC,27713
Big Lots,Cary,1748,1748 #001748 #01748 #1748 01748,128 Kilmayne Drive,NC,27511
Big Lots,Austin,1749,1749 #001749 #01749 #1749 01749,8740 Research Boulevard,TX,78757
Big Lots,Louisville,1750,1750 #001750 #01750 #1750 01750,9070 Dixie Highway,KY,40258
Big Lots,Warren,1751,1751 #001751 #01751 #1751 01751,4331 Mahoning Avenue Northwest,OH,44485
Big Lots,Mayfield,1752,1752 #001752 #01752 #1752 01752,1109 Paris Road,KY,42066
Big Lots,Copiague,1753,1753 #001753 #01753 #1753 01753,1255 Sunrise Highway,NY,11726
Big Lots,Reading,1754,1754 #001754 #01754 #1754 01754,3215 North 5th Street Highway,PA,19605
Big Lots,Centereach,1755,1755 #001755 #01755 #1755 01755,231 Middle Country Road,NY,11720
Big Lots,Tampa,1756,1756 #001756 #01756 #1756 01756,3804 South Dale Mabry Road Space C,FL,33611
Big Lots,Hinesville,1757,1757 #001757 #01757 #1757 01757,521 West Oglethorpe Boulevard,GA,31313
Big Lots,Baton Rouge,1758,1758 #001758 #01758 #1758 01758,6900 Siegen Lane Suite A,LA,70809
Big Lots,Austintown,1759,1759 #001759 #01759 #1759 01759,4341 Kirk Road,OH,44515
Big Lots,Evansville,1760,1760 #001760 #01760 #1760 01760,720 South Green River Road,IN,47715
Big Lots,Du Bois,1761,1761 #001761 #01761 #1761 01761,5522 Shaffer Road Suite 7,PA,15801
Big Lots,Buffalo,1762,1762 #001762 #01762 #1762 01762,698 South Ogden Street,NY,14206
Big Lots,Chamblee,1763,1763 #001763 #01763 #1763 01763,3358 Chamblee Tucker Road,GA,30341
Big Lots,Beverly,1765,1765 #001765 #01765 #1765 01765,4355 Route 130,NJ,8010
Big Lots,Palatka,1766,1766 #001766 #01766 #1766 01766,109 North Highway 19,FL,32177
Big Lots,Niagara Falls,1769,1769 #001769 #01769 #1769 01769,2429 Military Road,NY,14304
Big Lots,Jacksonville,1773,1773 #001773 #01773 #1773 01773,1309 TP White Drive,AR,72076
Big Lots,Oklahoma City,1774,1774 #001774 #01774 #1774 01774,3000 Northwest 63rd Street And May Avenue,OK,73112
Big Lots,North Cape May,1775,1775 #001775 #01775 #1775 01775,3845 Bayshore Road,NJ,8204
Big Lots,Fairhope,1776,1776 #001776 #01776 #1776 01776,150 Eastern Shore Shopping Center,AL,36532
Big Lots,Granbury,1777,1777 #001777 #01777 #1777 01777,1820 Acton Highway,TX,76049
Big Lots,Macon,1778,1778 #001778 #01778 #1778 01778,3755 Bloomfield Road,GA,31204
Big Lots,Henrico,1780,1780 #001780 #01780 #1780 01780,8028 West Broad Street,VA,23294
Big Lots,Conway,1781,1781 #001781 #01781 #1781 01781,1641 Church Street,SC,29527
Big Lots,Marquette,1782,1782 #001782 #01782 #1782 01782,2025 South Highway 41 West,MI,49855
Big Lots,Derby,1783,1783 #001783 #01783 #1783 01783,600 New Haven Avenue,CT,6418
Big Lots,Peoria,1784,1784 #001784 #01784 #1784 01784,8901 North Knoxville Avenue,IL,61615
Big Lots,The Woodlands,1785,1785 #001785 #01785 #1785 01785,425 Sawdust Road,TX,77380
Big Lots,Woodstock,1786,1786 #001786 #01786 #1786 01786,8811 Highway 92 Suite 110,GA,30189
Big Lots,Waynesburg,1787,1787 #001787 #01787 #1787 01787,110 Greene Plaza,PA,15370
Big Lots,Chambersburg,1788,1788 #001788 #01788 #1788 01788,184 Southgate Mall,PA,17201
Big Lots,Carle Place,1789,1789 #001789 #01789 #1789 01789,260 Voice Road,NY,11514
Big Lots,Saint Louis Park,1791,1791 #001791 #01791 #1791 01791,8950 Highway 7,MN,55426
Big Lots,Rutland,1793,1793 #001793 #01793 #1793 01793,303 US Route 4 East,VT,5701
Big Lots,Cortland,1794,1794 #001794 #01794 #1794 01794,3568 Route 281,NY,13045
Big Lots,Wichita,1795,1795 #001795 #01795 #1795 01795,4165 East Harry Street,KS,67218
Big Lots,Sarasota,1796,1796 #001796 #01796 #1796 01796,3750 Bee Ridge Road,FL,34233
Big Lots,Springfield,1797,1797 #001797 #01797 #1797 01797,2008 Memorial Boulevard,TN,37172
Big Lots,Dublin,1798,1798 #001798 #01798 #1798 01798,1941 Veterans Boulevard,GA,31021
Big Lots,Hoover,1799,1799 #001799 #01799 #1799 01799,1855 Montgomery Highway,AL,35244
Big Lots,Appleton,1800,1800 #001800 #01800 #1800 01800,2700 West College Avenue Suite 22,WI,54914
Big Lots,Naples,1801,1801 #001801 #01801 #1801 01801,2882 East Tamiami Trail,FL,34112
Big Lots,Gardner,1802,1802 #001802 #01802 #1802 01802,344 Timpany Trail,MA,1440
Big Lots,Asheboro,1805,1805 #001805 #01805 #1805 01805,1432 East Dixie Drive,NC,27203
Big Lots,Greensboro,1806,1806 #001806 #01806 #1806 01806,3718 Battleground Avenue,NC,27410
Big Lots,Durant,1807,1807 #001807 #01807 #1807 01807,2418 West Main Street,OK,74701
Big Lots,Greenville,1808,1808 #001808 #01808 #1808 01808,2131 Woodruff Road,SC,29607
Big Lots,Aston,1809,1809 #001809 #01809 #1809 01809,3472 Concord Road,PA,19014
Big Lots,Calumet City,1810,1810 #001810 #01810 #1810 01810,1699 River Oaks Drive,IL,60409
Big Lots,Farmington Hills,1811,1811 #001811 #01811 #1811 01811,31550 Grand River Avenue,MI,48336
Big Lots,Wichita,1812,1812 #001812 #01812 #1812 01812,6222 East 21st,KS,67208
Big Lots,Lebanon,1813,1813 #001813 #01813 #1813 01813,1031 West Main Street,TN,37087
Big Lots,Westland,1814,1814 #001814 #01814 #1814 01814,35507 Ford Road,MI,48185
Big Lots,Ocala,1815,1815 #001815 #01815 #1815 01815,8602 SW HIGHWAY 200,FL,34481
Big Lots,Warner Robins,1816,1816 #001816 #01816 #1816 01816,2191 Watson Boulevard,GA,31088
Big Lots,Cincinnati,1817,1817 #001817 #01817 #1817 01817,11372 Princeton Pike,OH,45246
Big Lots,Thibodaux,1820,1820 #001820 #01820 #1820 01820,404 North Canal Boulevard,LA,70301
Big Lots,Rocky Mount,1821,1821 #001821 #01821 #1821 01821,955 North Wesleyan,NC,27804
Big Lots,Austin,1822,1822 #001822 #01822 #1822 01822,7101 Highway 71 Suite D 1,TX,78736
Big Lots,Shelby Township,1823,1823 #001823 #01823 #1823 01823,7651 23 Mile Road,MI,48316
Big Lots,Spring Hill,1826,1826 #001826 #01826 #1826 01826,2384 Commercial Way,FL,34606
Big Lots,Cocoa,1827,1827 #001827 #01827 #1827 01827,801 Dixon Boulevard,FL,32922
Big Lots,Greensboro,1829,1829 #001829 #01829 #1829 01829,4209 High Point Road,NC,27407
Big Lots,Aliquippa,1830,1830 #001830 #01830 #1830 01830,3113 Green Garden Road,PA,15001
Big Lots,Laplace,1831,1831 #001831 #01831 #1831 01831,250 West Airline Highway,LA,70068
Big Lots,San Antonio,1832,1832 #001832 #01832 #1832 01832,7723 Guilbeau Road,TX,78250
Big Lots,Madison,1833,1833 #001833 #01833 #1833 01833,1142 Gallatin Pike South,TN,37115
Big Lots,Vestal,1834,1834 #001834 #01834 #1834 01834,150 Vestal Parkway West,NY,13850
Big Lots,Austin,1835,1835 #001835 #01835 #1835 01835,2506 West Parmer Lane,TX,78727
Big Lots,Covington,1836,1836 #001836 #01836 #1836 01836,1200 Business Highway 190 Suite 6,LA,70433
Big Lots,Troy,1838,1838 #001838 #01838 #1838 01838,120 Hoosick Street,NY,12180
Big Lots,Hamburg,1839,1839 #001839 #01839 #1839 01839,5999 South Park Avenue,NY,14075
Big Lots,Marianna,1840,1840 #001840 #01840 #1840 01840,4700 Highway 90 East,FL,32448
Big Lots,Portsmouth,1841,1841 #001841 #01841 #1841 01841,2550 Airline Boulevard,VA,23701
Big Lots,Campbellsville,1842,1842 #001842 #01842 #1842 01842,400 Campbellsville Bypass,KY,42718
Big Lots,Mentor,1843,1843 #001843 #01843 #1843 01843,8489 Market Street,OH,44060
Big Lots,Albemarle,1844,1844 #001844 #01844 #1844 01844,7201-C NC 24/27 Bypass East,NC,28001
Big Lots,Hermitage,1845,1845 #001845 #01845 #1845 01845,4109 Lebanon Pike,TN,37076
Big Lots,Akron,1846,1846 #001846 #01846 #1846 01846,1890 West Market Street,OH,44313
Big Lots,Oklahoma City,1847,1847 #001847 #01847 #1847 01847,7301 South Pennsylvania Avenue Suite A,OK,73159
Big Lots,Lansdale,1848,1848 #001848 #01848 #1848 01848,648 East Main Street,PA,19446
Big Lots,Fairless Hills,1849,1849 #001849 #01849 #1849 01849,500 Lincoln Highway Route 1,PA,19030
Big Lots,Huntsville,1850,1850 #001850 #01850 #1850 01850,3240 Memorial Parkway Northwest,AL,35810
Big Lots,Olean,1851,1851 #001851 #01851 #1851 01851,502 North Union Street,NY,14760
Big Lots,Clarence,1852,1852 #001852 #01852 #1852 01852,4101 Transit Road,NY,14221
Big Lots,Englewood,1853,1853 #001853 #01853 #1853 01853,1855 Englewood Road,FL,34223
Big Lots,Essex Junction,1854,1854 #001854 #01854 #1854 01854,70-72 Pearl Street,VT,5452
Big Lots,Fairview Park,1856,1856 #001856 #01856 #1856 01856,21201 Center Ridge Road,OH,44116
Big Lots,West Columbia,1857,1857 #001857 #01857 #1857 01857,3230 Augusta Road,SC,29170
Big Lots,Greenville,1858,1858 #001858 #01858 #1858 01858,609 Greenville Boulevard,NC,27858
Big Lots,Round Rock,1859,1859 #001859 #01859 #1859 01859,1201 Highway Interstate 35 Building 200,TX,78664
Big Lots,Gainesville,1860,1860 #001860 #01860 #1860 01860,1104 East Highway 82,TX,76240
Big Lots,Burleson,1861,1861 #001861 #01861 #1861 01861,648 Southwest Wilshire Boulevard,TX,76028
Big Lots,Marshall,1862,1862 #001862 #01862 #1862 01862,109 East End Boulevard,TX,75670
Big Lots,West Springfield,1863,1863 #001863 #01863 #1863 01863,1150 - A Union Street,MA,1089
Big Lots,Kerrville,1864,1864 #001864 #01864 #1864 01864,1305 C Sidney Baker Street,TX,78028
Big Lots,Indianapolis,1866,1866 #001866 #01866 #1866 01866,8401 North Michigan Road,IN,46268
Big Lots,Altoona,1867,1867 #001867 #01867 #1867 01867,415-G Orchard Avenue,PA,16602
Big Lots,West Allis,1868,1868 #001868 #01868 #1868 01868,10909 West Oklahoma,WI,53227
Big Lots,Lansing,1869,1869 #001869 #01869 #1869 01869,5625 West Saginaw Highway Suite 3,MI,48917
Big Lots,Morganton,1870,1870 #001870 #01870 #1870 01870,160 Fiddler Run Boulevard,NC,28655
Big Lots,Gaylord,1871,1871 #001871 #01871 #1871 01871,1401 West Main Street,MI,49735
Big Lots,Dlberville,1873,1873 #001873 #01873 #1873 01873,10541-B Dlberville Boulevard,MS,39540
Big Lots,Camden,1874,1874 #001874 #01874 #1874 01874,2209 West Dekalb Street,SC,29020
Big Lots,Toms River,1875,1875 #001875 #01875 #1875 01875,1214 Route 37,NJ,8753
Big Lots,Tomball,1876,1876 #001876 #01876 #1876 01876,27816 Tomball Parkway,TX,77375
Big Lots,Charleston,1877,1877 #001877 #01877 #1877 01877,118 Hills Plaza,WV,25312
Big Lots,The Colony,1878,1878 #001878 #01878 #1878 01878,5000 Main Street (FM 423),TX,75056
Big Lots,Corpus Christi,1879,1879 #001879 #01879 #1879 01879,4938 South Staples Street,TX,78412
Big Lots,West Mifflin,1880,1880 #001880 #01880 #1880 01880,7005 Clairton Road,PA,15122
Big Lots,Saint Louis,1881,1881 #001881 #01881 #1881 01881,4930 South Kingshighway Boulevard,MO,63116
Big Lots,Hendersonville,1882,1882 #001882 #01882 #1882 01882,202 Thompson Street,NC,28792
Big Lots,Liverpool,1883,1883 #001883 #01883 #1883 01883,8015 Oswego Road,NY,13090
Big Lots,Sugar Land,1886,1886 #001886 #01886 #1886 01886,3410 State Highway 6,TX,77478
Big Lots,Milwaukee,1887,1887 #001887 #01887 #1887 01887,362-a Capitol Drive,WI,53212
Big Lots,Vicksburg,1888,1888 #001888 #01888 #1888 01888,1800 Suite D South Frontage Road,MS,39180
Big Lots,Arlington,1890,1890 #001890 #01890 #1890 01890,5781 Southwest Green Oaks Boulevard,TX,76017
Big Lots,Elizabeth City,1891,1891 #001891 #01891 #1891 01891,685 South Hughes Boulevard,NC,27909
Big Lots,Spindale,1892,1892 #001892 #01892 #1892 01892,1639 United States Highway 74A Bypass,NC,28160
Big Lots,Memphis,1895,1895 #001895 #01895 #1895 01895,6777 Wincester Road,TN,38115
Big Lots,Elk Grove,1896,1896 #001896 #01896 #1896 01896,8539 Elk Grove Boulevard,CA,95624
Big Lots,Laguna Hills,1897,1897 #001897 #01897 #1897 01897,23641 Moulton Parkway,CA,92653
Big Lots,Aberdeen,1899,1899 #001899 #01899 #1899 01899,1371 Sandhills Boulevard North,NC,28315
Big Lots,Bullhead City,1900,1900 #001900 #01900 #1900 01900,2350 Miracle Mile Road,AZ,86442
Big Lots,Roswell,1908,1908 #001908 #01908 #1908 01908,2513 North Main Street,NM,88201
Big Lots,Lakewood,1910,1910 #001910 #01910 #1910 01910,5227 Lakewood Avenue,CA,90712
Big Lots,Glendale,1911,1911 #001911 #01911 #1911 01911,6660 West Cactus Road Suite A 110,AZ,85304
Big Lots,Gilbert,1913,1913 #001913 #01913 #1913 01913,701 North Gilbert Road,AZ,85234
Big Lots,Denver,1914,1914 #001914 #01914 #1914 01914,7475 East Iliff Avenue,CO,80231
Big Lots,Lubbock,1915,1915 #001915 #01915 #1915 01915,5402 4th Street #2,TX,79416
Big Lots,Stockton,1916,1916 #001916 #01916 #1916 01916,2720 Country Club Drive,CA,95204
Big Lots,Santa Clarita,1917,1917 #001917 #01917 #1917 01917,19331 Soledad Canyon Road,CA,91351
Big Lots,Sacramento,1918,1918 #001918 #01918 #1918 01918,8700 La Riviera Drive,CA,95826
Big Lots,Apache Junction,1919,1919 #001919 #01919 #1919 01919,1063 East Apache Trail,AZ,85120
Big Lots,Englewood,1920,1920 #001920 #01920 #1920 01920,139 West Hampden,CO,80110
Big Lots,Meridian,1922,1922 #001922 #01922 #1922 01922,100 East Fairview Avenue,ID,83642
Big Lots,Billings,1923,1923 #001923 #01923 #1923 01923,1515 Main Street,MT,59105
Big Lots,Milwaukie,1925,1925 #001925 #01925 #1925 01925,16074 Southeast McLoughlin Boulevard Suite 8,OR,97267
Big Lots,El Paso,1926,1926 #001926 #01926 #1926 01926,1590 George Dieter,TX,79936
Big Lots,Rio Rancho,1927,1927 #001927 #01927 #1927 01927,1660 Rio Rancho Drive Southeast,NM,87124
Big Lots,Bellingham,1932,1932 #001932 #01932 #1932 01932,1524 Birchwood Avenue,WA,98225
Big Lots,Woodland,1934,1934 #001934 #01934 #1934 01934,52-54 West Court Street,CA,95695
Big Lots,Temecula,1938,1938 #001938 #01938 #1938 01938,27411 Ynez Road,CA,92592
Big Lots,Idaho Falls,1939,1939 #001939 #01939 #1939 01939,1530 East 17th Street,ID,83404
Big Lots,Fresno,1942,1942 #001942 #01942 #1942 01942,3131 West Shaw Avenue,CA,93711
Big Lots,Reedley,1946,1946 #001946 #01946 #1946 01946,1201 East Manning Avenue,CA,93654
Big Lots,Raleigh,1947,1947 #001947 #01947 #1947 01947,6540 Glenwood Avenue,NC,27612
Big Lots,San Antonio,1948,1948 #001948 #01948 #1948 01948,16648 San Pedro Avenue,TX,78232
Big Lots,Garland,1949,1949 #001949 #01949 #1949 01949,3178 Lavon Drive,TX,75040
Big Lots,Clifton,1950,1950 #001950 #01950 #1950 01950,1006 Route 46 West,NJ,7013
Big Lots,Bridgeville,1951,1951 #001951 #01951 #1951 01951,1155 Washington Pike,PA,15017
Big Lots,Spring Lake,1952,1952 #001952 #01952 #1952 01952,1111 North Bragg Boulevard,NC,28390
Big Lots,Terre Haute,1953,1953 #001953 #01953 #1953 01953,1800 Fort Harrison Road,IN,47805
Big Lots,Warwick,1954,1954 #001954 #01954 #1954 01954,2485 Warwick Avenue,RI,2886
Big Lots,Bricktown,1955,1955 #001955 #01955 #1955 01955,135 Van Zile Road,NJ,8724
Big Lots,Trexlertown,1956,1956 #001956 #01956 #1956 01956,7150 Hamilton Boulevard,PA,18087
Big Lots,Hercules,1957,1957 #001957 #01957 #1957 01957,1551 Sycamore Avenue,CA,94547
Big Lots,Elkton,1958,1958 #001958 #01958 #1958 01958,801 East Pulaski Highway Suite 141,MD,21921
Big Lots,Lufkin,1959,1959 #001959 #01959 #1959 01959,809 South Timberland Drive,TX,75901
Big Lots,Monroeville,1960,1960 #001960 #01960 #1960 01960,4047 William Penn Highway,PA,15146
Big Lots,Rock Hill,1961,1961 #001961 #01961 #1961 01961,2349 Cherry Road Suite 79,SC,29732
Big Lots,Anaheim,1962,1962 #001962 #01962 #1962 01962,6336 East Santa Ana Canyon Road,CA,92807
Big Lots,San Antonio,1963,1963 #001963 #01963 #1963 01963,2902 Goliad Road Suite 116,TX,78223
Big Lots,Houston,1964,1964 #001964 #01964 #1964 01964,5807 East Sam Houston Parkway,TX,77049
Big Lots,Clinton,1965,1965 #001965 #01965 #1965 01965,220 Clinton Boulevard,MS,39056
Big Lots,Dallas,1966,1966 #001966 #01966 #1966 01966,3610 Forest Lane,TX,75234
Big Lots,Dudley,1967,1967 #001967 #01967 #1967 01967,4 Airport Road,MA,1570
Big Lots,Ashtabula,1969,1969 #001969 #01969 #1969 01969,2466 West Prospect Road,OH,44004
Big Lots,Saint Peters,1970,1970 #001970 #01970 #1970 01970,5881 Suemandy Road,MO,63376
Big Lots,Stillwater,1972,1972 #001972 #01972 #1972 01972,613 North Perkins Road,OK,74075
Big Lots,Morrisville,1973,1973 #001973 #01973 #1973 01973,66 Morrisville Plaza #4,VT,5661
Big Lots,Goose Creek,1975,1975 #001975 #01975 #1975 01975,431-B Saint James Avenue,SC,29445
Big Lots,Sedalia,1977,1977 #001977 #01977 #1977 01977,3125 West Broadway,MO,65301
Big Lots,Ebensburg,1979,1979 #001979 #01979 #1979 01979,881 Hills Plaza Drive Suite 500,PA,15931
Big Lots,South Plainfield,1980,1980 #001980 #01980 #1980 01980,686 Oak Tree Avenue,NJ,7080
Big Lots,Albuquerque,1982,1982 #001982 #01982 #1982 01982,465 Coors Boulevard Northwest,NM,87121
Big Lots,Clovis,1983,1983 #001983 #01983 #1983 01983,820 East 21st Street,NM,88101
Big Lots,Philadelphia,1984,1984 #001984 #01984 #1984 01984,199 Franklin Mills Boulevard,PA,19154
Big Lots,Houston,1986,1986 #001986 #01986 #1986 01986,9795 Westheimer Road,TX,77042
Big Lots,Placerville,1987,1987 #001987 #01987 #1987 01987,47 Fair Lane Drive,CA,95667
Big Lots,Hudson,1988,1988 #001988 #01988 #1988 01988,300 Fairview Avenue Route 9,NY,12534
Big Lots,Conyers,1989,1989 #001989 #01989 #1989 01989,1820 Highway 20,GA,30013
Big Lots,Shreveport,1990,1990 #001990 #01990 #1990 01990,1293a Shreveport-barksdale Highway,LA,71104
Big Lots,Orangeburg,1991,1991 #001991 #01991 #1991 01991,1371 Chestnut Street,SC,29115
Big Lots,Geneva,1992,1992 #001992 #01992 #1992 01992,785 Route 5 And 20,NY,14456
Big Lots,Munhall,1993,1993 #001993 #01993 #1993 01993,612 William Mark Drive,PA,15120
Big Lots,Kansas City,1994,1994 #001994 #01994 #1994 01994,4826 North Oak Traffic Way,MO,64118
Big Lots,Apple Valley,1995,1995 #001995 #01995 #1995 01995,21640 Bear Valley Road,CA,92308
Big Lots,Harrisburg,1996,1996 #001996 #01996 #1996 01996,3850 Union Deposit Road,PA,17109
Big Lots,Seaford,1997,1997 #001997 #01997 #1997 01997,900 Norman A. Eskridge Hwy. Unit #50,DE,19973
Big Lots,Fort Worth,1998,1998 #001998 #01998 #1998 01998,6425 McCart Avenue,TX,76133
Big Lots,Georgetown,1999,1999 #001999 #01999 #1999 01999,1651 Paris Pike,KY,40324
Big Lots,Riverside,4001,4001 #004001 #04001 #4001 04001,3730 Tyler Street,CA,92503
Big Lots,Downey,4002,4002 #004002 #04002 #4002 04002,9020 Firestone Boulevard,CA,90241
Big Lots,Whittier,4003,4003 #004003 #04003 #4003 04003,11130 Washington Boulevard,CA,90606
Big Lots,Escondido,4007,4007 #004007 #04007 #4007 04007,1625 East Valley Parkway South,CA,92027
Big Lots,El Cajon,4012,4012 #004012 #04012 #4012 04012,1085 East Main Street,CA,92021
Big Lots,Fontana,4014,4014 #004014 #04014 #4014 04014,17575 Foothill Boulevard,CA,92335
Big Lots,Arcadia,4025,4025 #004025 #04025 #4025 04025,610 Las Tunas Drive,CA,91007
Big Lots,Santa Ana,4026,4026 #004026 #04026 #4026 04026,3321 South Bristol Street,CA,92704
Big Lots,Chula Vista,4027,4027 #004027 #04027 #4027 04027,1210 Broadway,CA,91911
Big Lots,Ventura,4030,4030 #004030 #04030 #4030 04030,299 Borchard Drive,CA,93003
Big Lots,Gardena,4031,4031 #004031 #04031 #4031 04031,2900 West Rosecrans Avenue,CA,90249
Big Lots,Hemet,4035,4035 #004035 #04035 #4035 04035,2093 East Florida Avenue,CA,92544
Big Lots,San Diego,4038,4038 #004038 #04038 #4038 04038,3705 Rosecrans Street,CA,92110
Big Lots,Upland,4042,4042 #004042 #04042 #4042 04042,1284 West Foothill Boulevard,CA,91786
Big Lots,Yuma,4043,4043 #004043 #04043 #4043 04043,1625 South 4th Avenue,AZ,85364
Big Lots,Victorville,4045,4045 #004045 #04045 #4045 04045,14790 La Paz Drive,CA,92395
Big Lots,Orange,4046,4046 #004046 #04046 #4046 04046,1821 North Tustin Street,CA,92865
Big Lots,La Mesa,4047,4047 #004047 #04047 #4047 04047,6145 Lake Murray Boulevard,CA,91942
Big Lots,La Canada,4049,4049 #004049 #04049 #4049 04049,2243 Foothill Boulevard,CA,91011
Big Lots,Corona,4051,4051 #004051 #04051 #4051 04051,740 North Main Street,CA,92880
Big Lots,Buena Park,4052,4052 #004052 #04052 #4052 04052,8932 Valley View Street,CA,90620
Big Lots,Santa Maria,4054,4054 #004054 #04054 #4054 04054,1417 South Broadway,CA,93454
Big Lots,Cudahy,4060,4060 #004060 #04060 #4060 04060,7925 Atlantic Avenue,CA,90201
Big Lots,Fresno,4061,4061 #004061 #04061 #4061 04061,5345 North Blackstone Avenue,CA,93710
Big Lots,Bakersfield,4063,4063 #004063 #04063 #4063 04063,3580 Wilson Road,CA,93309
Big Lots,La Puente,4065,4065 #004065 #04065 #4065 04065,785 North Hacienda Boulevard,CA,91744
Big Lots,West Covina,4066,4066 #004066 #04066 #4066 04066,635 North Azusa Avenue,CA,91791
Big Lots,North Hollywood,4068,4068 #004068 #04068 #4068 04068,13005 Sherman Way,CA,91605
Big Lots,El Paso,4069,4069 #004069 #04069 #4069 04069,9801 Gateway Boulevard West,TX,79925
Big Lots,El Paso,4070,4070 #004070 #04070 #4070 04070,6375 Montana Avenue,TX,79925
Big Lots,Cerritos,4076,4076 #004076 #04076 #4076 04076,11163 183rd Street,CA,90703
Big Lots,Albuquerque,4077,4077 #004077 #04077 #4077 04077,5341 Menaul Boulevard Northeast,NM,87110
Big Lots,Carmichael,4080,4080 #004080 #04080 #4080 04080,7241 Fair Oaks Boulevard,CA,95608
Big Lots,La Mirada,4081,4081 #004081 #04081 #4081 04081,13942 Imperial Highway,CA,90638
Big Lots,Phoenix,4085,4085 #004085 #04085 #4085 04085,3144 East Thomas Road,AZ,85016
Big Lots,Yucca Valley,4087,4087 #004087 #04087 #4087 04087,56865 29 Palms Highway,CA,92284
Big Lots,Huntington Beach,4088,4088 #004088 #04088 #4088 04088,21082 Beach Boulevard,CA,92648
Big Lots,Murray,4089,4089 #004089 #04089 #4089 04089,5650 South 900 East,UT,84121
Big Lots,Covina,4090,4090 #004090 #04090 #4090 04090,20808 East Arrow Highway,CA,91724
Big Lots,Kearns,4091,4091 #004091 #04091 #4091 04091,4041 West 5415 South,UT,84118
Big Lots,El Paso,4092,4092 #004092 #04092 #4092 04092,8500 Dyer Street,TX,79904
Big Lots,Las Vegas,4093,4093 #004093 #04093 #4093 04093,4731 Spring Mountain Road,NV,89102
Big Lots,Rowland Heights,4094,4094 #004094 #04094 #4094 04094,1730 Nogales Street,CA,91748
Big Lots,Salt Lake City,4095,4095 #004095 #04095 #4095 04095,3320 South 1300 East,UT,84106
Big Lots,Denton,4096,4096 #004096 #04096 #4096 04096,2249 South Loop 288,TX,76205
Big Lots,Killeen,4097,4097 #004097 #04097 #4097 04097,800 South FM 440,TX,76541
Big Lots,Chino,4098,4098 #004098 #04098 #4098 04098,12550 Central Avenue,CA,91710
Big Lots,Peoria,4099,4099 #004099 #04099 #4099 04099,8778 West Cholla Street,AZ,85345
Big Lots,Rancho Cucamonga,4103,4103 #004103 #04103 #4103 04103,12322 4th Street,CA,91730
Big Lots,Colorado Springs,4104,4104 #004104 #04104 #4104 04104,1990 South Academy Boulevard,CO,80916
Big Lots,Stockton,4105,4105 #004105 #04105 #4105 04105,8001 West Lane,CA,95210
Big Lots,Lodi,4106,4106 #004106 #04106 #4106 04106,380 South Cherokee Lane,CA,95240
Big Lots,Westminster,4107,4107 #004107 #04107 #4107 04107,6351 Westminster Boulevard,CA,92683
Big Lots,South Ogden,4108,4108 #004108 #04108 #4108 04108,3801 Washington Boulevard,UT,84403
Big Lots,San Antonio,4110,4110 #004110 #04110 #4110 04110,1739 Southwest Loop 410 #200,TX,78227
Big Lots,Redondo Beach,4111,4111 #004111 #04111 #4111 04111,1207 Aviation Boulevard,CA,90278
Big Lots,Roseville,4113,4113 #004113 #04113 #4113 04113,212 Harding Boulevard,CA,95678
Big Lots,Sacramento,4115,4115 #004115 #04115 #4115 04115,6630 Valley Hi Drive,CA,95823
Big Lots,Provo,4116,4116 #004116 #04116 #4116 04116,1290 North State Street,UT,84604
Big Lots,Arvada,4117,4117 #004117 #04117 #4117 04117,8125 Sheridan Boulevard,CO,80003
Big Lots,Inglewood,4118,4118 #004118 #04118 #4118 04118,3003 West Manchester Boulevard,CA,90305
Big Lots,Boise,4119,4119 #004119 #04119 #4119 04119,7001 West State Street,ID,83703
Big Lots,Fort Collins,4121,4121 #004121 #04121 #4121 04121,126 West Troutman Parkway,CO,80525
Big Lots,Visalia,4122,4122 #004122 #04122 #4122 04122,2525 South Mooney Boulevard,CA,93277
Big Lots,Colorado Springs,4123,4123 #004123 #04123 #4123 04123,5085 North Academy Boulevard,CO,80918
Big Lots,Phoenix,4124,4124 #004124 #04124 #4124 04124,3543 West Thunderbird Road,AZ,85053
Big Lots,Salinas,4125,4125 #004125 #04125 #4125 04125,335 East Alisal Street,CA,93901
Big Lots,National City,4126,4126 #004126 #04126 #4126 04126,1410 East Plaza Boulevard,CA,91950
Big Lots,San Diego,4127,4127 #004127 #04127 #4127 04127,9340 Mira Mesa Boulevard,CA,92126
Big Lots,Van Nuys,4128,4128 #004128 #04128 #4128 04128,7241 Sepulveda Boulevard,CA,91405
Big Lots,Antioch,4129,4129 #004129 #04129 #4129 04129,2521 Somersville Road,CA,94509
Big Lots,Austin,4131,4131 #004131 #04131 #4131 04131,8666 Spicewood Springs Road,TX,78759
Big Lots,Aurora,4133,4133 #004133 #04133 #4133 04133,15351 East Hampden Avenue,CO,80013
Big Lots,North Richland Hills,4134,4134 #004134 #04134 #4134 04134,6300 Rufe Snow Drive,TX,76180
Big Lots,Lomita,4136,4136 #004136 #04136 #4136 04136,2155 Pacific Coast Highway,CA,90717
Big Lots,Canoga Park,4137,4137 #004137 #04137 #4137 04137,21910 Sherman Way,CA,91303
Big Lots,Pasadena,4139,4139 #004139 #04139 #4139 04139,6804 Spencer Highway,TX,77505
Big Lots,Garland,4140,4140 #004140 #04140 #4140 04140,825 West Centerville Road,TX,75041
Big Lots,Houston,4141,4141 #004141 #04141 #4141 04141,4613 FM 1960 Road West,TX,77069
Big Lots,Richardson,4143,4143 #004143 #04143 #4143 04143,1332 South Plano Road Suite 200,TX,75081
Big Lots,Farmers Branch,4144,4144 #004144 #04144 #4144 04144,2865 Valley View Lane,TX,75234
Big Lots,Tyler,4145,4145 #004145 #04145 #4145 04145,4400 South Broadway Avenue,TX,75703
Big Lots,Houston,4146,4146 #004146 #04146 #4146 04146,10951 FM 1960 Road West,TX,77070
Big Lots,Santa Fe,4147,4147 #004147 #04147 #4147 04147,3140 Cerrillos Road,NM,87507
Big Lots,Webster,4148,4148 #004148 #04148 #4148 04148,1201 West Nasa Road 1,TX,77598
Big Lots,Jefferson,4149,4149 #004149 #04149 #4149 04149,1002 South Clearview Parkway,LA,70123
Big Lots,Metairie,4150,4150 #004150 #04150 #4150 04150,7135 Veterans Memorial Boulevard,LA,70003
Big Lots,Dallas,4152,4152 #004152 #04152 #4152 04152,2550 West Red Bird Lane Suite 300,TX,75237
Big Lots,Longview,4153,4153 #004153 #04153 #4153 04153,1905 West Loop 281,TX,75604
Big Lots,Santa Rosa,4154,4154 #004154 #04154 #4154 04154,2055 Mendocino Avenue,CA,95401
Big Lots,Alhambra,4155,4155 #004155 #04155 #4155 04155,600 East Valley Boulevard,CA,91801
Big Lots,Clovis,4156,4156 #004156 #04156 #4156 04156,456 West Shaw Avenue,CA,93612
Big Lots,Camarillo,4157,4157 #004157 #04157 #4157 04157,353 Carmen Drive,CA,93010
Big Lots,Bossier City,4162,4162 #004162 #04162 #4162 04162,3161 East Texas Street,LA,71111
Big Lots,Fresno,4164,4164 #004164 #04164 #4164 04164,4895 East Kings Canyon Road,CA,93727
Big Lots,Phoenix,4165,4165 #004165 #04165 #4165 04165,3212 East Cactus Road,AZ,85032
Big Lots,Culver City,4166,4166 #004166 #04166 #4166 04166,5587 Sepulveda Boulevard,CA,90230
Big Lots,Moreno Valley,4169,4169 #004169 #04169 #4169 04169,23607A Sunnymead Boulevard,CA,92553
Big Lots,Duarte,4170,4170 #004170 #04170 #4170 04170,1325 Huntington Drive,CA,91010
Big Lots,Los Angeles,4176,4176 #004176 #04176 #4176 04176,309 West 7th Street,CA,90014
Big Lots,Las Cruces,4178,4178 #004178 #04178 #4178 04178,2350 East Lohman Avenue,NM,88001
Big Lots,Marietta,4184,4184 #004184 #04184 #4184 04184,1375 Roswell Road Suite 300,GA,30062
Big Lots,Atlanta,4186,4186 #004186 #04186 #4186 04186,2685 Metropolitan Parkway Southwest,GA,30315
Big Lots,Decatur,4192,4192 #004192 #04192 #4192 04192,2738 Candler Road,GA,30034
Big Lots,Mesa,4193,4193 #004193 #04193 #4193 04193,6839 East Main Street,AZ,85207
Big Lots,Humble,4194,4194 #004194 #04194 #4194 04194,156 First Street West,TX,77338
Big Lots,Houston,4195,4195 #004195 #04195 #4195 04195,8210 Kirby Drive,TX,77054
Big Lots,Irving,4196,4196 #004196 #04196 #4196 04196,950 West Airport Freeway,TX,75062
Big Lots,San Pablo,4219,4219 #004219 #04219 #4219 04219,13222 San Pablo Avenue,CA,94806
Big Lots,Clearwater,4220,4220 #004220 #04220 #4220 04220,1243 South Missouri Avenue,FL,33756
Big Lots,Cutler Ridge,4224,4224 #004224 #04224 #4224 04224,18325 South Dixie Highway,FL,33157
Big Lots,Miami,4225,4225 #004225 #04225 #4225 04225,2100 Southwest 27th Avenue,FL,33145
Big Lots,Metairie,4226,4226 #004226 #04226 #4226 04226,755 Veterans Memorial Boulevard,LA,70005
Big Lots,Miami,4228,4228 #004228 #04228 #4228 04228,8265 West Flagler Street,FL,33144
Big Lots,Hialeah,4231,4231 #004231 #04231 #4231 04231,3580 West 18th Avenue,FL,33012
Big Lots,Houston,4237,4237 #004237 #04237 #4237 04237,919 North Shepherd Drive,TX,77008
Big Lots,San Bernardino,4238,4238 #004238 #04238 #4238 04238,499 Orange Show Road,CA,92408
Big Lots,Newark,4243,4243 #004243 #04243 #4243 04243,5453 Thornton Avenue,CA,94560
Big Lots,Bakersfield,4244,4244 #004244 #04244 #4244 04244,2621 Fashion Place,CA,93306
Big Lots,El Paso,4245,4245 #004245 #04245 #4245 04245,7025 North Mesa Street,TX,79912
Big Lots,Whittier,4246,4246 #004246 #04246 #4246 04246,13241 Whittier Boulevard,CA,90602
Big Lots,San Diego,4247,4247 #004247 #04247 #4247 04247,1655 Euclid Avenue,CA,92105
Big Lots,Fountain Valley,4248,4248 #004248 #04248 #4248 04248,17950 Magnolia Street,CA,92708
Big Lots,Fullerton,4251,4251 #004251 #04251 #4251 04251,2420 East Chapman Avenue,CA,92831
Big Lots,Anaheim,4252,4252 #004252 #04252 #4252 04252,1670 West Katella Avenue,CA,92802
Big Lots,Riverside,4256,4256 #004256 #04256 #4256 04256,4022 Madison Street,CA,92504
Big Lots,Miami,4258,4258 #004258 #04258 #4258 04258,11247 Southwest 40th Street (also Known As Bird Road),FL,33165
Big Lots,San Jose,4261,4261 #004261 #04261 #4261 04261,1832 Hillsdale Avenue,CA,95124
Big Lots,Pembroke Pines,4262,4262 #004262 #04262 #4262 04262,7930 Pines Boulevard,FL,33024
Big Lots,Huntington Beach,4263,4263 #004263 #04263 #4263 04263,6911 Warner Avenue,CA,92647
Big Lots,Santa Ana,4264,4264 #004264 #04264 #4264 04264,2727 North Grand Avenue,CA,92705
Big Lots,Cathedral City,4265,4265 #004265 #04265 #4265 04265,69026 East US Highway 111,CA,92234
Big Lots,Chico,4266,4266 #004266 #04266 #4266 04266,1927 East 20th Street,CA,95928
Big Lots,Campbell,4271,4271 #004271 #04271 #4271 04271,1581 West Campbell Avenue,CA,95008
Big Lots,Tucson,4272,4272 #004272 #04272 #4272 04272,3820 West Ina Road,AZ,85741
Big Lots,Rialto,4274,4274 #004274 #04274 #4274 04274,155 East Base Line Road,CA,92376
Big Lots,Pasadena,4275,4275 #004275 #04275 #4275 04275,1260 North Lake Avenue,CA,91104
Big Lots,Hollywood,4276,4276 #004276 #04276 #4276 04276,3921 Oakwood Boulevard,FL,33020
Big Lots,Lancaster,4277,4277 #004277 #04277 #4277 04277,1070 West Avenue K Suite A,CA,93534
Big Lots,Murrieta,4278,4278 #004278 #04278 #4278 04278,25260 Madison Avenue,CA,92562
Big Lots,Tempe,4280,4280 #004280 #04280 #4280 04280,1853 North Scottsdale Road,AZ,85281
Big Lots,Dublin,4281,4281 #004281 #04281 #4281 04281,7991 Amador Valley Boulevard,CA,94568
Big Lots,Milpitas,4282,4282 #004282 #04282 #4282 04282,200 Serra Way Suite 1,CA,95035
Big Lots,Merced,4283,4283 #004283 #04283 #4283 04283,665 Fairfield Drive,CA,95348
Big Lots,Diamond Bar,4284,4284 #004284 #04284 #4284 04284,1139 South Diamond Bar Boulevard,CA,91765
Big Lots,North Hollywood,4286,4286 #004286 #04286 #4286 04286,5321 Vineland Avenue,CA,91601
Big Lots,Reno,4289,4289 #004289 #04289 #4289 04289,5017 South Mccarran Boulevard,NV,89502
Big Lots,Yucaipa,4291,4291 #004291 #04291 #4291 04291,34601 Yucaipa Boulevard,CA,92399
Big Lots,South Pasadena,4292,4292 #004292 #04292 #4292 04292,1401 Huntington Drive Suite B,CA,91030
Big Lots,Hanford,4293,4293 #004293 #04293 #4293 04293,110 South 11th Avenue,CA,93230
Big Lots,Spring Valley,4295,4295 #004295 #04295 #4295 04295,633 Sweetwater Road,CA,91977
Big Lots,Laguna Hills,4296,4296 #004296 #04296 #4296 04296,24841 Alicia Parkway,CA,92653
Big Lots,Oceanside,4297,4297 #004297 #04297 #4297 04297,449 College Boulevard,CA,92057
Big Lots,Sparks,4298,4298 #004298 #04298 #4298 04298,650 East Prater Way,NV,89431
Big Lots,Watsonville,4301,4301 #004301 #04301 #4301 04301,1986 Freedom Boulevard,CA,95076
Big Lots,Chandler,4302,4302 #004302 #04302 #4302 04302,1988 North Alma School Road,AZ,85224
Big Lots,Highland,4303,4303 #004303 #04303 #4303 04303,26545 Highland Avenue,CA,92346
Big Lots,Flagstaff,4305,4305 #004305 #04305 #4305 04305,2560 East 7th Avenue,AZ,86004
Big Lots,Redding,4310,4310 #004310 #04310 #4310 04310,1340 Hilltop Drive,CA,96003
Big Lots,Concord,4311,4311 #004311 #04311 #4311 04311,2060 Monument Boulevard,CA,94520
Big Lots,Redwood City,4313,4313 #004313 #04313 #4313 04313,1525 Broadway Street,CA,94063
Big Lots,Longmont,4314,4314 #004314 #04314 #4314 04314,700 Ken Pratt Boulevard,CO,80501
Big Lots,Los Angeles,4315,4315 #004315 #04315 #4315 04315,1815 West Slauson Avenue,CA,90047
Big Lots,Redlands,4316,4316 #004316 #04316 #4316 04316,810 Tri City Center,CA,92374
Big Lots,Torrance,4319,4319 #004319 #04319 #4319 04319,5017 Pacific Coast Highway,CA,90505
Big Lots,Fontana,4321,4321 #004321 #04321 #4321 04321,17095 Valley Boulevard,CA,92335
Big Lots,Rancho Cucamonga,4322,4322 #004322 #04322 #4322 04322,9008 Foothill Boulevard,CA,91730
Big Lots,Sierra Vista,4325,4325 #004325 #04325 #4325 04325,135 South Highway 92 Unit A,AZ,85635
Big Lots,Lakewood,4326,4326 #004326 #04326 #4326 04326,10575 West Colfax Avenue,CO,80215
Big Lots,Torrance,4328,4328 #004328 #04328 #4328 04328,955 Sepulveda Boulevard,CA,90502
Big Lots,Tucson,4329,4329 #004329 #04329 #4329 04329,3959 North Oracle Road,AZ,85705
Big Lots,Albuquerque,4331,4331 #004331 #04331 #4331 04331,11145 Menaul Boulevard Northeast,NM,87112
Big Lots,San Juan Capistrano,4335,4335 #004335 #04335 #4335 04335,32151 Camino Capistrano,CA,92675
Big Lots,San Diego,4336,4336 #004336 #04336 #4336 04336,4829 A Clairemont Drive,CA,92117
Big Lots,Placentia,4337,4337 #004337 #04337 #4337 04337,1257 East Yorba Linda Boulevard,CA,92870
Big Lots,San Francisco,4340,4340 #004340 #04340 #4340 04340,3333 Mission Street,CA,94110
Big Lots,Lakewood,4341,4341 #004341 #04341 #4341 04341,7777 West Jewell Avenue,CO,80232
Big Lots,Bedford Park,4345,4345 #004345 #04345 #4345 04345,7438 South Cicero Avenue,IL,60499
Big Lots,Simi Valley,4347,4347 #004347 #04347 #4347 04347,2495 Sycamore Drive,CA,93065
Big Lots,Escondido,4350,4350 #004350 #04350 #4350 04350,1580 West Valley Parkway,CA,92029
Big Lots,Grand Junction,4357,4357 #004357 #04357 #4357 04357,2401 North Avenue Suite 19b,CO,81501
Big Lots,Chino Hills,4360,4360 #004360 #04360 #4360 04360,4022 Chino Hills Parkway,CA,91709
Big Lots,Niles,4362,4362 #004362 #04362 #4362 04362,7215 West Dempster Street,IL,60714
Big Lots,La Verne,4365,4365 #004365 #04365 #4365 04365,1955 Foothill Boulevard,CA,91750
Big Lots,Poway,4375,4375 #004375 #04375 #4375 04375,12342 Poway Road,CA,92064
Big Lots,Dallas,4382,4382 #004382 #04382 #4382 04382,2415 North Haskell Avenue Suite 113,TX,75204
Big Lots,Long Beach,4386,4386 #004386 #04386 #4386 04386,2238 North Bellflower Boulevard,CA,90815
Big Lots,Austin,4387,4387 #004387 #04387 #4387 04387,801 East William Cannon Drive #135 A,TX,78745
Big Lots,Santa Clara,4393,4393 #004393 #04393 #4393 04393,3735 El Camino Road,CA,95051
Big Lots,West Sacramento,4394,4394 #004394 #04394 #4394 04394,1270 West Capitol Avenue,CA,95691
Big Lots,Turlock,4397,4397 #004397 #04397 #4397 04397,3101 Geer Road,CA,95382
Big Lots,Tucson,4400,4400 #004400 #04400 #4400 04400,7025 Tanque Verde,AZ,85715
Big Lots,Houma,4420,4420 #004420 #04420 #4420 04420,104 Armour Drive,LA,70364
Big Lots,Renton,4424,4424 #004424 #04424 #4424 04424,4601 Northeast Sunset Boulevard,WA,98059
Big Lots,Vacaville,4426,4426 #004426 #04426 #4426 04426,818 Alamo Drive,CA,95688
Big Lots,University Place,4428,4428 #004428 #04428 #4428 04428,3800 Bridgeport Way West,WA,98466
Big Lots,Nampa,4429,4429 #004429 #04429 #4429 04429,1611 Caldwell Boulevard,ID,83651
Big Lots,Wood Dale,4430,4430 #004430 #04430 #4430 04430,480 Irving Park Road,IL,60191
Big Lots,Banning,4431,4431 #004431 #04431 #4431 04431,3403 West Ramsey Street,CA,92220
Big Lots,Santa Paula,4432,4432 #004432 #04432 #4432 04432,568 West Main Street Suite B,CA,93060
Big Lots,Albuquerque,4433,4433 #004433 #04433 #4433 04433,5555 Zuni Road Southeast Suite 1a,NM,87108
Big Lots,Burien,4436,4436 #004436 #04436 #4436 04436,125 Southwest 148th Street Suite B,WA,98148
Big Lots,Cheyenne,4441,4441 #004441 #04441 #4441 04441,3741 East Lincolnway,WY,82001
Big Lots,Casper,4444,4444 #004444 #04444 #4444 04444,2141 East 12th Street,WY,82601
Big Lots,San Diego,4445,4445 #004445 #04445 #4445 04445,3420 College Avenue,CA,92115
Big Lots,Ukiah,4446,4446 #004446 #04446 #4446 04446,225 South Orchard Avenue,CA,95482
Big Lots,Sylmar,4447,4447 #004447 #04447 #4447 04447,12717 Glenoaks Boulevard Suite A,CA,91342
Big Lots,Corpus Christi,4448,4448 #004448 #04448 #4448 04448,1620 South Padre Island Drive Suite 300,TX,78416
Big Lots,Gresham,4449,4449 #004449 #04449 #4449 04449,2083 Northeast Burnside,OR,97080
Big Lots,Pueblo,4450,4450 #004450 #04450 #4450 04450,755 Desert Flower Boulevard,CO,81001
Big Lots,Tacoma,4454,4454 #004454 #04454 #4454 04454,1410 72nd Street East,WA,98404
Big Lots,Roseburg,4456,4456 #004456 #04456 #4456 04456,1350 Northeast Stephens Street,OR,97470
Big Lots,Tracy,4457,4457 #004457 #04457 #4457 04457,2681 North Tracy Boulevard,CA,95376
Big Lots,Farmington,4458,4458 #004458 #04458 #4458 04458,909 Farmington Avenue,NM,87401
Big Lots,Tacoma,4460,4460 #004460 #04460 #4460 04460,2217 North Pearl Street,WA,98406
Big Lots,Modesto,4463,4463 #004463 #04463 #4463 04463,1717 Oakdale Road,CA,95355
Big Lots,Medford,4465,4465 #004465 #04465 #4465 04465,1070 Biddle Road,OR,97504
Big Lots,Hayward,4468,4468 #004468 #04468 #4468 04468,20800 Mission Boulevard,CA,94541
Big Lots,Kennewick,4469,4469 #004469 #04469 #4469 04469,3019 West Kennewick Avenue,WA,99336
Big Lots,Hermiston,4470,4470 #004470 #04470 #4470 04470,930 South Highway 395 Suite A,OR,97838
Big Lots,Gallup,4471,4471 #004471 #04471 #4471 04471,900 North Highway 491,NM,87301
Big Lots,Reseda,4472,4472 #004472 #04472 #4472 04472,18340 Vanowen Street,CA,91335
Big Lots,Bakersfield,4473,4473 #004473 #04473 #4473 04473,1211 Olive Drive,CA,93308
Big Lots,Coeur dAlene,4474,4474 #004474 #04474 #4474 04474,101 Best Avenue,ID,83814
Big Lots,Beaverton,4475,4475 #004475 #04475 #4475 04475,18565 Southwest Tualatin Valley Highway,OR,97006
Big Lots,Bellflower,4476,4476 #004476 #04476 #4476 04476,14339 Clark Avenue,CA,90706
Big Lots,Hobbs,4477,4477 #004477 #04477 #4477 04477,903 East Bender,NM,88240
Big Lots,Tucson,4478,4478 #004478 #04478 #4478 04478,2520 South Harrison Road,AZ,85748
Big Lots,Mesa,4479,4479 #004479 #04479 #4479 04479,2850 East Main Street,AZ,85213
Big Lots,Spokane,4480,4480 #004480 #04480 #4480 04480,14024 East Sprague Avenue,WA,99216
Big Lots,Richland,4481,4481 #004481 #04481 #4481 04481,1743 George Washington Way,WA,99352
Big Lots,Grants Pass,4482,4482 #004482 #04482 #4482 04482,304 Northeast Agness Avenue,OR,97526
Big Lots,Mission Viejo,4483,4483 #004483 #04483 #4483 04483,27142 La Paz Road,CA,92692
Big Lots,Lacey,4484,4484 #004484 #04484 #4484 04484,1515 Marvin Road Northeast,WA,98516
Big Lots,West Jordan,4485,4485 #004485 #04485 #4485 04485,3931 West 9000th South,UT,84088
Big Lots,Westminster,4486,4486 #004486 #04486 #4486 04486,4830 West 120th Avenue,CO,80020
Big Lots,Belmont,4488,4488 #004488 #04488 #4488 04488,96 Daniel Webster Highway,NH,3220
Big Lots,American Fork,4489,4489 #004489 #04489 #4489 04489,702 East State Road,UT,84003
Big Lots,Greeley,4490,4490 #004490 #04490 #4490 04490,2628 11th Avenue,CO,80631
Big Lots,Brooklyn Center,4494,4494 #004494 #04494 #4494 04494,5930 Earle Brown,MN,55430
Big Lots,Chicago,4497,4497 #004497 #04497 #4497 04497,4628 West Diversey Avenue,IL,60639
Big Lots,Crystal Lake,4498,4498 #004498 #04498 #4498 04498,5561c Northwest Highway,IL,60014
Big Lots,Eugene,4499,4499 #004499 #04499 #4499 04499,1960 Echo Hollow Road,OR,97402
Big Lots,Las Vegas,4500,4500 #004500 #04500 #4500 04500,8140 South Eastern Avenue,NV,89123
Big Lots,Las Vegas,4501,4501 #004501 #04501 #4501 04501,8570 West Lake Mead Boulevard,NV,89128
Big Lots,Las Vegas,4502,4502 #004502 #04502 #4502 04502,4790 East Flamingo Road,NV,89121
Big Lots,Surprise,4504,4504 #004504 #04504 #4504 04504,14537 West Grand Avenue Suite 200,AZ,85374
Big Lots,Naperville,4506,4506 #004506 #04506 #4506 04506,1163 East Ogden Avenue,IL,60563
Big Lots,Phoenix,4507,4507 #004507 #04507 #4507 04507,2330 West Bethany Home Road,AZ,85015
Big Lots,Scottsdale,4508,4508 #004508 #04508 #4508 04508,10220 North 90th Street,AZ,85258
Big Lots,De Kalb,4509,4509 #004509 #04509 #4509 04509,1700 Sycamore Road,IL,60115
Big Lots,Fairview Heights,4510,4510 #004510 #04510 #4510 04510,10850 Lincoln Trail,IL,62208
Big Lots,Lincoln,4511,4511 #004511 #04511 #4511 04511,220 North 66th Street Suite 320,NE,68505
Big Lots,Klamath Falls,4512,4512 #004512 #04512 #4512 04512,3834 South Sixth Street,OR,97603
Big Lots,Littleton,4513,4513 #004513 #04513 #4513 04513,8100 West Crestline Avenue,CO,80123
Big Lots,Henderson,4514,4514 #004514 #04514 #4514 04514,1221 West Warm Springs Road,NV,89014
Big Lots,Vancouver,4515,4515 #004515 #04515 #4515 04515,2100e Southeast 164th Avenue,WA,98683
Big Lots,North Las Vegas,4516,4516 #004516 #04516 #4516 04516,755 West Craig Road Suite 140,NV,89031
Big Lots,Wheat Ridge,4517,4517 #004517 #04517 #4517 04517,4260 Wadsworth Boulevard,CO,80033
Big Lots,Bradley,4518,4518 #004518 #04518 #4518 04518,185 North Kennedy Drive,IL,60915
Big Lots,Show Low,4519,4519 #004519 #04519 #4519 04519,4421 South White Mountain Road Suite A,AZ,85901
Big Lots,Barre,4520,4520 #004520 #04520 #4520 04520,1400 Route 302 (Barre Montpelier Road),VT,5641
Big Lots,Kent,4521,4521 #004521 #04521 #4521 04521,1301 West Meeker Street,WA,98032
Big Lots,Lynnwood,4522,4522 #004522 #04522 #4522 04522,5710 196th Street Southwest,WA,98036
Big Lots,Prescott,4523,4523 #004523 #04523 #4523 04523,1260 Gail Gardner Way,AZ,86305
Big Lots,Kingman,4524,4524 #004524 #04524 #4524 04524,3320 Stockton Hill Road,AZ,86401
Big Lots,Augusta,4525,4525 #004525 #04525 #4525 04525,152 Western Avenue,ME,4330
Big Lots,Keller,4526,4526 #004526 #04526 #4526 04526,1580 Keller Parkway # 50B,TX,76248
Big Lots,Weatherford,4527,4527 #004527 #04527 #4527 04527,108 College Park Drive,TX,76086
Big Lots,Portland,4528,4528 #004528 #04528 #4528 04528,10548 SE Washington Street,OR,97216
Big Lots,Everett,4529,4529 #004529 #04529 #4529 04529,7725 Evergreen Way,WA,98203
Big Lots,Biddeford,4530,4530 #004530 #04530 #4530 04530,420 Alfred Street,ME,4005
Big Lots,Moorpark,4531,4531 #004531 #04531 #4531 04531,397 West Los Angeles Avenue,CA,93021
Big Lots,Mansfield,4532,4532 #004532 #04532 #4532 04532,989 North Walnut Creek Drive Suite 151,TX,76063
Big Lots,Goodyear,4533,4533 #004533 #04533 #4533 04533,409 North Litchfield Road,AZ,85338
Big Lots,Portland,4534,4534 #004534 #04534 #4534 04534,1100 Brighton Avenue,ME,4102
Big Lots,Wichita,4535,4535 #004535 #04535 #4535 04535,8700 West Central Avenue,KS,67212
Big Lots,Cedar City,4536,4536 #004536 #04536 #4536 04536,901 S. Main Street,UT,84720
Big Lots,Oroville,4537,4537 #004537 #04537 #4537 04537,1875 Oro Dam Blvd,CA,95966
Big Lots,Longview,4538,4538 #004538 #04538 #4538 04538,700 Ocean Beach Highway,WA,98632
Big Lots,Atascadero,4539,4539 #004539 #04539 #4539 04539,2240 El Camino Real,CA,93422
Big Lots,Puyallup,4541,4541 #004541 #04541 #4541 04541,120 31st  Ave. SE,WA,98374
Big Lots,Rowlett,4543,4543 #004543 #04543 #4543 04543,3601 Lakeview Parkway,TX,75088
Big Lots,Omaha,4544,4544 #004544 #04544 #4544 04544,6516 N. 73rd Plaza,NE,68134
Big Lots,Tucson,4545,4545 #004545 #04545 #4545 04545,1660 W. Valencia Rd.,AZ,85746
Big Lots,Port Hueneme,4546,4546 #004546 #04546 #4546 04546,733 W. Channel Islands Blvd.,CA,93041
Big Lots,Springfield,4547,4547 #004547 #04547 #4547 04547,5790 Main Street,OR,97487
Big Lots,Lake Havasu City,4548,4548 #004548 #04548 #4548 04548,1799 North Kiowa Blvd. Suite 215,AZ,86403
Big Lots,Bangor,4549,4549 #004549 #04549 #4549 04549,490 Stillwater Ave.,ME,4401
Big Lots,College Station,4550,4550 #004550 #04550 #4550 04550,1913 Texas Ave. S.,TX,77840
Big Lots,Lake Elsinore,4551,4551 #004551 #04551 #4551 04551,32241 Mission Trail,CA,92530
Big Lots,Conroe,4552,4552 #004552 #04552 #4552 04552,1404 N Loop 336 W,TX,77304
Big Lots,Oakbrook Terrace,4553,4553 #004553 #04553 #4553 04553,17W714 West 22nd Street,IL,60181
Big Lots,Indio,4554,4554 #004554 #04554 #4554 04554,42225-B Jackson St.,CA,92201
Big Lots,North Highlands,4555,4555 #004555 #04555 #4555 04555,3615 Elkhorn Blvd,CA,95660
Big Lots,Bend,4556,4556 #004556 #04556 #4556 04556,2600 NE Highway 20,OR,97701
Big Lots,San Jose,4557,4557 #004557 #04557 #4557 04557,1523 Parkmoor Ave.,CA,95128
Big Lots,Yakima,4558,4558 #004558 #04558 #4558 04558,120 N. Fair Avenue,WA,98901
Big Lots,Encinitas,4559,4559 #004559 #04559 #4559 04559,333 N. El Camino Real,CA,92024
Big Lots,Las Vegas,4560,4560 #004560 #04560 #4560 04560,3940 Blue Diamond,NV,89139
Big Lots,Rockford,4561,4561 #004561 #04561 #4561 04561,6363 East State Street,IL,61108
Big Lots,Harlingen,4562,4562 #004562 #04562 #4562 04562,2014 S. Expressway 83,TX,78552
Big Lots,Carson City,4563,4563 #004563 #04563 #4563 04563,4215 South Carson,NV,89701
Big Lots,Rancho Santa Margarita,4564,4564 #004564 #04564 #4564 04564,30501 Avenida De Las Flores,CA,92688
Big Lots,Cedar Park,4565,4565 #004565 #04565 #4565 04565,850 N. Bell Blvd.,TX,78613
Big Lots,Frisco,4566,4566 #004566 #04566 #4566 04566,3333 Preston Road,TX,75034
Big Lots,Bolingbrook,4567,4567 #004567 #04567 #4567 04567,111 S Weber Road,IL,60490
Big Lots,Sahuarita,4568,4568 #004568 #04568 #4568 04568,18705 S. I-19 Frontage Road,AZ,85614
Big Lots,Pocatello,4569,4569 #004569 #04569 #4569 04569,1000 Pocatello Creek Road,ID,83201
Big Lots,Sioux Falls,4571,4571 #004571 #04571 #4571 04571,2808 South Louise Avenue,SD,57106
Big Lots,Brighton,4572,4572 #004572 #04572 #4572 04572,893 S Kuner Rd.,CO,80601
Big Lots,Spokane,4573,4573 #004573 #04573 #4573 04573,9612 N Newport Highway,WA,99218
Big Lots,Sonora,4574,4574 #004574 #04574 #4574 04574,1141 Sanguinetti Rd.,CA,95370
Big Lots,Tulare,4575,4575 #004575 #04575 #4575 04575,1671 Hillman Street,CA,93274
Big Lots,Machesney Park,4576,4576 #004576 #04576 #4576 04576,8760 N 2nd Street,IL,61115
Big Lots,Houston,4577,4577 #004577 #04577 #4577 04577,5770 Hollister Rd,TX,77040
Big Lots,Gilbert,4578,4578 #004578 #04578 #4578 04578,2817 S. Market St.,AZ,85295
Big Lots,Covington,4580,4580 #004580 #04580 #4580 04580,17307 SE 272nd Street,WA,98042
Big Lots,Modesto,4581,4581 #004581 #04581 #4581 04581,3900 Sisk Road,CA,95356
Big Lots,Phoenix,4582,4582 #004582 #04582 #4582 04582,2020 N. 75th Ave.,AZ,85035
Big Lots,Salt Lake City,4583,4583 #004583 #04583 #4583 04583,370 East 200 South,UT,84111
Big Lots,Maple Grove,4584,4584 #004584 #04584 #4584 04584,16501 County Road 30,MN,55311
Big Lots,Woodbury,4585,4585 #004585 #04585 #4585 04585,8320 Tamarack Village,MN,55125
Big Lots,Aurora,4586,4586 #004586 #04586 #4586 04586,6626 South Parker Road,CO,80016
Big Lots,Eagan,4587,4587 #004587 #04587 #4587 04587,1284 Town Center Drive,MN,55123
Big Lots,Rohnert Park,4588,4588 #004588 #04588 #4588 04588,565 Rohnert Park Expressway,CA,94928
Big Lots,Plano,4589,4589 #004589 #04589 #4589 04589,600 W. 15th,TX,75075
Big Lots,Phoenix,4590,4590 #004590 #04590 #4590 04590,230 E. Bell Rd,AZ,85022
Big Lots,Stephenville,4591,4591 #004591 #04591 #4591 04591,2133 W. Washington Street,TX,76401
Big Lots,Great Falls,4592,4592 #004592 #04592 #4592 04592,1200 10th Avenue South,MT,59405
Big Lots,Houston,4593,4593 #004593 #04593 #4593 04593,7323 FM 1960 Rd. W,TX,77070
Big Lots,Livermore,4594,4594 #004594 #04594 #4594 04594,4484 Las Positas Road,CA,94551
Big Lots,Salem,4595,4595 #004595 #04595 #4595 04595,2025 Lancaster Dr. NE,OR,97305
Big Lots,Yuba City,4596,4596 #004596 #04596 #4596 04596,1320 Franklin Road,CA,95993
Big Lots,Rochester,4597,4597 #004597 #04597 #4597 04597,106 Milton Rd,NH,3868
Big Lots,Abilene,4598,4598 #004598 #04598 #4598 04598,3206 S. Clack Dr.,TX,79606
Big Lots,Salina,4599,4599 #004599 #04599 #4599 04599,2450 South 9th St.,KS,67401
Big Lots,Los Angeles,4600,4600 #004600 #04600 #4600 04600,3115 South Sepulveda Blvd.,CA,90034
Big Lots,Moses Lake,4601,4601 #004601 #04601 #4601 04601,813 N Stratford Rd.,WA,98837
Big Lots,Roseville,4602,4602 #004602 #04602 #4602 04602,10251 Fairway Dr.,CA,95678
Big Lots,Laredo,4603,4603 #004603 #04603 #4603 04603,7807 San Dario Avenue,TX,78045
Big Lots,Tempe,4604,4604 #004604 #04604 #4604 04604,940 East Baseline Rd.,AZ,85282
Big Lots,Layton,4605,4605 #004605 #04605 #4605 04605,1030 North Main Street,UT,84041
Big Lots,Fort Worth,4606,4606 #004606 #04606 #4606 04606,1255 Town Square Dr.,TX,76116
Big Lots,Baxter,4607,4607 #004607 #04607 #4607 04607,14136 Baxter Dr.,MN,56425
Big Lots,Waco,4608,4608 #004608 #04608 #4608 04608,4905 West Waco Drive,TX,76710
Big Lots,Casa Grande,4609,4609 #004609 #04609 #4609 04609,1320 E. Florence,AZ,85122
Big Lots,Edinburg,4610,4610 #004610 #04610 #4610 04610,313 East Trenton Rd,TX,78539
Big Lots,Ridgecrest,4611,4611 #004611 #04611 #4611 04611,840 N. China Lake,CA,93555
Big Lots,Wenatchee,4612,4612 #004612 #04612 #4612 04612,151 Easy Way,WA,98801
Big Lots,Franklin Park,4613,4613 #004613 #04613 #4613 04613,10205 Grand Ave.,IL,60131
Big Lots,Payson,4614,4614 #004614 #04614 #4614 04614,400 E State Highway 260,AZ,85541
Big Lots,Elgin,4615,4615 #004615 #04615 #4615 04615,204 S. Randall Road,IL,60123
Big Lots,Oro Valley,4616,4616 #004616 #04616 #4616 04616,11955 N. Oracle Rd.,AZ,85737
Big Lots,Manteca,4617,4617 #004617 #04617 #4617 04617,1321 West Yosemite Ave.,CA,95337
Big Lots,North Bend,4618,4618 #004618 #04618 #4618 04618,2121 Newmark Street,OR,97459
Big Lots,Carpentersville,4619,4619 #004619 #04619 #4619 04619,200 S. Western Ave.,IL,60110
Big Lots,Mesa,4620,4620 #004620 #04620 #4620 04620,1110 W. Southern Ave.,AZ,85210
Big Lots,"Port Orchard,",4621,4621 #004621 #04621 #4621 04621,3399 Bethel Rd. SE,WA,98366
Big Lots,Grapevine,4622,4622 #004622 #04622 #4622 04622,1217 W State Highway 114,TX,76051
Big Lots,Northridge,4623,4623 #004623 #04623 #4623 04623,8960 Tampa Avenue,CA,91324
Big Lots,Omaha,4624,4624 #004624 #04624 #4624 04624,717 S. 72nd Street,NE,68114
Big Lots,Phoenix,4625,4625 #004625 #04625 #4625 04625,4727 East Bell Road,AZ,85032
Big Lots,Farmington,4626,4626 #004626 #04626 #4626 04626,640 Wilton Rd (U.S. 2),ME,4938
Big Lots,Colorado Springs,4627,4627 #004627 #04627 #4627 04627,2975 New Center Point Rd.,CO,80922
Big Lots,Issaquah,4628,4628 #004628 #04628 #4628 04628,1475 11th Avenue NW,WA,98027
Big Lots,Tukwila,4629,4629 #004629 #04629 #4629 04629,17348 Southcenter Parkway,WA,98188
Big Lots,San Angelo,4630,4630 #004630 #04630 #4630 04630,4002 Sunset Drive,TX,76904
Big Lots,Henderson,4631,4631 #004631 #04631 #4631 04631,390 W LAKE MEAD PKWY,NV,89015
Big Lots,Waxahachie,4632,4632 #004632 #04632 #4632 04632,507 N HIGHWAY 77,TX,75165
Big Lots,Lewiston,4633,4633 #004633 #04633 #4633 04633,1810 19th Avenue,ID,83501
Big Lots,Glendale,4634,4634 #004634 #04634 #4634 04634,17510 N 75th Ave,AZ,85308
Big Lots,Lockport,4635,4635 #004635 #04635 #4635 04635,340 Summit Drive,IL,60441
Big Lots,Streamwood,4636,4636 #004636 #04636 #4636 04636,1080 South Barrington Rd.,IL,60107
Big Lots,Naperville,4637,4637 #004637 #04637 #4637 04637,2781 Aurora Ave.,IL,60540
Big Lots,Bloomington,4638,4638 #004638 #04638 #4638 04638,10590 France Ave. South,MN,55431
Big Lots,Las Vegas,4639,4639 #004639 #04639 #4639 04639,7781 W. Tropical,NV,89149
Big Lots,Centralia,4640,4640 #004640 #04640 #4640 04640,1139 West Broadway,IL,62801
Big Lots,Converse,4641,4641 #004641 #04641 #4641 04641,8318 FM 78,TX,78109
Big Lots,Reno,4642,4642 #004642 #04642 #4642 04642,200 Lemmon Dr.,NV,89506
Big Lots,Blaine,4643,4643 #004643 #04643 #4643 04643,634 County Rd. 10 NE,MN,55434
Big Lots,Port Angeles,4644,4644 #004644 #04644 #4644 04644,1940 E. 1st St.,WA,98362
Big Lots,La Habra,4645,4645 #004645 #04645 #4645 04645,1020 W. Imperial Highway,CA,90631
Big Lots,Marysville,4646,4646 #004646 #04646 #4646 04646,205 Marysville Mall,WA,98270
Big Lots,Lubbock,4647,4647 #004647 #04647 #4647 04647,3303 98th St.,TX,79423
Big Lots,Laveen,4648,4648 #004648 #04648 #4648 04648,3630 W. Baseline Rd.,AZ,85339
Big Lots,Olympia,4650,4650 #004650 #04650 #4650 04650,2815 Capital Mall Drive SW,WA,98502
Big Lots,Charlotte,5086,5086 #005086 #05086 #5086 05086,8215 University City Blvd,NC,28213
Big Lots,Waterbury,5087,5087 #005087 #05087 #5087 05087,650 Wolcott St,CT,6705
Big Lots,Merrillville,5088,5088 #005088 #05088 #5088 05088,3249 E. Lincoln Hwy,IN,46410
Big Lots,Holland,5089,5089 #005089 #05089 #5089 05089,2353 North Park Dr.,MI,49424
Big Lots,Fayetteville,5090,5090 #005090 #05090 #5090 05090,2999 N. College,AR,72703
Big Lots,Orlando,5091,5091 #005091 #05091 #5091 05091,2544 E. Colonial Drive,FL,32803
Big Lots,Hilliard,5092,5092 #005092 #05092 #5092 05092,5419 Roberts Rd.,OH,43026
Big Lots,Pittsburgh,5093,5093 #005093 #05093 #5093 05093,4717 McKnight Rd.,PA,15237
Big Lots,Parma,5094,5094 #005094 #05094 #5094 05094,7512 Broadview Rd,OH,44134
Big Lots,Livonia,5095,5095 #005095 #05095 #5095 05095,30000 Plymouth Road,MI,48150
Big Lots,Independence,5096,5096 #005096 #05096 #5096 05096,4201 S. Noland Rd.,MO,64055
Big Lots,Bluffton,5097,5097 #005097 #05097 #5097 05097,32 Malphrus Road Suite 111,SC,29910
Big Lots,Cincinnati,5098,5098 #005098 #05098 #5098 05098,9131 Fields Ertel Road,OH,45249
Big Lots,Lima,5099,5099 #005099 #05099 #5099 05099,2100 Harding Highway,OH,45804
Big Lots,Daytona Beach,5100,5100 #005100 #05100 #5100 05100,2400 W. International Speedway Blvd.,FL,32114
Big Lots,Kannapolis,5101,5101 #005101 #05101 #5101 05101,950 S. Cannon Blvd.,NC,28083
Big Lots,Pompano Beach,5102,5102 #005102 #05102 #5102 05102,1440 NE 23rd Street,FL,33062
Big Lots,Baltimore,5103,5103 #005103 #05103 #5103 05103,2525 Cleanleigh,MD,21234
Big Lots,Hattiesburg,5104,5104 #005104 #05104 #5104 05104,4600 Hardy Street,MS,39402
Big Lots,Avon,5105,5105 #005105 #05105 #5105 05105,10321 E. U.S. Route 36,IN,46123
Big Lots,Milford,5106,5106 #005106 #05106 #5106 05106,56 Turnpike Square,CT,6460
Big Lots,Clinton Twp,5107,5107 #005107 #05107 #5107 05107,35603 S. Gratiot Ave,MI,48035
Big Lots,Raleigh (Garner),5108,5108 #005108 #05108 #5108 05108,1515 Garner Station Blvd.,NC,27603
Big Lots,Christiansburg,5109,5109 #005109 #05109 #5109 05109,130 Conston Ave,VA,24073
Big Lots,Birmingham,5110,5110 #005110 #05110 #5110 05110,5287 Highway 280,AL,35242
Big Lots,Kokomo,5111,5111 #005111 #05111 #5111 05111,2136 East Markland Ave.,IN,46901
Big Lots,Roswell,5112,5112 #005112 #05112 #5112 05112,610 Holcomb Bridge Rd.,GA,30076
Big Lots,Coral Springs,5113,5113 #005113 #05113 #5113 05113,725 N. University Dr.,FL,33071
Big Lots,New Castle,5114,5114 #005114 #05114 #5114 05114,26 Penn Mart Center,DE,19720
Big Lots,Alpharetta,5115,5115 #005115 #05115 #5115 05115,670 North Main Street,GA,30009
Big Lots,Catonsville,5116,5116 #005116 #05116 #5116 05116,5820 Baltimore National Pike,MD,21228
Big Lots,Noblesville,5117,5117 #005117 #05117 #5117 05117,1930 E. Conner St.,IN,46060
Big Lots,Green Bay,5118,5118 #005118 #05118 #5118 05118,1507 West Mason Street,WI,54303
Big Lots,Monroe,5119,5119 #005119 #05119 #5119 05119,3129 Hwy 74 W,NC,28110
Big Lots,Clifton Park,5120,5120 #005120 #05120 #5120 05120,54 Crossing Blvd.,NY,12065
Big Lots,Erie,5121,5121 #005121 #05121 #5121 05121,2215 W. 12th St.,PA,16505
Big Lots,Marietta,5122,5122 #005122 #05122 #5122 05122,2932 Canton Road,GA,30066
Big Lots,Columbia,5123,5123 #005123 #05123 #5123 05123,6169 St. Andrews Road,SC,29212
Big Lots,Laurens,5124,5124 #005124 #05124 #5124 05124,917 East Main St.,SC,29360
Big Lots,Lexington,5125,5125 #005125 #05125 #5125 05125,1980 Pavilion Way,KY,40509
Big Lots,Rockwood,5126,5126 #005126 #05126 #5126 05126,1426 N. Gateway Ave.,TN,37854
Big Lots,Cuyahoga Falls,5127,5127 #005127 #05127 #5127 05127,405 Howe Ave.,OH,44221
Big Lots,Massillon,5128,5128 #005128 #05128 #5128 05128,71 Massillon Marketplace Dr. SW,OH,44646
Big Lots,Strongsville,5129,5129 #005129 #05129 #5129 05129,15177 Pearl Rd.,OH,44136
Big Lots,Wilmington,5130,5130 #005130 #05130 #5130 05130,4310 Shipyard Blvd.,NC,28403
Big Lots,North Little Rock,5131,5131 #005131 #05131 #5131 05131,4213 E. McCain Blvd.,AR,72117
Big Lots,West Deptford,5132,5132 #005132 #05132 #5132 05132,1075 Mantua Pike,NJ,8096
Big Lots,Cherry Hill,5133,5133 #005133 #05133 #5133 05133,949 Church Rd,NJ,8002
Big Lots,Dearborn,5134,5134 #005134 #05134 #5134 05134,5600 Mercury Dr,MI,48126
Big Lots,Brockport,5135,5135 #005135 #05135 #5135 05135,6515 Brockport Spencerport Rd,NY,14420
Big Lots,Exton,5136,5136 #005136 #05136 #5136 05136,201 West Lincoln Hwy,PA,19341
Big Lots,Greenbelt,5137,5137 #005137 #05137 #5137 05137,6252-B Greenbelt Road,MD,20770
Big Lots,Franklin,5138,5138 #005138 #05138 #5138 05138,275 E Central St,MA,2038
Big Lots,North Charleston,5139,5139 #005139 #05139 #5139 05139,7620 North Rivers Ave.,SC,29406
Big Lots,Mobile,5140,5140 #005140 #05140 #5140 05140,3250 Airport Blvd.,AL,36606
Big Lots,Huntsville,5141,5141 #005141 #05141 #5141 05141,6275 University Drive,AL,35806
Big Lots,Ardmore,5142,5142 #005142 #05142 #5142 05142,1211 N. Commerce Street,OK,73401
Big Lots,Jacksonville,5143,5143 #005143 #05143 #5143 05143,9625 Crosshill Blvd.,FL,32222
Big Lots,North Haven,5144,5144 #005144 #05144 #5144 05144,380 Universal Dr. North,CT,6473
Big Lots,Aurora,5145,5145 #005145 #05145 #5145 05145,7155 Market Place Dr.,OH,44202
Big Lots,Worcester,5146,5146 #005146 #05146 #5146 05146,7 Neponset St,MA,1606
Big Lots,Manchester,5147,5147 #005147 #05147 #5147 05147,1470 Pleasant Valley Rd.,CT,6042
Big Lots,Tifton,5148,5148 #005148 #05148 #5148 05148,163 Virginia Ave S.,GA,31794
Big Lots,Goldsboro,5149,5149 #005149 #05149 #5149 05149,1101 N. Berkeley Blvd,NC,27534
Big Lots,North Augusta,5150,5150 #005150 #05150 #5150 05150,406 E. Martintown Rd.,SC,29841
Big Lots,Fenton,5151,5151 #005151 #05151 #5151 05151,691 Gravois Boulevard,MO,63026
Big Lots,Lake City,5152,5152 #005152 #05152 #5152 05152,2311 West US Hwy 90,FL,32055
Big Lots,Pensacola,5153,5153 #005153 #05153 #5153 05153,6235 North Davis Hwy,FL,32504
Big Lots,Madison Heights,5154,5154 #005154 #05154 #5154 05154,32399 John R Rd.,MI,48071
Big Lots,Columbia,5155,5155 #005155 #05155 #5155 05155,6171 Columbia Crossing Circle,MD,21045
Big Lots,Kissimmee,5156,5156 #005156 #05156 #5156 05156,2311 West Vine Street,FL,34741
Big Lots,Sanford,5157,5157 #005157 #05157 #5157 05157,3000 S. Horner Blvd.,NC,27332
Big Lots,Novi,5158,5158 #005158 #05158 #5158 05158,43480 West Oaks Dr.,MI,48377
Big Lots,Wadsworth,5159,5159 #005159 #05159 #5159 05159,160 Great Oaks Trail,OH,44281
Big Lots,Willoughby,5160,5160 #005160 #05160 #5160 05160,35101 Euclid Ave,OH,44094
Big Lots,Chardon,5161,5161 #005161 #05161 #5161 05161,540 Water St,OH,44024
Big Lots,Knightdale,5162,5162 #005162 #05162 #5162 05162,7132 Knightdale Blvd.,NC,27545
Big Lots,Benton,5163,5163 #005163 #05163 #5163 05163,1426 Military Road,AR,72015
Big Lots,Raleigh,5164,5164 #005164 #05164 #5164 05164,3340 Cypress Plantation Dr,NC,27616
Big Lots,Sanford,5166,5166 #005166 #05166 #5166 05166,1101 WP Ball Blvd,FL,32771
Big Lots,New Iberia,5167,5167 #005167 #05167 #5167 05167,1102 E. Admiral Doyle Drive,LA,70560
Big Lots,Douglasville,5168,5168 #005168 #05168 #5168 05168,2842 Chapel Hill Rd,GA,30135
Big Lots,Destin,5169,5169 #005169 #05169 #5169 05169,34940 Emerald Coast Pkwy,FL,32541
Big Lots,Kentwood,5170,5170 #005170 #05170 #5170 05170,4254 28th St. SE,MI,49512
Big Lots,Bradenton,5171,5171 #005171 #05171 #5171 05171,5584 Cortez Rd. West,FL,34210
Big Lots,Southfield,5172,5172 #005172 #05172 #5172 05172,29712 Southfield Rd.,MI,48076
Big Lots,Jacksboro,5173,5173 #005173 #05173 #5173 05173,2500 Jacksboro Pike,TN,37757
Big Lots,Seekonk,5174,5174 #005174 #05174 #5174 05174,179 Highland Ave,MA,2771
Big Lots,Reisterstown,5175,5175 #005175 #05175 #5175 05175,11989 Reisterstown Rd,MD,21136
Big Lots,Pickerington,5176,5176 #005176 #05176 #5176 05176,1171 Hill Rd N.,OH,43147
Big Lots,Herndon,5177,5177 #005177 #05177 #5177 05177,490 Elden St.,VA,20170
Big Lots,Dyersburg,5178,5178 #005178 #05178 #5178 05178,2450 Lake Road,TN,38024
Big Lots,Sicklerville,5179,5179 #005179 #05179 #5179 05179,465 Berlin Cross Keys Rd.,NJ,8081
Big Lots,Cadillac,5180,5180 #005180 #05180 #5180 05180,2100 N. Mitchell Dr.,MI,49601
Big Lots,Beachwood,5181,5181 #005181 #05181 #5181 05181,24295 Chagrin Blvd.,OH,44122
Big Lots,Simpsonville,5182,5182 #005182 #05182 #5182 05182,915 South St,SC,29681
Big Lots,Wilson,5183,5183 #005183 #05183 #5183 05183,1700 Raleigh Rd,NC,27896
Big Lots,Norwalk,5184,5184 #005184 #05184 #5184 05184,205 Milan Ave,OH,44857
Big Lots,Mountain Home,5185,5185 #005185 #05185 #5185 05185,759 Hwy 62 East,AR,72653
Big Lots,Traverse City,5186,5186 #005186 #05186 #5186 05186,1144 South Airport Rd.,MI,49686
Big Lots,Gloucester,5187,5187 #005187 #05187 #5187 05187,6571 Market Dr.,VA,23061
Big Lots,Archbald,5188,5188 #005188 #05188 #5188 05188,866 Scranton Carbondale Hwy,PA,18403
Big Lots,Schererville,5189,5189 #005189 #05189 #5189 05189,707 US Highway 41,IN,46375
Big Lots,Lakeland,5190,5190 #005190 #05190 #5190 05190,4233 South Florida Ave (SR 37),FL,33813
Big Lots,Franklin,5191,5191 #005191 #05191 #5191 05191,209 South Royal Oaks Blvd.,TN,37064
Big Lots,Potsdam,5192,5192 #005192 #05192 #5192 05192,200 Market St.,NY,13676
Big Lots,Henderson,5193,5193 #005193 #05193 #5193 05193,1735 Dabney Drive,NC,27536
Big Lots,Ashland,5194,5194 #005194 #05194 #5194 05194,41 Pond St. (Rt 126),MA,1721
Big Lots,Fayetteville,5195,5195 #005195 #05195 #5195 05195,375 Pavilion Parkway,GA,30214
Big Lots,Lakeland,5196,5196 #005196 #05196 #5196 05196,4212 US Highway 98 North,FL,33809
Big Lots,Elizabeth,5197,5197 #005197 #05197 #5197 05197,900 Center Dr,NJ,7201
Big Lots,Middletown,5198,5198 #005198 #05198 #5198 05198,830 State Route 35,NJ,7748
Big Lots,Baltimore,5199,5199 #005199 #05199 #5199 05199,6790 Reisterstown Rd.,MD,21215
Big Lots,Prattville,5200,5200 #005200 #05200 #5200 05200,1957 Cobbs Ford Rd.,AL,36066
Big Lots,Ballwin,5201,5201 #005201 #05201 #5201 05201,14850 Manchester Rd.,MO,63011
Big Lots,Middle River,5202,5202 #005202 #05202 #5202 05202,9977 Pulaski Hwy,MD,21220
Big Lots,Bessemer,5203,5203 #005203 #05203 #5203 05203,710 Academy Drive,AL,35022
Big Lots,Chaffee,5204,5204 #005204 #05204 #5204 05204,12177 Route 16,NY,14030
Big Lots,Dansville,5205,5205 #005205 #05205 #5205 05205,10 Village Plaza,NY,14437
Big Lots,North Olmsted,5206,5206 #005206 #05206 #5206 05206,26425 Great Northern Plaza,OH,44070
Big Lots,Columbia,5207,5207 #005207 #05207 #5207 05207,505 East Nifong Blvd.,MO,65201
Big Lots,Devon,5208,5208 #005208 #05208 #5208 05208,200 W. Swedesford Rd,PA,19333
Big Lots,Murphy,5209,5209 #005209 #05209 #5209 05209,1450 Andrews Rd,NC,28906
Big Lots,Saugerties,5210,5210 #005210 #05210 #5210 05210,330 Route 212,NY,12477
Big Lots,Muskegon,5211,5211 #005211 #05211 #5211 05211,1650 E. Sherman Blvd,MI,49444
Big Lots,Hanover,5212,5212 #005212 #05212 #5212 05212,2659 Annapolis Rd.,MD,21076
Big Lots,Nanuet,5213,5213 #005213 #05213 #5213 05213,125 Route 59 East,NY,10954
Big Lots,Indianapolis,5214,5214 #005214 #05214 #5214 05214,10235 East Washington St.,IN,46229
Big Lots,Panama City,5215,5215 #005215 #05215 #5215 05215,535 W 23rd,FL,32405
Big Lots,Nashville,5216,5216 #005216 #05216 #5216 05216,5702 Nolensville Rd,TN,37211
Big Lots,Holbrook,5217,5217 #005217 #05217 #5217 05217,5755 Sunrise Hwy,NY,11741
Big Lots,Hagerstown,5218,5218 #005218 #05218 #5218 05218,1501 Wesel Blvd,MD,21740
Big Lots,Glen Burnie,5219,5219 #005219 #05219 #5219 05219,6623 Governor Ritchie Hwy,MD,21061
Big Lots,Ontario,5220,5220 #005220 #05220 #5220 05220,929 N. Lexington-Springmill Rd.,OH,44906
Big Lots,Binghamton,5221,5221 #005221 #05221 #5221 05221,10 Glenwood Ave.,NY,13905
Big Lots,Jersey City,5222,5222 #005222 #05222 #5222 05222,725 US Rt 440,NJ,7304
Big Lots,Dover,5223,5223 #005223 #05223 #5223 05223,550 Mount Pleasant Ave.,NJ,7801
Big Lots,Morehead City,5224,5224 #005224 #05224 #5224 05224,2900 Arendell St.,NC,28557
Big Lots,Billerica,5225,5225 #005225 #05225 #5225 05225,480 Boston Rd,MA,1821
Big Lots,Hartsville,5226,5226 #005226 #05226 #5226 05226,139 Westfields Street,SC,29550
Big Lots,Stone Mountain,5227,5227 #005227 #05227 #5227 05227,5370 Stone Mountain Hwy,GA,30087
Big Lots,Bowie,5228,5228 #005228 #05228 #5228 05228,4420 Mitchelville Road,MD,20716
Big Lots,Burton,5229,5229 #005229 #05229 #5229 05229,4157 E. Court Street,MI,48509
Big Lots,Vero Beach,5230,5230 #005230 #05230 #5230 05230,6420 20th St.,FL,32966
Big Lots,Boyertown,5231,5231 #005231 #05231 #5231 05231,801 E. Philadelphia Avenue,PA,19512
Big Lots,Baton Rouge,5232,5232 #005232 #05232 #5232 05232,9606 Cortana Place,LA,70815
Big Lots,Birmingham,5233,5233 #005233 #05233 #5233 05233,5903 Trussville Crossing Parkway,AL,35235
Big Lots,Culpeper,5234,5234 #005234 #05234 #5234 05234,751 DOMINION SQ SHOPPING CTR,VA,22701
Big Lots,Fuquay-Varina,5235,5235 #005235 #05235 #5235 05235,600 Lakestone Commons Avenue,NC,27526
Big Lots,Hicksville,5236,5236 #005236 #05236 #5236 05236,275 S. Broadway,NY,11801
Big Lots,Belmont,5237,5237 #005237 #05237 #5237 05237,601 Park St.,NC,28012
Big Lots,Arden,5238,5238 #005238 #05238 #5238 05238,11 McKenna Rd,NC,28704
Big Lots,Dothan,5239,5239 #005239 #05239 #5239 05239,2821 Montgomery Highway,AL,36303
Big Lots,Northport,5240,5240 #005240 #05240 #5240 05240,5510 McFarland Blvd,AL,35476
Big Lots,Blue Springs,5241,5241 #005241 #05241 #5241 05241,603 West US Highway 40,MO,64014
Big Lots,Battle Creek,5242,5242 #005242 #05242 #5242 05242,5440 Beckley Rd,MI,49015
Big Lots,Columbus,5243,5243 #005243 #05243 #5243 05243,4260 West Broad St,OH,43228
Big Lots,Greece,5244,5244 #005244 #05244 #5244 05244,3660 Dewey Ave,NY,14616
Big Lots,New Milford,5245,5245 #005245 #05245 #5245 05245,169 Danbury Rd,CT,6776
Big Lots,Wilmington,5246,5246 #005246 #05246 #5246 05246,4439 Governor Printz Blvd.,DE,19802
Big Lots,Jacksonville,5247,5247 #005247 #05247 #5247 05247,1110 Western Blvd.,NC,28546
Big Lots,Palatine Bridge,5248,5248 #005248 #05248 #5248 05248,38 W. Main St,NY,13428
Big Lots,Barnegat,5249,5249 #005249 #05249 #5249 05249,580 North Main St (Rt 9),NJ,8005
Big Lots,Ann Arbor,5250,5250 #005250 #05250 #5250 05250,3140 Lohr Rd.,MI,48108
Big Lots,Orlando,5251,5251 #005251 #05251 #5251 05251,751 Good Homes Rd.,FL,32818
Big Lots,Edmond,5252,5252 #005252 #05252 #5252 05252,1600 S. Broadway,OK,73013
Big Lots,Washington,5253,5253 #005253 #05253 #5253 05253,"524 Rhode Island Avenue, N.E.",DC,20002
Big Lots,York,5254,5254 #005254 #05254 #5254 05254,2980 Whiteford Rd,PA,17402
Big Lots,Gallatin,5255,5255 #005255 #05255 #5255 05255,744 Nashville Pike,TN,37066
Big Lots,Benton Harbor,5256,5256 #005256 #05256 #5256 05256,1950 Pipestone Rd.,MI,49022
Big Lots,Livingston,5257,5257 #005257 #05257 #5257 05257,585 W Mount Pleasant Ave,NJ,7039
Big Lots,Whiteville,5258,5258 #005258 #05258 #5258 05258,28 White Crossing Plaza,NC,28472
Big Lots,Chester,5259,5259 #005259 #05259 #5259 05259,24 Kent Towne Market,MD,21619
Big Lots,Fairfax,5260,5260 #005260 #05260 #5260 05260,11181-A Lee Hwy,VA,22030
Big Lots,Wilkesboro,5261,5261 #005261 #05261 #5261 05261,1828 Winkler St,NC,28697
Big Lots,Granville,5262,5262 #005262 #05262 #5262 05262,70 Quaker St,NY,12832
Big Lots,Ontario,5263,5263 #005263 #05263 #5263 05263,1250 St. Rt. 104,NY,14519
Big Lots,Lee's Summit,5264,5264 #005264 #05264 #5264 05264,901 East Langsford Rd,MO,64063
Big Lots,Haines City,5265,5265 #005265 #05265 #5265 05265,35884 US Hwy 27,FL,33844
Big Lots,Cape May Court House,5266,5266 #005266 #05266 #5266 05266,20 Court House South Dennis Rd,NJ,8210
Big Lots,Menomonee Falls,5267,5267 #005267 #05267 #5267 05267,N78W14511 Appleton Avenue,WI,53051
Big Lots,Fairfield,5268,5268 #005268 #05268 #5268 05268,4613 Dixie Hwy,OH,45014
Big Lots,Harvey,5269,5269 #005269 #05269 #5269 05269,1600 West Bank Expressway,LA,70058
Big Lots,New Orleans,5270,5270 #005270 #05270 #5270 05270,6011 Bullard Ave.,LA,70128
Big Lots,Taylor,5271,5271 #005271 #05271 #5271 05271,23351 Eureka Rd.,MI,48180
Big Lots,New Smyrna Beach,5272,5272 #005272 #05272 #5272 05272,1998 State Road 44,FL,32168
Big Lots,Freehold,5273,5273 #005273 #05273 #5273 05273,220 Trotters Way,NJ,7728
Big Lots,Cortlandt Manor,5274,5274 #005274 #05274 #5274 05274,2990 E. Main Street,NY,10567
Big Lots,Chattanooga,5275,5275 #005275 #05275 #5275 05275,2020 Gunbarrel Rd.,TN,37421
Big Lots,Salisbury,5276,5276 #005276 #05276 #5276 05276,711 E. Innes St.,NC,28144
Big Lots,Delray Beach,5277,5277 #005277 #05277 #5277 05277,4801 Linton Blvd. A-15,FL,33445
Big Lots,Marion,5278,5278 #005278 #05278 #5278 05278,364 US 70 W,NC,28752
Big Lots,Norwich,5279,5279 #005279 #05279 #5279 05279,42 Town St.,CT,6360
Big Lots,Weaverville,5280,5280 #005280 #05280 #5280 05280,130 Weaver Blvd.,NC,28787
Big Lots,Alexandria,5281,5281 #005281 #05281 #5281 05281,5901 Stevenson Ave,VA,22304
Big Lots,Ephrata,5282,5282 #005282 #05282 #5282 05282,389 N. Reading Rd,PA,17522
Big Lots,Lumberton,5283,5283 #005283 #05283 #5283 05283,1636 Route 38,NJ,8048
Big Lots,Franklin,5284,5284 #005284 #05284 #5284 05284,1538 North Morton St,IN,46131
Big Lots,Leesburg,5285,5285 #005285 #05285 #5285 05285,1041 Edwards Ferry Rd. NE,VA,20176
Big Lots,Naples,5286,5286 #005286 #05286 #5286 05286,4149 Tamiami Trail North,FL,34103
Big Lots,Jackson,5287,5287 #005287 #05287 #5287 05287,1045 E County Line Rd,MS,39211
Big Lots,Florence,5288,5288 #005288 #05288 #5288 05288,2528 David H McLeod Blvd.,SC,29501
Big Lots,Gainesville,5289,5289 #005289 #05289 #5289 05289,2323 NW 13th St,FL,32609
Big Lots,Lutherville,5290,5290 #005290 #05290 #5290 05290,130 West Ridgely Rd,MD,21093
Big Lots,Rising Sun,5291,5291 #005291 #05291 #5291 05291,40 Rising Sun Town Center,MD,21911
Big Lots,Defiance,5292,5292 #005292 #05292 #5292 05292,1516 N Clinton St,OH,43512
Big Lots,Chester,5293,5293 #005293 #05293 #5293 05293,2660 Weir Place,VA,23831
Big Lots,Painted Post,5294,5294 #005294 #05294 #5294 05294,96 Victory Hwy (Rte. 415),NY,14870
Big Lots,Woodbridge,5295,5295 #005295 #05295 #5295 05295,471 Green St.,NJ,7095
Big Lots,Middletown,5296,5296 #005296 #05296 #5296 05296,820 Washington St.,CT,6457
Big Lots,Roanoke,5297,5297 #005297 #05297 #5297 05297,4350 Franklin Rd SW.,VA,24014
Big Lots,Akron,5298,5298 #005298 #05298 #5298 05298,426 East Waterloo Rd.,OH,44319
Big Lots,Evans,5299,5299 #005299 #05299 #5299 05299,526 N Belair Rd,GA,30809
Big Lots,Germantown,5300,5300 #005300 #05300 #5300 05300,20926 Frederick Rd,MD,20876
Big Lots,Hamilton,5301,5301 #005301 #05301 #5301 05301,102 Utica Street,NY,13346
Big Lots,Charlotte,5302,5302 #005302 #05302 #5302 05302,9535 South Blvd,NC,28273
Big Lots,Sunrise,5303,5303 #005303 #05303 #5303 05303,12751 West Sunrise Blvd,FL,33323
Big Lots,La Crosse,5304,5304 #005304 #05304 #5304 05304,3960 Mormon Coulee Rd,WI,54601
Big Lots,Mount Pleasant,5305,5305 #005305 #05305 #5305 05305,5415 Washington Ave.,WI,53406
Big Lots,Riverhead,5306,5306 #005306 #05306 #5306 05306,1103 Old Country Rd (Rte. 58),NY,11901
Big Lots,Madison,5307,5307 #005307 #05307 #5307 05307,674 S. Whitney Way,WI,53711
Big Lots,Montgomery,5309,5309 #005309 #05309 #5309 05309,6543 Atlanta Highway,AL,36117
Big Lots,Fayetteville,5310,5310 #005310 #05310 #5310 05310,3915 Ramsey St.,NC,28311
Big Lots,Moorseville,5311,5311 #005311 #05311 #5311 05311,376 West Plaza Dr.,NC,28117
Big Lots,Easley,5312,5312 #005312 #05312 #5312 05312,1023-A S. Pendleton St,SC,29642
Big Lots,Lithonia,5313,5313 #005313 #05313 #5313 05313,8150 Mall Parkway,GA,30038
Big Lots,Huber Heights,5314,5314 #005314 #05314 #5314 05314,5555 Executive Blvd,OH,45424
Big Lots,Duluth,5316,5316 #005316 #05316 #5316 05316,3950 Venture Dr.,GA,30096
Big Lots,Middletown,5318,5318 #005318 #05318 #5318 05318,4633 Roosevelt Blvd.,OH,45044
