keywords,city,Aggdata Store Number,store_number,address,state,zip_code
FireHouse Subs,Jacksonville,1,#1 1,9825 San Jose Blvd.,FL,32257
FireHouse Subs,Neptune Beach,2,#2 2,233 3rd St. N.,FL,32266
FireHouse Subs,Jacksonville,3,#3 3,8380-8 Baymeadows Rd.,FL,32256
FireHouse Subs,Jacksonville,4,#4 4,4347-1 University Blvd.,FL,32216
FireHouse Subs,Jacksonville,5,#5 5,8221-4 Southside Blvd.,FL,32256
FireHouse Subs,Jacksonville,6,#6 6,1855 Cassat Ave.,FL,32254
FireHouse Subs,Orange Park,8,#8 8,2285-B Kingsley Ave.,FL,32073
FireHouse Subs,Pineville,9,#9 9,9101 Pineville-Matthews Rd.,NC,28134
FireHouse Subs,Tallahassee,10,#10 10,1426 W. Tennessee St.,FL,32304
FireHouse Subs,Tallahassee,11,#11 11,3220 Apalachee ParkwaySte 8,FL,32311
FireHouse Subs,Jacksonville,12,#12 12,357 Marsh Landing Pkwy.,FL,32250
FireHouse Subs,Jacksonville,13,#13 13,13245-9 Atlantic Blvd.,FL,32225
FireHouse Subs,Pensacola,16,#16 16,2 E. 9 Mile Rd.,FL,32534
FireHouse Subs,Jacksonville,18,#18 18,1949-1 San Marco Blvd.,FL,32207
FireHouse Subs,Jacksonville,19,#19 19,465 State Road 13Suite 13,FL,32259
FireHouse Subs,Little Rock,20,#20 20,12312 Chenal Pkwy.Suite 40,AR,72211
FireHouse Subs,N. Little Rock,21,#21 21,2811 Lakewood Village Dr.,AR,72116
FireHouse Subs,Conway,22,#22 22,1240 Highway 64 W.,AR,72032
FireHouse Subs,Charlotte,24,#24 24,4732 South Blvd.,NC,28217
FireHouse Subs,Tallahassee,25,#25 25,1908-1 Capital Cir. NE,FL,32308
FireHouse Subs,Pace,26,#26 26,4367 Highway 90,FL,32571
FireHouse Subs,Fernandina Beach,27,#27 27,1978 S. 8th St.,FL,32034
FireHouse Subs,Pensacola,30,#30 30,6869 N. 9th Ave.,FL,32504
FireHouse Subs,Melbourne,31,#31 31,7640 N. Wickham Rd.Suite 112,FL,32940
FireHouse Subs,Middleburg,32,#32 32,2640 Blanding Blvd.Suite 210,FL,32068
FireHouse Subs,Pensacola,33,#33 33,1741 E. 9 Mile Rd.Suite 13,FL,32514
FireHouse Subs,Myrtle Beach,35,#35 35,1211 38th Ave. N.,SC,29577
FireHouse Subs,Gulf Breeze,36,#36 36,3755-C Gulf Breeze Pkwy.,FL,32563
FireHouse Subs,Melbourne,37,#37 37,4100 N. Wickham Rd.Suite 107,FL,32935
FireHouse Subs,Matthews,40,#40 40,1808 Windsor Sq. Dr.,NC,28105
FireHouse Subs,Vestavia Hills,41,#41 41,623 Montgomery Hwy.Unit 130,AL,35216
FireHouse Subs,Ft. Walton Beach,42,#42 42,75 Eglin PkwySuite 121,FL,32548
FireHouse Subs,Gulf Breeze,44,#44 44,318 Gulf Breeze Pkwy.,FL,32561
FireHouse Subs,Merritt Island,45,#45 45,125 Merritt Island CausewaySte. 129,FL,32952
FireHouse Subs,Crestview,46,#46 46,2252 S. Ferdon Blvd.,FL,32536
FireHouse Subs,Fayetteville,47,#47 47,1364 East Augustine LaneSte 2,AR,72703
FireHouse Subs,Martinez,48,#48 48,3836 Washington Rd.Suite 6,GA,30907
FireHouse Subs,Ocala,49,#49 49,2701 SW College Rd.Suite 108,FL,34474
FireHouse Subs,Lake Mary,50,#50 50,3587 Lake Emma Rd.,FL,32746
FireHouse Subs,Wesley Chapel,51,#51 51,1824 Bruce B. Downs Blvd.,FL,33544
FireHouse Subs,Daphne,52,#52 52,6890-6 Hwy. 90,AL,36526
FireHouse Subs,Altamonte Springs,53,#53 53,931 N. State Road 434Suite 1045,FL,3274
FireHouse Subs,Florence,54,#54 54,2108 S. Irby St.Suite 3,SC,29505
FireHouse Subs,Lynn Haven,55,#55 55,2310 Highway 77Suite 170,FL,32444
FireHouse Subs,Orlando,56,#56 56,4200 Conroy RoadSuite N 263,FL,32839
FireHouse Subs,Mobile,57,#57 57,3694 Airport Blvd.,AL,36608
FireHouse Subs,Winter Park,58,#58 58,419 S. Semoran Blvd.,FL,32792
FireHouse Subs,Montgomery,59,#59 59,6661 Atlanta Hwy.,AL,36117
FireHouse Subs,Tuscaloosa,60,#60 60,1130 University Blvd.Unit B-3,AL,35401
FireHouse Subs,Foley,65,#65 65,167 9th Ave.,AL,36535
FireHouse Subs,Marianna,66,#66 66,4918 Malloy Plaza,FL,32448
FireHouse Subs,Orlando,67,#67 67,411 S. Chickasaw Trail,FL,32825
FireHouse Subs,Bryant,69,#69 69,3108 Horizon St.Suite 9,AR,72022
FireHouse Subs,Mauldin,70,#70 70,301 W. Butler Rd.Unit C,SC,29662
FireHouse Subs,Tallahassee,71,#71 71,1420 Capital Cir. NW,FL,32304
FireHouse Subs,Jacksonville,72,#72 72,2245 County Road 210 W.Suite 11,FL,32259
FireHouse Subs,Fleming Island,73,#73 73,1581 County Road 220Suite 115,FL,32003
FireHouse Subs,Jacksonville,74,#74 74,6752-03 Normandy Blvd.,FL,32205
FireHouse Subs,Ft. Smith,75,#75 75,7805-C Rogers Ave.,AR,72903
FireHouse Subs,Tallahassee,76,#76 76,3491-5 Thomasville Rd.,FL,32309
FireHouse Subs,Little Rock,77,#77 77,10300 Rodney ParhamSuite D1,AR,72227
FireHouse Subs,Orlando,79,#79 79,4692 East Michigan St.,FL,32812
FireHouse Subs,Vero Beach,80,#80 80,6170 20th St.,FL,32966
FireHouse Subs,Charlotte,81,#81 81,8516 South Tryon St.Suite 105,NC,28273
FireHouse Subs,South Daytona,82,#82 82,1844 S. Ridgewood Ave.,FL,32119
FireHouse Subs,Bradenton,83,#83 83,621 Cortez Rd. W.,FL,34207
FireHouse Subs,Pinellas Park,84,#84 84,4394 Park Blvd.,FL,33781
FireHouse Subs,Panama City,86,#86 86,805 North Tydall Pkwy.,FL,32404
FireHouse Subs,Pensacola,87,#87 87,5010 Bayou Blvd.Suite 5,FL,32503
FireHouse Subs,Valdosta,89,#89 89,2525 N. Ashley St.Suite C,GA,31602
FireHouse Subs,Anderson,90,#90 90,3321 N. Main St.Suite D,SC,29621
FireHouse Subs,Dunedin,92,#92 92,1547 Main St.,FL,34698
FireHouse Subs,Jacksonville,94,#94 94,1038-1 Dunn Ave.,FL,32218
FireHouse Subs,Hickory,95,#95 95,2423 N. Center St.,NC,28601
FireHouse Subs,Hollywood,96,#96 96,3765 Hollywood Blvd.,FL,33021
FireHouse Subs,Navarre,97,#97 97,1894 Andorra St.Unit C3,FL,32566
FireHouse Subs,Pensacola,99,#99 99,120 S. New Warrington Rd.,FL,32507
FireHouse Subs,Valdosta,100,#100 100,1525 Baytree Rd.Suite B,GA,31602
FireHouse Subs,Fayetteville,101,#101 101,2612 W. Martin Luther King Blvd.,AR,72701
FireHouse Subs,Macon,102,#102 102,4921 Riverside Dr.,GA,31210
FireHouse Subs,DeLand,104,#104 104,217 N. Woodland Blvd.,FL,32720
FireHouse Subs,St. Augustine,105,#105 105,200 Cbl Dr.Suite 106,FL,32086
FireHouse Subs,Palm Coast,107,#107 107,1475 Palm Coast Pkwy.Suite 101,FL,32137
FireHouse Subs,Charlotte,109,#109 109,16049-K Johnston Rd.,NC,28277
FireHouse Subs,Auburn,110,#110 110,1907 S. College St.Suite 108,AL,36832
FireHouse Subs,Opelika,111,#111 111,3000 Pepperell Pkwy.Suite 7,AL,36801
FireHouse Subs,Charleston,112,#112 112,1836 Ashley River Rd.Suite I,SC,29407
FireHouse Subs,Ocoee,113,#113 113,8877 W. Colonial Dr.,FL,34761
FireHouse Subs,Irmo,114,#114 114,7467 St. Andrews Rd.,SC,29063
FireHouse Subs,Sarasota,115,#115 115,5416 Fruitville Rd.,FL,34232
FireHouse Subs,Kannapolis,116,#116 116,2251 Spider Dr. NE,NC,28083
FireHouse Subs,Gainesville,117,#117 117,3221 SW 35th Blvd.,FL,32608
FireHouse Subs,Ft. Myers,118,#118 118,7091 College Pkwy,FL,33907
FireHouse Subs,Huntsville,119,#119 119,6275 University Dr.,AL,35806
FireHouse Subs,Cary,122,#122 122,260 Grande Heights Dr.,NC,27513
FireHouse Subs,Orlando,123,#123 123,2217 E. Colonial Dr.,FL,32803
FireHouse Subs,Tampa,125,#125 125,13236 N. Dale Mabry Hwy,FL,33618
FireHouse Subs,Hattiesburg,128,#128 128,6106 Hwy. 98 W.Suite 10,MS,39402
FireHouse Subs,Orlando,129,#129 129,5812 Conroy Rd.,FL,32835
FireHouse Subs,Orlando,130,#130 130,338 E. Michigan St.,FL,32806
FireHouse Subs,Greenville,131,#131 131,219 Pelham Rd.Unit A,SC,29615
FireHouse Subs,Orlando,132,#132 132,12075a Collegiate Way,FL,32187
FireHouse Subs,Birmingham,135,#135 135,5269 Hwy 280 S.Suite B-8,AL,35242
FireHouse Subs,Jonesboro,136,#136 136,401 Southwest Dr.,AR,72401
FireHouse Subs,Albany,138,#138 138,2416 Dawson Rd.Suite C,GA,31707
FireHouse Subs,Dothan,139,#139 139,3850 W. Main StreetUnit 806,AL,36305
FireHouse Subs,N. Augusta,140,#140 140,1237 Knox Ave. N.,SC,29841
FireHouse Subs,Myrtle Beach,141,#141 141,5407 Dick Pond Road,SC,29588
FireHouse Subs,St. Petersburg,142,#142 142,4949 4th Street N.,FL,33703
FireHouse Subs,Sarasota,143,#143 143,4400 Bee Ridge Road,FL,34233
FireHouse Subs,Huntsville,148,#148 148,2750 Carl T. Jones Dr.Suite 810,AL,35802
FireHouse Subs,San Antonio,152,#152 152,5887 Babcock Road,TX,78240
FireHouse Subs,Melbourne,153,#153 153,1080 N. Wickham Rd.Suite C,FL,32935
FireHouse Subs,Lenoir,155,#155 155,417 Blowing Rock Blvd.,NC,28645
FireHouse Subs,Jacksonville,156,#156 156,4268 Oldfield Crossing Drive,FL,32223
FireHouse Subs,Brandon,157,#157 157,1921 W. Brandon Blvd.,FL,33511
FireHouse Subs,North Charleston,158,#158 158,"7250 Rivers Ave.Bldg. 200, Suite 5",SC,29406
FireHouse Subs,Surfside Beach,159,#159 159,1610 Hwy. 17 South,SC,29575
FireHouse Subs,Fort Smith,160,#160 160,2307 Zero StreetSuite 101,AR,72901
FireHouse Subs,Warner Robins,161,#161 161,206 Russell PkwySuite 100,GA,31088
FireHouse Subs,Taylors,162,#162 162,3023 Wade Hampton Blvd.Suite A,SC,29687
FireHouse Subs,Tampa,164,#164 164,2710 Fowler Ave.Unit 3,FL,33612
FireHouse Subs,Largo,165,#165 165,2401 East Bay Dr.,FL,33777
FireHouse Subs,Evans,166,#166 166,4431 Washington Rd.Suite 1,GA,30809
FireHouse Subs,Maitland,168,#168 168,421 S. Orlando Ave.,FL,32751
FireHouse Subs,Johns Creek,169,#169 169,3005 Old Alabama RoadSuite 6001,GA,30022
FireHouse Subs,Snellville,170,#170 170,1830 Scenic Highway,GA,30078
FireHouse Subs,St. Cloud,171,#171 171,4554 13th Street,FL,34741
FireHouse Subs,Panama City,172,#172 172,668 West 23rd St.,FL,32405
FireHouse Subs,Sanford,173,#173 173,3248 NC Route 87 South,NC,27330
FireHouse Subs,Bradenton,176,#176 176,4017 Manatee Ave.,FL,34205
FireHouse Subs,Raleigh,178,#178 178,10251 Little Brier Creek Lane,NC,27617
FireHouse Subs,Dothan,179,#179 179,3255 South Oates StreetSuite 8,AL,36301
FireHouse Subs,Palm Harbor,182,#182 182,3434 East Lake RoadSuite 1,FL,34685
FireHouse Subs,Roanoke,183,#183 183,2019 Colonial Ave.,VA,24015
FireHouse Subs,Lakeland,185,#185 185,3615 S. Florida Ave.Suite 820,FL,33803
FireHouse Subs,Mobile,186,#186 186,5300-C Hallsmill Rd.,AL,36619
FireHouse Subs,Woodstock,188,#188 188,9745-D Hwy 92,GA,30188
FireHouse Subs,Roswell,189,#189 189,10779 Alpharetta HighwaySuite 180,GA,30076
FireHouse Subs,Clemson,190,#190 190,385 College Ave,SC,29631
FireHouse Subs,Knoxville,191,#191 191,1708 W. Cumberland Ave.,TN,37916
FireHouse Subs,North Myrtle Beach,192,#192 192,560 Highway 17 N.,SC,29582
FireHouse Subs,Jacksonville,194,#194 194,10261 River Marsh Dr.Suite 131,FL,32246
FireHouse Subs,Orlando,195,#195 195,1790 W. Sand Lake Rd.Suite B-134,FL,32809
FireHouse Subs,Orlando,196,#196 196,13502 Village Park DrSuite 106,FL,32837
FireHouse Subs,Lexington,197,#197 197,109 Old Chapin Road,SC,29072
FireHouse Subs,San Antonio,198,#198 198,19141 Stone Oak PkwySuite 101,TX,78258
FireHouse Subs,Kissimmee,200,#200 200,1305 W. Vine St.,FL,34741
FireHouse Subs,Mt. Pleasant,203,#203 203,623 Johnnie Dodds Blvd.,SC,29465
FireHouse Subs,Tallahassee,205,#205 205,2580 N. Monroe St.Suite 1,FL,32303
FireHouse Subs,Tampa,206,#206 206,8428 W. Hillsborough Ave.,FL,33615
FireHouse Subs,Ormond Beach,208,#208 208,175 S. Nova Rd.Suite 8,FL,32174
FireHouse Subs,Jacksonville,210,#210 210,6352 103rd. St.Suite 5,FL,32210
FireHouse Subs,Macon,213,#213 213,4123 Forsyth RdSuite A,GA,31208
FireHouse Subs,Venice,214,#214 214,1570 Venice Bypass,FL,34292
FireHouse Subs,Shreveport,216,#216 216,7230 Youree Dr.Suite 113,LA,71105
FireHouse Subs,Sanford,218,#218 218,1625 W.P. Ball Blvd.,FL,32771
FireHouse Subs,Charlotte,219,#219 219,2700 W. Mallard Creek Church Rd.Suite #220,NC,28262
FireHouse Subs,San Antonio,220,#220 220,1802 N. Loop 1604 E.Suite 104,TX,78232
FireHouse Subs,Gadsden,222,#222 222,332 E. Meighan Blvd.Suite G-3,AL,35903
FireHouse Subs,Jacksonville,223,#223 223,6331 Roosevelt Blvd.Suite 6,FL,32244
FireHouse Subs,Chattanooga,225,#225 225,6025 E. Brainerd Rd.Suite 110,TN,37421
FireHouse Subs,Winter Haven,227,#227 227,1107 3rd. St. SWSuite 6,FL,33880
FireHouse Subs,Columbus,228,#228 228,2501 Whittlesey Rd.Suite H,GA,31909
FireHouse Subs,Thomasville,229,#229 229,14815 Hwy. 19 S.Suite 700,GA,31792
FireHouse Subs,Birmingham,231,#231 231,1483 Gadsden HwySuite 132,AL,35235
FireHouse Subs,Lovejoy,232,#232 232,11348 Tara BoulevardSuite 108,GA,30250
FireHouse Subs,Apex,233,#233 233,1047 Beaver Creek Commons Drive,NC,27502
FireHouse Subs,Aiken,235,#235 235,152 South Aiken Lane,SC,29803
FireHouse Subs,Cedar Park,236,#236 236,1540 Cypress Creek Road,TX,7863
FireHouse Subs,Carrollton,239,#239 239,1202 South Park St.Suite E,GA,30117
FireHouse Subs,Knoxville,240,#240 240,8853 Town and Country Cir,TN,37923
FireHouse Subs,Columbus,242,#242 242,3201 Macon RoadSuite 263,GA,31906
FireHouse Subs,Gainesville,243,#243 243,1412 W. University AvenueSuite 1,FL,32603
FireHouse Subs,Easley,245,#245 245,6310 Calhoun Memorial Highway,SC,29640
FireHouse Subs,Warner Robins,248,#248 248,4025 Watson Blvd.Suite 100,GA,31093
FireHouse Subs,Atlanta,249,#249 249,537 10th St. NW,GA,30318
FireHouse Subs,Orlando,250,#250 250,7541 West Sand Lake Rd.Ste A,FL,32819
FireHouse Subs,Houston,253,#253 253,12149 FM 1960 WestSuite A,TX,77065
FireHouse Subs,Lithonia,255,#255 255,8075 Mall Pkwy,GA,30038
FireHouse Subs,Columbia,256,#256 256,10136-B Two Notch Rd.,SC,29229
FireHouse Subs,Jacksonville,257,#257 257,1234 Beach Blvd.,FL,32250
FireHouse Subs,Boiling Springs,258,#258 258,3605 Boiling Springs Rd.,SC,29316
FireHouse Subs,Marietta,260,#260 260,1100 Johnson Ferry RoadSuite 395,GA,30068
FireHouse Subs,Orlando,261,#261 261,6601 Old Winter Garden Rd.,FL,32835
FireHouse Subs,Norcross,262,#262 262,3400 Holcomb Bridge Rd.Suite 300,GA,30092
FireHouse Subs,Van Buren,264,#264 264,2008 Fayetteville Rd.Suite B,AR,72956
FireHouse Subs,Live Oak,265,#265 265,8380 Agora Pkwy,TX,78154
FireHouse Subs,Germantown,266,#266 266,7685 Farmington Blvd.Suite 108,TN,38138
FireHouse Subs,Cumming,267,#267 267,2320 Atlanta HwySuite 102,GA,30040
FireHouse Subs,Atlanta,270,#270 270,2221 Peachtree Rd.Suite A,GA,30309
FireHouse Subs,Concord,272,#272 272,7712 Sossaman LaneSuite 100,NC,28027
FireHouse Subs,Greenville,273,#273 273,2106 Augusta Rd.,SC,29605
FireHouse Subs,Wilmington,276,#276 276,3608 Oleander DriveUnit D,NC,28403
FireHouse Subs,Fort Lauderdale,277,#277 277,1824 Cordova Rd,FL,3336
FireHouse Subs,Hattiesburg,278,#278 278,2401 Hardy St,MS,39401
FireHouse Subs,New Port Richey,279,#279 279,8352 Little Rd.,FL,34654
FireHouse Subs,North Little Rock,280,#280 280,11617 Maumelle Blvd.,AR,72113
FireHouse Subs,Mobile,282,#282 282,6808 Airport Blvd.Suite C,AL,36608
FireHouse Subs,Durham,283,#283 283,5319 New Hope Commons ExtensionSuite 104,NC,27707
FireHouse Subs,Glen Allen,285,#285 285,4028-K Cox Road.,VA,23060
FireHouse Subs,Suffolk,286,#286 286,1201 N. Main St.,VA,23434
FireHouse Subs,Augusta,288,#288 288,1509 Walton Way,GA,30904
FireHouse Subs,Frisco,290,#290 290,3184 Preston Rd.,TX,75034
FireHouse Subs,High Point,291,#291 291,5815 Samet Drive,NC,27265
FireHouse Subs,Lady Lake,292,#292 292,13757 US Hwy 441,FL,32159
FireHouse Subs,Homewood,294,#294 294,429 Green Springs HwySuite 131,AL,35209
FireHouse Subs,Virginia Beach,295,#295 295,1577 Laskin Rd.Suite 101,VA,23451
FireHouse Subs,Fredericksburg,298,#298 298,1420 Carl D. Silver Parkway,VA,22401
FireHouse Subs,Orlando,299,#299 299,10725 East Colonial Dr.,FL,32817
FireHouse Subs,Lexington,301,#301 301,535 S. Upper St.Suite 175,KY,40508
FireHouse Subs,Kingstowne,302,#302 302,5900 Kingstowne Towne CenterSuite 120,VA,22315
FireHouse Subs,Valrico,303,#303 303,1013 East Bloomingdale Ave.,FL,33596
FireHouse Subs,Mobile,306,#306 306,6300 Grelot Rd.,AL,36695
FireHouse Subs,Columbia,307,#307 307,633 S. Main St.,SC,29201
FireHouse Subs,Orlando,308,#308 308,5691 S. Semoran Blvd.,FL,32822
FireHouse Subs,McDonough,309,#309 309,1487 Hwy. 20 West,GA,30253
FireHouse Subs,Kennesaw,310,#310 310,745 Chastain Rd. NW,GA,30144
FireHouse Subs,Memphis,311,#311 311,7505 Highway 64Suite 109,TN,38133
FireHouse Subs,Oak Ridge,312,#312 312,1143 Oak Ridge TurnpikeSuite 109,TN,37830
FireHouse Subs,Asheville,313,#313 313,105-B Riverhills Road,NC,28805
FireHouse Subs,Knoxville,314,#314 314,5226 N. Broadway,TN,37918
FireHouse Subs,Cleveland,315,#315 315,201 Keith St. SWSuite 18,TN,37311
FireHouse Subs,Chattanooga,316,#316 316,3849 Dayton Blvd.Suite 101,TN,37415
FireHouse Subs,Macon,318,#318 318,4640 Presidential PkwySuite A,GA,31206
FireHouse Subs,Chapel Hill,319,#319 319,603 Meadowmont Village Cir.,NC,27517
FireHouse Subs,Sunrise,320,#320 320,134 Weston Rd.,FL,33326
FireHouse Subs,Suffolk,321,#321 321,6255 College Dr.Suite K,VA,23435
FireHouse Subs,Rockwall,322,#322 322,1067 E. I-30#107,TX,75087
FireHouse Subs,Apopka,324,#324 324,3309 E. State Road 436Suite 1013,FL,32703
FireHouse Subs,Durham,325,#325 325,2608 Erwin Rd.Suite 128,NC,27705
FireHouse Subs,Chandler,327,#327 327,3245 W. Ray Rd.Suite 1,AZ,85226
FireHouse Subs,Arlington,328,#328 328,1001 W. Arbrook Blvd.,TX,76015
FireHouse Subs,Charlotte,329,#329 329,9335 Center Lake Dr.,NC,28216
FireHouse Subs,Las Vegas,330,#330 330,9555 S. Eastern Ave.Ste 130,NV,89123
FireHouse Subs,Houston,331,#331 331,17758 Katy FreewaySuite 7,TX,77094
FireHouse Subs,Hiram,333,#333 333,4795 Jimmy Lee Smith PkwySuite 105,GA,30141
FireHouse Subs,Indian Trail,334,#334 334,14039 Hwy 74 E.,NC,28079
FireHouse Subs,Boynton Beach,335,#335 335,975 Gateway BlvdUnit 113,FL,33426
FireHouse Subs,Farmers Branch,340,#340 340,13465 Inwood Rd.Suite 500,TX,75244
FireHouse Subs,Madison,341,#341 341,8572 Madison Blvd.Unit U,AL,35758
FireHouse Subs,Birmingham,342,#342 342,4704 Cahaba River Rd.Suite J-1,AL,35243
FireHouse Subs,Greer,346,#346 346,1205-A West Wade Hampton Blvd.,SC,29650
FireHouse Subs,Augusta,347,#347 347,3424 Wrightsboro Rd.Suite 300,GA,30309
FireHouse Subs,Richmond,349,#349 349,11553 Busy St.,VA,23236
FireHouse Subs,Huntsville,352,#352 352,3022 Memorial Pkwy,AL,35802
FireHouse Subs,Frisco,355,#355 355,5999 Custer Rd.Ste 100,TX,75035
FireHouse Subs,Tampa,356,#356 356,2227 S. Dale Mabry Hwy,FL,33629
FireHouse Subs,Duncan,357,#357 357,1634 E. Main St.,SC,29334
FireHouse Subs,Spartanburg,358,#358 358,127 East Blackstock RoadSuite 700,SC,29301
FireHouse Subs,Lawrenceville,359,#359 359,3375 Sugarloaf ParkwaySuite 105,GA,30044
FireHouse Subs,Austin,362,#362 362,"4301 W. William Cannon Dr.Bldg B, Suite 180",TX,78749
FireHouse Subs,Lewisville,363,#363 363,2325 S Stemmons FwySuite 308,TX,75067
FireHouse Subs,Arden,364,#364 364,100 Julian LaneSuite 150,NC,28704
FireHouse Subs,Brunswick,366,#366 366,919 Glyn Isles,GA,31525
FireHouse Subs,Seneca,367,#367 367,1026 Bypass 123Suite B,SC,29678
FireHouse Subs,Winder,369,#369 369,108 E. May St.Suite 800,GA,30680
FireHouse Subs,Tulsa,370,#370 370,6630 S. Memorial Dr.,OK,74133
FireHouse Subs,Memphis,371,#371 371,5062 Park Avenue,TN,38117
FireHouse Subs,Savannah,373,#373 373,8108 Abercorn StreetSuite 430,GA,31406
FireHouse Subs,Enterprise,374,#374 374,607-E Boll Weevil Cir.,AL,36330
FireHouse Subs,Salem,375,#375 375,1421 W. Main St.,VA,24153
FireHouse Subs,Rockledge,377,#377 377,1852 S. Rockledge Blvd.,FL,32955
FireHouse Subs,Alabaster,378,#378 378,100 South Colonial Dr.Suite 1200,AL,35007
FireHouse Subs,Round Rock,380,#380 380,3151 S I H 35Ste 630,TX,78664
FireHouse Subs,Euless,381,#381 381,2750 State Hwy 121Suite 500,TX,76039
FireHouse Subs,Sandy Springs,382,#382 382,6309 Roswell Rd. NESuite 1b,GA,30328
FireHouse Subs,Chesapeake,386,#386 386,836 Eden Way NorthSuite 1456B,VA,23320
FireHouse Subs,Virginia Beach,387,#387 387,3388 Princess Anne Rd,VA,23456
FireHouse Subs,Richmond,388,#388 388,9069 Staples Mill Road,VA,23228
FireHouse Subs,Charleston,389,#389 389,3032 W. MontagueUnit 104,SC,29418
FireHouse Subs,Houston,390,#390 390,9359 Katy Freeway,TX,77024
FireHouse Subs,West Melbourne,391,#391 391,2251 West New Haven Ave.,FL,32904
FireHouse Subs,Knoxville,392,#392 392,2431 Callahan Dr,TN,37912
FireHouse Subs,Rome,393,#393 393,723 Turner Mccall Blvd,GA,30165
FireHouse Subs,Knoxville,394,#394 394,128 Buckingham Dr.,TN,37909
FireHouse Subs,Maryville,395,#395 395,419 S. Washington Street,TN,37804
FireHouse Subs,Wilmington,397,#397 397,5920 Carolina Beach Rd.,NC,28412
FireHouse Subs,Bentonville,398,#398 398,3511 J St.,AR,72712
FireHouse Subs,Irving,399,#399 399,7601 N. MacarthurSuite 140,TX,75063
FireHouse Subs,N. Richland Hills,400,#400 400,6020 Parker Blvd.,TX,76180
FireHouse Subs,Garland,402,#402 402,3003 N. President George Bush Fwy,TX,75040
FireHouse Subs,Houston,403,#403 403,3924 Bellaire Blvd.,TX,77025
FireHouse Subs,Greenwood,404,#404 404,310 Hwy. 72 Bypass Nw,SC,29649
FireHouse Subs,Fort Worth,406,#406 406,2901 Western Center Blvd.Suite 145,TX,76131
FireHouse Subs,Tallahassee,407,#407 407,6676 Thomasville RdUnit 2,FL,32312
FireHouse Subs,Southaven,408,#408 408,7111 Southcrest ParkwaySuite 11,MS,38671
FireHouse Subs,Gainesville,409,#409 409,333 Shallowford Rd. NWSuite D,GA,30504
FireHouse Subs,Columbia,410,#410 410,4546 Hardscrabble Rd.,SC,29229
FireHouse Subs,Fairfax,411,#411 411,12120 Fairfax Towne Center,VA,22033
FireHouse Subs,Athens,412,#412 412,1812 Decatur Pike,TN,37303
FireHouse Subs,Casselberry,414,#414 414,1455 Semoran Blvd.Suite 295,FL,32707
FireHouse Subs,Tucker,416,#416 416,4306 Lawrenceville HighwaySuite 130,GA,30084
FireHouse Subs,Buford,417,#417 417,3350 Buford DriveSuite A120,GA,30519
FireHouse Subs,Aiken,419,#419 419,3555 Richland Ave. West,SC,29801
FireHouse Subs,Fredericksburg,421,#421 421,5426 Jefferson Davis Hwy.Suite 108,VA,22407
FireHouse Subs,Richmond,422,#422 422,4501 South Laburnum Ave.,VA,23231
FireHouse Subs,Spring,423,#423 423,257 Cypresswood Dr.,TX,77388
FireHouse Subs,Winter Springs,424,#424 424,5285 Red Bug Lake Rd.Ste 129,FL,32708
FireHouse Subs,Webster,425,#425 425,304 W. Bay Area Blvd.Suite 100,TX,77598
FireHouse Subs,Miami Lakes,427,#427 427,16010 Northwest 57th Ave.Ste 118,FL,33014
FireHouse Subs,Milton,428,#428 428,13087 Hwy 9Suite 930,GA,30004
FireHouse Subs,Austin,431,#431 431,11101 Burnet Rd.Suite 120,TX,78758
FireHouse Subs,Lynchburg,432,#432 432,4018 Wards Rd.,VA,24502
FireHouse Subs,Frisco,434,#434 434,6025 Main Street,TX,75034
FireHouse Subs,Sherman,435,#435 435,853 North Creek Dr.,TX,75092
FireHouse Subs,Chattanooga,439,#439 439,1820 Gunbarrel Rd.Suite 700,TN,37421
FireHouse Subs,Stockbridge,440,#440 440,1465 Hudson Bridge Rd.Suite 109,GA,30281
FireHouse Subs,Manassas,443,#443 443,8097 Sudley Rd.,VA,20109
FireHouse Subs,Kansas City,444,#444 444,8934 NW Skyview Ave.,MO,61454
FireHouse Subs,Columbia,446,#446 446,150-A Harbison Blvd.,SC,29212
FireHouse Subs,Huntersville,447,#447 447,9826 Gilead Rd.Ste C-102,NC,28078
FireHouse Subs,Powell,449,#449 449,603 E. Emory Rd.Suite 106,TN,37849
FireHouse Subs,Mechanicsville,451,#451 451,6300-D Mechanicsville Turnpike,VA,23111
FireHouse Subs,Thornton,452,#452 452,10060 Grant St,CO,80229
FireHouse Subs,Mesa,453,#453 453,3420 E. Baseline Rd.Suite 101,AZ,85204
FireHouse Subs,Florence,454,#454 454,3007-B West Radio Dr.,SC,29501
FireHouse Subs,Burleson,455,#455 455,12650 South Freeway,TX,76028
FireHouse Subs,College Station,456,#456 456,1507 S. Texas Ave.,TX,77840
FireHouse Subs,Round Rock,458,#458 458,201 University Oaks Blvd.Ste 1200,TX,78665
FireHouse Subs,Frederick,459,#459 459,5100 Buckeystown PikeSte 194,MD,21704
FireHouse Subs,West Columbia,460,#460 460,2805-B Sunset Blvd.,SC,29169
FireHouse Subs,Daphne,461,#461 461,9912 Dimitrious Ave,AL,36526
FireHouse Subs,Sumter,462,#462 462,1293 Broad St.,SC,29150
FireHouse Subs,Austin,465,#465 465,7318 McNeil Dr.Suite 105,TX,78729
FireHouse Subs,Cedar Park,466,#466 466,1465 E. Whitestone Blvd.Suite H-340,TX,78613
FireHouse Subs,Georgetown,467,#467 467,1003 West University Dr.Ste 110,TX,78628
FireHouse Subs,Hermitage,468,#468 468,5225 Old Hickory Blvd.Ste 203,TN,37076
FireHouse Subs,Lake Worth,469,#469 469,6060 Azle Ave.Ste 900,TX,76135
FireHouse Subs,Roanoke,472,#472 472,5044 Keagy Rd.,VA,24018
FireHouse Subs,Savannah,478,#478 478,1935 East Victory Dr.Ste 200,GA,31404
FireHouse Subs,Panama City Beach,479,#479 479,11560 Panama City Beach Parkway,FL,32413
FireHouse Subs,Leesburg,480,#480 480,709 North 14th St.,FL,34748
FireHouse Subs,Knoxville,482,#482 482,10728 Hardin Valley Rd.,TN,37932
FireHouse Subs,Clermont,483,#483 483,1500 Oakley Seaver Dr.,FL,34711
FireHouse Subs,Kansas City,484,#484 484,4167 Sterling,MO,64133
FireHouse Subs,Louisville,486,#486 486,215 South Hurstbourne PkwySte 104,KY,40222
FireHouse Subs,Garner,487,#487 487,1539 Highway 70Ste 1551,NC,27529
FireHouse Subs,Virginia Beach,488,#488 488,5224 Indian River Rd.Ste 101,VA,23464
FireHouse Subs,Lubbock,489,#489 489,411 University Ave.Ste 200,TX,79401
FireHouse Subs,Martinez,490,#490 490,101 Maple DriveSte 1,GA,30907
FireHouse Subs,Indianapolis,491,#491 491,3516 W. 86th St.,IN,46268
FireHouse Subs,Clearwater,492,#492 492,401 S. Belcher Rd.,FL,33765
FireHouse Subs,Charlotte,493,#493 493,8020 Providence Rd.,NC,28277
FireHouse Subs,Statesboro,494,#494 494,600 Brannen StreetSuite A,GA,30458
FireHouse Subs,Stafford,495,#495 495,1465 Stafford Market Place,VA,22556
FireHouse Subs,Avon,496,#496 496,10726 East US Highway 36,IN,46123
FireHouse Subs,Beaufort,497,#497 497,2219 Boundary St,SC,29902
FireHouse Subs,Smyrna,498,#498 498,337 West Sam Ridley Pkwy,TN,37167
FireHouse Subs,Knoxville,499,#499 499,4916 Kingston Pike,TN,37919
FireHouse Subs,Highlands Ranch,500,#500 500,9559 S. University Blvd.Ste 108,CO,80126
FireHouse Subs,Williamsburg,502,#502 502,1430 Richmond Rd.Ste 1105,VA,23185
FireHouse Subs,Boulder,503,#503 503,1695 29th Street,CO,80301
FireHouse Subs,Concord,505,#505 505,8111 Concord Mills Blvd.Ste 670,NC,28027
FireHouse Subs,Goodlettsville,506,#506 506,480 Long Hollow Pike,TN,37072
FireHouse Subs,Jacksonville,507,#507 507,13470 Beach Boulevard,FL,32224
FireHouse Subs,Wheaton,508,#508 508,272 Danada Square West,IL,60189
FireHouse Subs,Sevierville,509,#509 509,209 Middle Creek Rd.,TN,37862
FireHouse Subs,Flowood,510,#510 510,153 Ridge WaySuite D,MS,39232
FireHouse Subs,Royal Palm Beach,511,#511 511,10229 Okeechobee Blvd.,FL,33411
FireHouse Subs,Norfolk,513,#513 513,1560 Mall Dr.,VA,23511
FireHouse Subs,Columbus,515,#515 515,2140 Polaris Parkway,OH,43240
FireHouse Subs,Duluth,516,#516 516,1950 Satellite Blvd.Suite 100,GA,30097
FireHouse Subs,Hendersonville,517,#517 517,825 Spartanburg HighwaySte. 18,NC,28792
FireHouse Subs,Columbus,518,#518 518,6454 Sawmill Rd.,OH,43235
FireHouse Subs,Midvale,519,#519 519,1008 East Ft. Union Blvd.,UT,84047
FireHouse Subs,Murphy,520,#520 520,231 East Fm 544#701,TX,75094
FireHouse Subs,Glendale,522,#522 522,20165 N 67th Ave.Ste. 122B,AZ,85308
FireHouse Subs,Pearland,523,#523 523,10201 BroadwaySuite 109,TX,77584
FireHouse Subs,Killeen,525,#525 525,1000 Lowes Blvd.#400,TX,76543
FireHouse Subs,Nashville,526,#526 526,6606 Charlotte PikeSuite 101,TN,37205
FireHouse Subs,Griffin,527,#527 527,118 West Taylor St,GA,30223
FireHouse Subs,Cary,528,#528 528,100-B Wrenn Dr.,NC,27511
FireHouse Subs,Smyrna,529,#529 529,4624 Camp Highland Rd. SESuite 1000,GA,30082
FireHouse Subs,Annandale,530,#530 530,6550 Little River TurnpikeSuite H,VA,22312
FireHouse Subs,Winston-Salem,532,#532 532,205 S. Stratford Rd.,NC,27103
FireHouse Subs,Las Vegas,534,#534 534,7290 W. Lake Mead Blvd.Ste 100,NV,89128
FireHouse Subs,Colonial Heights,535,#535 535,334 Southpark Cir,VA,23834
FireHouse Subs,Acworth,536,#536 536,3348 Cobb Parkway N WSuite 120,GA,30101
FireHouse Subs,Plano,537,#537 537,2304 Coit Rd.Ste 680,TX,75075
FireHouse Subs,Bossier City,538,#538 538,3011 Airline Drive,LA,71111
FireHouse Subs,Sandy,539,#539 539,10325 South State St.,UT,84070
FireHouse Subs,Sugar Land,540,#540 540,3135 Highway 6 South,TX,77478
FireHouse Subs,Lake City,543,#543 543,2929 W US Hwy 90#102,FL,32055
FireHouse Subs,Texarkana,544,#544 544,3213 Kennedy Lane,TX,75503
FireHouse Subs,Jacksonville,545,#545 545,331-A Western Blvd.,NC,28546
FireHouse Subs,Noblesville,546,#546 546,17053 Mercantile Blvd.,IN,46060
FireHouse Subs,Sandy Springs,548,#548 548,5610 Glenridge Dr.,GA,30342
FireHouse Subs,West Chester,549,#549 549,7770 Dudley Drive,OH,45069
FireHouse Subs,Ft. Walton Beach,550,#550 550,796 Beal Street,FL,32569
FireHouse Subs,Overland Park,551,#551 551,7521 W. 119th St.,KS,66213
FireHouse Subs,Charlotte,552,#552 552,210 East Trade St.C-246,NC,28202
FireHouse Subs,Kansas City,553,#553 553,4628 J C Nichols Pkwy,MO,64112
FireHouse Subs,Houston,554,#554 554,170 Meyerland Plaza,TX,77096
FireHouse Subs,Albuquerque,555,#555 555,8050 Academy Rd,NM,87111
FireHouse Subs,Blacksburg,556,#556 556,800 University City Blvd.,VA,24060
FireHouse Subs,Coral Springs,557,#557 557,2070 N. University Dr.,FL,33071
FireHouse Subs,Macclenny,558,#558 558,1452 South Sixth Street,FL,32063
FireHouse Subs,St. Petersburg,559,#559 559,10490 Roosevelt Blvd,FL,33716
FireHouse Subs,Lakewood,560,#560 560,650 S. Wadsworth Blvd.Ste I,CO,80226
FireHouse Subs,Nashville,561,#561 561,708 Thompson Lane,TN,37204
FireHouse Subs,Bluffton,562,#562 562,32 Malphrus Rd,SC,29910
FireHouse Subs,Charleston,563,#563 563,357 King St.,SC,29401
FireHouse Subs,Mesa,565,#565 565,1829 N. Power Rd.Ste. 109,AZ,85205
FireHouse Subs,Tucson,566,#566 566,3844 W. River Road#110,AZ,85741
FireHouse Subs,Olathe,567,#567 567,15137 W. 119th Street,KS,66062
FireHouse Subs,Rogers,569,#569 569,2009 Promenade Blvd.,AR,72758
FireHouse Subs,Parker,570,#570 570,11280 S. Twenty Mile Rd.,CO,80134
FireHouse Subs,Las Vegas,571,#571 571,9540 W. Flamingo Ave.#165,NV,89147
FireHouse Subs,White Hall,572,#572 572,9644 Mall Loop Road,WV,26554
FireHouse Subs,Lexington,573,#573 573,1781 Sharkey Way,KY,40511
FireHouse Subs,Oxford,574,#574 574,1501 Jackson Ave WestSuite 107,MS,38655
FireHouse Subs,Farragut,575,#575 575,119 Brooklawn St,TN,37934
FireHouse Subs,Greenville,576,#576 576,3935 Pelham RoadSuite E,SC,29615
FireHouse Subs,Lawrenceville,577,#577 577,860 Duluth HwySuite 1040,GA,30043
FireHouse Subs,Ocala,579,#579 579,4905 E. Silver Springs Blvd.,FL,34470
FireHouse Subs,Troy,581,#581 581,1007 US 231 South,AL,36081
FireHouse Subs,Frazer,582,#582 582,235 Lancaster Ave,PA,19355
FireHouse Subs,Jacksonville,583,#583 583,140 John Harden DriveSte 8,AR,72076
FireHouse Subs,Plainfield,584,#584 584,1850 East Main St.,IN,46168
FireHouse Subs,Dublin,585,#585 585,2102 Veterans Blvd.Suite B,GA,31021
FireHouse Subs,Cincinnati,586,#586 586,4750 Fields Ertel Road,OH,45249
FireHouse Subs,Decatur,587,#587 587,2812 Spring Ave. SWSte G,AL,35603
FireHouse Subs,Phoenix,588,#588 588,2836 E. Indian School RoadSte A5-6,AZ,85016
FireHouse Subs,Houston,590,#590 590,10916 Westheimer Rd.,TX,77042
FireHouse Subs,Richmond,591,#591 591,8191-A Brook Road,VA,23227
FireHouse Subs,Covington,592,#592 592,6021 Pinnacle Parkway,LA,70433
FireHouse Subs,Lake Worth,595,#595 595,6169 Jog RdA-1,FL,33467
FireHouse Subs,Daytona Beach,596,#596 596,2525 W. International SpeedwaySuite 170,FL,32114
FireHouse Subs,Deer Park,597,#597 597,3717 Center St.Ste. E,TX,77536
FireHouse Subs,Murfreesboro,598,#598 598,2018 Medical Center Parkway,TN,37129
FireHouse Subs,Fairhope,599,#599 599,113 South Greeno Road,AL,36532
FireHouse Subs,Lauderhill,600,#600 600,7542 W. Commercial Blvd,FL,33319
FireHouse Subs,Blue Ash,601,#601 601,4924 Hunt Road,OH,45242
FireHouse Subs,McMurray,602,#602 602,126 Gallery Drive,PA,15317
FireHouse Subs,Owings Mills,603,#603 603,10359 Reisterstown Road,MD,21117
FireHouse Subs,Fultondale,604,#604 604,3477 Lowery ParkwaySte 115,AL,35068
FireHouse Subs,Maplewood,605,#605 605,2303 White Bear Ave.Suite G,MN,55109
FireHouse Subs,Danvers,606,#606 606,35 Independence Way,MA,923
FireHouse Subs,Newport News,607,#607 607,12515 Jefferson Ave.,VA,23602
FireHouse Subs,Roanoke,608,#608 608,5050 Rutgers St.,VA,24012
FireHouse Subs,Hammond,609,#609 609,1750 W. Thomas StreetSuite A,LA,70401
FireHouse Subs,Woodbridge,610,#610 610,13305 Worth Ave.,VA,22192
FireHouse Subs,Liberty,611,#611 611,228 N. Hwy 291,MO,64068
FireHouse Subs,Baytown,615,#615 615,6405 Garth Rd.Suite 100,TX,77521
FireHouse Subs,Indianapolis,616,#616 616,4576-4578 S. Emerson Avenue,IN,46203
FireHouse Subs,Naperville,618,#618 618,1979 McDowell Rd.#101,IL,60563
FireHouse Subs,Niles,619,#619 619,9600 N. Milwaukee Avenue,IL,60714
FireHouse Subs,Margate,620,#620 620,5516 W. Sample Road,FL,33073
FireHouse Subs,Allentown,621,#621 621,1824 Airport Rd,PA,18109
FireHouse Subs,Evansville,622,#622 622,1031 N. Green River Rd.#102,IN,47715
FireHouse Subs,Orange Park,623,#623 623,36B Blanding Blvd,FL,32073
FireHouse Subs,Norfolk,624,#624 624,5802 E. Virginia Beach Blvd#117,VA,23502
FireHouse Subs,Charleston,625,#625 625,2828 Mountaineer Blvd.,WV,25309
FireHouse Subs,Nicholasville,626,#626 626,455 Keene Centre Dr.call for directions,KY,40356
FireHouse Subs,Hendersonville,627,#627 627,280 Indian Lake Blvd.Suite 120,TN,37075
FireHouse Subs,Green Bay,628,#628 628,2665 S. Oneida St.Suite E,WI,54304
FireHouse Subs,Gambrills,629,#629 629,2622 Brandermill Blvd.,MD,21054
FireHouse Subs,Hoover,630,#630 630,181 Main StreetSuite 213,AL,35244
FireHouse Subs,Oceanside,631,#631 631,2619-B1 Vista Way,CA,92054
FireHouse Subs,Salt Lake City,632,#632 632,3798 South 700 East,UT,84106
FireHouse Subs,Searcy,633,#633 633,1547 East Race AvenueUnit #4,AR,72143
FireHouse Subs,Davie,634,#634 634,5975 S. University Drive,FL,33328
FireHouse Subs,Winston-Salem,635,#635 635,Hanes MallFood Court,NC,27103
FireHouse Subs,Orem,636,#636 636,538 East University Parkway,UT,84097
FireHouse Subs,Lone Tree,637,#637 637,9992 Commons St.Suite 120,CO,8024
FireHouse Subs,Destin,638,#638 638,34737 Emerald Coast ParkwaySuite #5,FL,32541
FireHouse Subs,Council Bluffs,640,#640 640,3815 Metro DriveSuite 200,IA,51501
FireHouse Subs,Newnan,641,#641 641,226 Newnan Crossing Bypass,GA,30265
FireHouse Subs,Winter Garden,643,#643 643,3119 Daniels Rd.Ste #102,FL,34787
FireHouse Subs,Fairfax,644,#644 644,9548-D Main Street,VA,22031
FireHouse Subs,Chantilly,646,#646 646,13812 Metrotech Drive,VA,20151
FireHouse Subs,Milton,647,#647 647,6570 Caroline St.Ste A,FL,32570
FireHouse Subs,Brighton,648,#648 648,101 Brookside Lane,MI,48116
FireHouse Subs,Midlothian,649,#649 649,12059 Southshore Pointe Dr.,VA,23112
FireHouse Subs,Spring Hill,650,#650 650,4185 Mariner Blvd.,FL,34609
FireHouse Subs,Las Vegas,651,#651 651,6070 S. Rainbow Blvd.Ste. 1,NV,89118
FireHouse Subs,Cincinnati,652,#652 652,3659 Stone Creek Blvd.Suite B,OH,45251
FireHouse Subs,Fort Wayne,653,#653 653,5215 Illinois Rd.,IN,46804
FireHouse Subs,Cleveland,654,#654 654,615 Paul Huff Pkwy,TN,37312
FireHouse Subs,Juncos,656,#656 656,PR-30 at PR-31,PR,777
FireHouse Subs,Lafayette,657,#657 657,170 South Creasy LaneSuite 1720,IN,47905
FireHouse Subs,Spartanburg,658,#658 658,159 S. Pine St.Suite A,SC,29302
FireHouse Subs,Marietta,659,#659 659,145 N Marietta Pkwy NE,GA,30060
FireHouse Subs,Mesa,660,#660 660,1616 S. Stapley Dr.Ste. 101,AZ,85204
FireHouse Subs,Woburn,661,#661 661,103 Commerce WaySuite C1,MA,1801
FireHouse Subs,Queen Creek,662,#662 662,20851 E. Rittenhouse Rd.Ste 101,AZ,85142
FireHouse Subs,Columbus,663,#663 663,1511 Hilliard Rome Road,OH,43228
FireHouse Subs,Columbia,665,#665 665,3250 Forest Drive,SC,29204
FireHouse Subs,Sterling,668,#668 668,47010 Community PlazaSuite 110,VA,20164
FireHouse Subs,San Diego,669,#669 669,3625 Midway Dr.Ste. 20A,CA,92110
FireHouse Subs,Greenwood,670,#670 670,884 North US 31,IN,46142
FireHouse Subs,Las Vegas,671,#671 671,9921 W. Charleston Blvd.Ste 4,NV,89117
FireHouse Subs,Oxford,674,#674 674,552 Oxford Exchange Blvd.,AL,36203
FireHouse Subs,Bridgeport,675,#675 675,139 Conference Center Way,WV,26330
FireHouse Subs,Cincinnati,676,#676 676,11711 Princeton PikeSuite 461,OH,45246
FireHouse Subs,Florence,677,#677 677,6805 Houston Rd.,KY,41042
FireHouse Subs,Cookeville,678,#678 678,670 S. Jefferson Ave,TN,38501
FireHouse Subs,Norfolk,679,#679 679,300 Monticello Ave,VA,23510
FireHouse Subs,Gahanna,680,#680 680,406 Granville Street,OH,43230
FireHouse Subs,San Juan,681,#681 681,525 FD Roosevelt Ave.,PR,918
FireHouse Subs,Waycross,682,#682 682,1905 Memorial Drive,GA,31501
FireHouse Subs,Mayfield Heights,683,#683 683,6232 Mayfield Road,OH,44124
FireHouse Subs,Chesterfield,684,#684 684,1649 Clarkson Rd,MO,63017
FireHouse Subs,Springfield,685,#685 685,4101 Wabash Ave.Ste A,IL,62711
FireHouse Subs,Cincinnati,686,#686 686,7426 Beechmont Ave.#204,OH,45255
FireHouse Subs,Apopka,687,#687 687,1608 W. Orange Blossom Trail,FL,32712
FireHouse Subs,Eustis,688,#688 688,2712 E. Burleigh Blvd.,FL,32726
FireHouse Subs,Portsmouth,689,#689 689,4028 Victory Blvd.,VA,23701
FireHouse Subs,Pensacola,690,#690 690,5998 Mobile HwySuite 8,FL,32526
FireHouse Subs,Boston,691,#691 691,545 Boylston Street,MA,2116
FireHouse Subs,Munster,692,#692 692,8153 Calumet Ave.D-1,IN,46321
FireHouse Subs,Columbus,693,#693 693,955 W 5th Ave,OH,43212
FireHouse Subs,Oakwood,694,#694 694,3650 Mundy Mill Rd.,GA,30566
FireHouse Subs,Caguas,697,#697 697,PR-156 & Los Prados Blvd.,PR,727
FireHouse Subs,Guaynabo,698,#698 698,Ave. Gonzalez Giusti,PR,968
FireHouse Subs,Conroe,699,#699 699,3021 I-45 North,TX,77304
FireHouse Subs,Pigeon Forge,700,#700 700,2726 Parkway,TN,37863
FireHouse Subs,Lubbock,701,#701 701,5027 Milwaukee AvenueSuite 200,TX,79407
FireHouse Subs,Germantown,702,#702 702,19851 Century Boulevard,MD,20874
FireHouse Subs,Columbia,703,#703 703,1940 Shady Brook Street,TN,38401
FireHouse Subs,Huntsville,704,#704 704,1079 Balch RdSuite A,AL,35758
FireHouse Subs,Cincinnati,705,#705 705,215 Calhoun St.,OH,45219
FireHouse Subs,Fort Worth,710,#710 710,9180 N FreewaySte 524,TX,76177
FireHouse Subs,Rosenberg,711,#711 711,23511 Brazos Town Crossing,TX,77471
FireHouse Subs,Greensboro,712,#712 712,1605 Westover Terrace,NC,27408
FireHouse Subs,Aurora,713,#713 713,24300 E. Smoky Hill Rd.Suite 128,CO,80016
FireHouse Subs,Boca Raton,714,#714 714,1920 NE 5th Ave,FL,33432
FireHouse Subs,Altamonte Springs,717,#717 717,600 E Altamonte DriveSte 1050,FL,32701
FireHouse Subs,Aurora,718,#718 718,405 N. Eola RoadUnit N,IL,60502
FireHouse Subs,Collierville,721,#721 721,910 W. Poplar Ave.Suite 3,TN,38017
FireHouse Subs,Indianapolis,722,#722 722,5963 E. 82nd Street,IN,46250
FireHouse Subs,Cranberry Township,723,#723 723,20436 US HWY 19Suite 600,PA,16066
FireHouse Subs,Mount Prospect,724,#724 724,1 W. Rand Road,IL,60056
FireHouse Subs,Toa Baja,725,#725 725,Los Palacios Mall Carretera 167 Km 14.5,PR,953
FireHouse Subs,Guaynabo,726,#726 726,Los Jardines de Guaynabo Mall Marginal Expreso Martinez Nadal 21B,PR,969
FireHouse Subs,Levittown,727,#727 727,3359A Hempstead Turnpike,NY,11756
FireHouse Subs,Chandler,729,#729 729,2100 S. Gilbert RoadSte. 11,AZ,85286
FireHouse Subs,Simpsonville,730,#730 730,679 Fairview Road,SC,29680
FireHouse Subs,Albuquerque,731,#731 731,4411 San Mateo Blvd NESuite E9,NM,87109
FireHouse Subs,Charlotte,732,#732 732,12806 S. Tryon St.Ste 280,NC,28273
FireHouse Subs,Norman,733,#733 733,320 12th Ave SESuite 120,OK,73071
FireHouse Subs,Sterling,734,#734 734,20921 Davenport DriveUnit 112,VA,20165
FireHouse Subs,Vienna,735,#735 735,107 Grand Central AvenueSuite C,WV,26105
FireHouse Subs,East Lansing,736,#736 736,245 Ann Street,MI,48823
FireHouse Subs,Lincoln,737,#737 737,1317 Q Street,NE,68508
FireHouse Subs,Orange City,738,#738 738,2499-L Enterprise Road,FL,32764
FireHouse Subs,Williamsville,739,#739 739,5205 Transit Rd.Ste 200,NY,14221
FireHouse Subs,Marietta,740,#740 740,2900 Delk Rd.Suite 4A,GA,30068
FireHouse Subs,Orland Park,741,#741 741,15892 S. La Grange Road,IL,60462
FireHouse Subs,Athens,742,#742 742,1860 Barnett Shoals Rd.Suite 506,GA,30605
FireHouse Subs,Largo,743,#743 743,10801 Starkey Rd.Unit 3,FL,33777
FireHouse Subs,Largo,744,#744 744,10500 Ulmerton Rd.Suite 750,FL,33771
FireHouse Subs,Tampa,745,#745 745,2617 W. Kennedy Blvd.,FL,33609
FireHouse Subs,El Paso,747,#747 747,8889 Gateway West Blvd.Suite 525,TX,79925
FireHouse Subs,Elizabeth City,749,#749 749,316 W. Ehringhaus Street,NC,27909
FireHouse Subs,Lehi,750,#750 750,2975 West Clubhouse DriveSuite A,UT,84043
FireHouse Subs,Albuquerque,751,#751 751,3707 Ellison Dr. NWSuite I,NM,87107
FireHouse Subs,Burlington,752,#752 752,2471 S. Church Street,NC,27215
FireHouse Subs,Oviedo,753,#753 753,1016 Lockwood Blvd.,FL,32765
FireHouse Subs,Frederick,756,#756 756,1700 Kingfisher Dr.Suite 10,MD,21701
FireHouse Subs,Staunton,759,#759 759,1028 Richmond Ave.Suite 102,VA,24401
FireHouse Subs,Montgomery,761,#761 761,2890 Zelda Rd.,AL,36106
FireHouse Subs,Charlotte,762,#762 762,3920 Sharon RdSte 130-B,NC,28211
FireHouse Subs,Centreville,763,#763 763,14245-L Centreville Square,VA,20121
FireHouse Subs,Merrillville,765,#765 765,2627 E. 80th Ave.,IN,46410
FireHouse Subs,O'Fallon,766,#766 766,104 Laura K Dr,MO,63366
FireHouse Subs,Greenville,767,#767 767,1852 W. Arlington Blvd.,NC,27834
FireHouse Subs,Gaffney,768,#768 768,1542 Floyd Baker Blvd.,SC,29341
FireHouse Subs,Toledo,769,#769 769,5208A Monroe Street,OH,43623
FireHouse Subs,Memphis,771,#771 771,1571 Union Avenue,TN,38014
FireHouse Subs,Hinesville,772,#772 772,556 West Oglethorpe Hwy,GA,31313
FireHouse Subs,Baton Rouge,773,#773 773,5140 Corporate Blvd.,LA,70808
FireHouse Subs,Mount Juliet,774,#774 774,650 S. Mt. Juliet Rd.#330,TN,37122
FireHouse Subs,Portage,775,#775 775,6536 US Hwy 6,IN,46368
FireHouse Subs,Las Vegas,777,#777 777,5905 S. Eastern Ave.Suite 109,NV,89119
FireHouse Subs,Kansas City,779,#779 779,8600 Ward ParkwaySuite 2128,MO,64114
FireHouse Subs,Strongsville,780,#780 780,17250 Royalton Rd.,OH,44136
FireHouse Subs,Colorado Springs,781,#781 781,7543 N. Academy Blvd,CO,80920
FireHouse Subs,Fort Collins,782,#782 782,2120 E Harmony RdSuite 101,CO,80528
FireHouse Subs,Lilburn,783,#783 783,4145 Lawrenceville HighwaySte. 16,GA,30047
FireHouse Subs,Westminster,784,#784 784,625 Baltimore BlvdSuite R,MD,21157
FireHouse Subs,Raleigh,785,#785 785,7901 Falls of Neuse Rd.,NC,27615
FireHouse Subs,Doral,786,#786 786,3887 NW 107th AveSuite 102,FL,33178
FireHouse Subs,McDonough,787,#787 787,2109 Jonesboro Rd.Ste. 15,GA,30253
FireHouse Subs,Knoxville,788,#788 788,4419 Western Avenue#101,TN,37920
FireHouse Subs,Fairview Heights,789,#789 789,5909 North Illinois Street,IL,62202
FireHouse Subs,Franklin,790,#790 790,1707 North Morton Street,IN,46131
FireHouse Subs,Lenoir City,791,#791 791,149 Kelsey LaneSuite 101,TN,37772
FireHouse Subs,Johns Creek,792,#792 792,6395 McGinnis Ferry Rd.Suite 303,GA,30005
FireHouse Subs,Starkville,793,#793 793,327 Highway 12 West,MS,39759
FireHouse Subs,Stillwater,794,#794 794,524 W. 6th Ave,OK,74074
FireHouse Subs,Henderson,795,#795 795,510 Marks St.Unit B-1 Ste 110,NV,89014
FireHouse Subs,Las Vegas,796,#796 796,7865 W. Sahara Blvd.Suite 105,NV,89117
FireHouse Subs,Milledgeville,797,#797 797,1909 North Columbia St.Suite C,GA,31061
FireHouse Subs,Jefferson City,798,#798 798,2103 Missouri Blvd.Suite D,MO,65109
FireHouse Subs,Canovanas,799,#799 799,Carretera #3 KM 17.8 Local 18B,PR,729
FireHouse Subs,Franklin,800,#800 800,1844 West McEwen Dr.,TN,37067
FireHouse Subs,Flowery Branch,801,#801 801,5911 Spout Springs Rd.Suite B,GA,30542
FireHouse Subs,Brownsburg,802,#802 802,124 East Northfield Dr,IN,46112
FireHouse Subs,Mentor,803,#803 803,9209 Mentor Ave.,OH,44060
FireHouse Subs,Vega Baja,804,#804 804,Carretera #2 Km 39.3 Las Vegas Mall,PR,693
FireHouse Subs,Omaha,805,#805 805,17010 Wright PlazaSte 145,NE,68164
FireHouse Subs,Blue Springs,806,#806 806,715 North Highway 7,MO,64014
FireHouse Subs,Tifton,807,#807 807,909 W. 8th Street,GA,31794
FireHouse Subs,Athens,808,#808 808,935 Hwy 72 E.Suite A,AL,35611
FireHouse Subs,Wauwatosa,809,#809 809,1701 N. Mayfair Rd.,WI,53226
FireHouse Subs,Madison,811,#811 811,1403 Emil St.,WI,53713
FireHouse Subs,Indianapolis,812,#812 812,5841 Crawfordsville Rd.Suite 104,IN,46224
FireHouse Subs,Elm Grove,813,#813 813,15280 West Bluemound Rd.,WI,53122
FireHouse Subs,Saint George,814,#814 814,15 South River RoadSte 310,UT,84790
FireHouse Subs,Dayton,815,#815 815,8436 Old Troy Pike,OH,45424
FireHouse Subs,Omaha,816,#816 816,715 S 72nd Street,NE,68114
FireHouse Subs,Plantation,817,#817 817,801 S. University Drive,FL,33324
FireHouse Subs,Katy,819,#819 819,20900 Katy Freeway,TX,7749
FireHouse Subs,Port Charlotte,821,#821 821,18500 Veterans Blvd,FL,33954
FireHouse Subs,Encinitas,822,#822 822,132 North El Camino Road,CA,92024
FireHouse Subs,Jacksonville,823,#823 823,1620 Margaret StreetSuite 105,FL,32204
FireHouse Subs,Woodmere,824,#824 824,3439 W. Brainard Road,OH,44122
FireHouse Subs,Fremont,825,#825 825,43344 Boscell Rd.,CA,94538
FireHouse Subs,Phoenix,827,#827 827,15530 N. Tatum Blvd.Ste. 130,AZ,85032
FireHouse Subs,Pooler,828,#828 828,481 Pooler Pkwy,GA,31322
FireHouse Subs,Lawrenceville,829,#829 829,3371 US Highway 1,NJ,8648
FireHouse Subs,Birmingham,830,#830 830,1928-B 11th Ave. S.,AL,35205
FireHouse Subs,Virginia Beach,831,#831 831,2165 General Booth Blvd.Ste 156,VA,23454
FireHouse Subs,Lakeway,832,#832 832,900 State Road 620Suite A110,TX,78734
FireHouse Subs,Harrisonburg,833,#833 833,1820 Evelyn Byrd Ave.Suite 170,VA,22801
FireHouse Subs,Laguna Woods,835,#835 835,24100 El Toro Rd.Suite B,CA,92637
FireHouse Subs,Glen Allen,837,#837 837,1070 Virginia Center Pwky#107,VA,23059
FireHouse Subs,Mesa,838,#838 838,10720 E. Southern Ave.Ste 112d,AZ,85209
FireHouse Subs,Berkley,839,#839 839,28557 Woodward Ave.,MI,48072
FireHouse Subs,Indianapolis,841,#841 841,6280 College Avenue,IN,46220
FireHouse Subs,Hot Springs,842,#842 842,4403-D Central Avenue,AR,71913
FireHouse Subs,Plymouth,843,#843 843,41608 Ann Arbor Rd.,MI,48170
FireHouse Subs,Sioux Falls,845,#845 845,3504 W 41st Street,SD,57106
FireHouse Subs,Northville,846,#846 846,20570 Haggerty Rd.,MI,48167
FireHouse Subs,Shawnee,847,#847 847,6415 Quivira Rd.,KS,66216
FireHouse Subs,Gastonia,850,#850 850,2290 E. Franklin Blvd.Ste. 100,NC,28056
FireHouse Subs,Stafford,851,#851 851,1036 Warrenton Road#103,VA,22406
FireHouse Subs,Greenville,852,#852 852,1781 Woodruff Road,SC,29607
FireHouse Subs,Fort Wayne,853,#853 853,4423 Coldwater Road,IN,46825
FireHouse Subs,Grand Rapids,854,#854 854,2090 Celebration Dr.Suite 124,MI,49525
FireHouse Subs,Lexington,855,#855 855,141 Rojay Dr.Suite 420,KY,40511
FireHouse Subs,St. Charles,856,#856 856,1365 Bass Pro DriveUnit 5C,MO,63303
FireHouse Subs,Houston,857,#857 857,14520-L Memorial Dr.,TX,77079
FireHouse Subs,Tupelo,858,#858 858,2438 West Main St.,MS,38801
FireHouse Subs,Warrenton,859,#859 859,251 West Lee HighwaySuite #634,VA,20186
FireHouse Subs,Hampton,860,#860 860,2040 Coliseum Dr.,VA,23666
FireHouse Subs,Wayne,861,#861 861,1050 Hamburg Turnpike,NJ,7470
FireHouse Subs,Colorado Springs,862,#862 862,3604 Austin Bluffs Parkway#110,CO,80918
FireHouse Subs,Lithia Springs,863,#863 863,1300 W. Corporate Ct.,GA,30122
FireHouse Subs,Mt. Pleasant,866,#866 866,1729 South Mission,MI,48858
FireHouse Subs,Oklahoma City,868,#868 868,5959 NW Expressway,OK,73132
FireHouse Subs,Nashua,869,#869 869,341 Amherst St.,NH,3063
FireHouse Subs,Latham,870,#870 870,860 Loudon Rd.,NY,12110
FireHouse Subs,Broken Arrow,871,#871 871,1124 North 9th St.,OK,74012
FireHouse Subs,Castle Rock,872,#872 872,3993 Limelight Ave.,CO,80109
FireHouse Subs,Austell,875,#875 875,2860 East West Connector,GA,30106
FireHouse Subs,Sterling Heights,876,#876 876,15064 Hall Road,MI,48313
FireHouse Subs,Fayetteville,878,#878 878,5590 Camden Road,NC,28306
FireHouse Subs,Flower Mound,880,#880 880,6100 Long Prarie Rd.Suite 150A,TX,75028
FireHouse Subs,Simi Valley,882,#882 882,1263 H1 Simi Town Center Way,CA,93065
FireHouse Subs,Las Vegas,883,#883 883,7250 S. Durango DriveSte 160,NV,89113
FireHouse Subs,Littleton,884,#884 884,8555 W. Belleview Ave.#2625-A,CO,80123
FireHouse Subs,Ballwin,885,#885 885,14948 Manchester Rd,MO,63011
FireHouse Subs,Henderson,886,#886 886,10624 S Eastern Ave,NV,89052
FireHouse Subs,Madison,887,#887 887,7854 Mineral Point Rd.,WI,53717
FireHouse Subs,Highland Heights,888,#888 888,2790 Alexandria Pike,KY,41076
FireHouse Subs,Clarksville,889,#889 889,3075 Wilma Rudolph Blvd.,TN,37040
FireHouse Subs,Moore,891,#891 891,1301 S. I35 Service Rd.,OK,73160
FireHouse Subs,Pittsburgh,894,#894 894,320 McHolme Drive,PA,15275
FireHouse Subs,Bessemer,895,#895 895,4917 Promenade PkwySuite 105,AL,35022
FireHouse Subs,The Woodlands,896,#896 896,1640 Lake Woodlands Dr,TX,77380
FireHouse Subs,Bayamón,898,#898 898,Carretera 830 Km 0.5 Barrio Cerro Gordo,PR,957
FireHouse Subs,Roseville,899,#899 899,27115 Gratiiot Ave.,MI,48066
FireHouse Subs,Centennial,902,#902 902,9445 E. County Line Rd.Suite B,CO,80112
FireHouse Subs,South Jordan,903,#903 903,10610 South Redwood RoadSuite F2,UT,84095
FireHouse Subs,Waterford,904,#904 904,5832 Highland Rd.,MI,48327
FireHouse Subs,Springfield,906,#906 906,4135 South National Avenue,MO,65807
FireHouse Subs,Plymouth,908,#908 908,2855 Glacier LaneSuite 400,MN,55447
FireHouse Subs,Lansing,909,#909 909,200 S. Washington,MI,48933
FireHouse Subs,Villa Park,910,#910 910,100 E. Roosevelt Rd.,IL,60181
FireHouse Subs,Peachtree City,911,#911 911,321 Commerce Dr.,GA,30269
FireHouse Subs,Orange,913,#913 913,2139 N. Tustin St.,CA,92865
FireHouse Subs,Palm Springs,914,#914 914,5200 E. Ramon Rd.Suite G4,CA,92264
FireHouse Subs,McAllen,916,#916 916,4901 W. Expy 83Suite 125,TX,78503
FireHouse Subs,Fuquay Varina,917,#917 917,1303 N. Main St.,NC,27526
FireHouse Subs,Gilbert,918,#918 918,2894 S. Santan Village PkwySte. 101,AZ,85295
FireHouse Subs,Lakewood,919,#919 919,195 S. Union Blvd.Suite 140,CO,80228
FireHouse Subs,Russellville,923,#923 923,2005 North Arkansas,AR,72801
FireHouse Subs,Muskegon,924,#924 924,3194 Henry St.,MI,49441
FireHouse Subs,Covington,926,#926 926,4127 Hwy 278 NW,GA,30014
FireHouse Subs,Tyler,927,#927 927,3304 Troup Hwy,TX,75071
FireHouse Subs,New Smyrna Beach,928,#928 928,1998 State Road 44Unit #3,FL,32168
FireHouse Subs,Lawrence,929,#929 929,2000 W. 31st St.Suite A,KS,66046
FireHouse Subs,Winter Park,931,#931 931,528 S. Park Avenue,FL,32789
FireHouse Subs,Midland,933,#933 933,2900 West Loop 250 N.Suite 162,TX,79705
FireHouse Subs,Arvada,934,#934 934,7961 Wadsworth Blvd.,CO,80003
FireHouse Subs,Richfield,935,#935 935,6535 Lyndale Ave. South,MN,55423
FireHouse Subs,St. Cloud,937,#937 937,335 5th Avenue South,MN,56301
FireHouse Subs,Lexington Park,938,#938 938,22755 Maple Rd.,MD,20653
FireHouse Subs,Denver,940,#940 940,6345 E. Hampden Ave.Suite 102,CO,80222
FireHouse Subs,Asheville,941,#941 941,1334 Patton Ave.,NC,28806
FireHouse Subs,Houma,942,#942 942,1826 Martin Luther King Blvd.Ste. 1,LA,70360
FireHouse Subs,Dayton,945,#945 945,1534 Miamisburg Centerville Rd.,OH,45459
FireHouse Subs,Kettering,945,#945 945,4301 Far Hills Ave.,OH,45429
FireHouse Subs,Rochester Hills,947,#947 947,1480 N. Rochester Rd.,MI,48307
FireHouse Subs,Athens,948,#948 948,1226 Prince Ave,GA,30606
FireHouse Subs,Maryland Heights,949,#949 949,12316 Dorsett Rd.,MO,63043
FireHouse Subs,Biloxi,950,#950 950,296 Beauvoir Rd,MS,39530
FireHouse Subs,Boise,952,#952 952,1569 North Milwaukee Street,ID,83704
FireHouse Subs,Midland,953,#953 953,7215 Eastman Ave.,MI,48642
FireHouse Subs,San Antonio,954,#954 954,9961 IH-10 West,TX,78230
FireHouse Subs,Glen Ellyn,955,#955 955,279 Roosevelt Rd.,IL,60137
FireHouse Subs,Fayetteville,958,#958 958,46 Hudson PlazaSuite 39A,GA,30214
FireHouse Subs,Kingsland,959,#959 959,1393 GA Highway 40 East,GA,31548
FireHouse Subs,Las Vegas,960,#960 960,4761 S. Maryland Pkwy,NV,89119
FireHouse Subs,Evansville,963,#963 963,222 S. Red Bank RoadSuite L,IN,47712
FireHouse Subs,Jacksonville,964,#964 964,790 Skymarks Dr.Ste. 103,FL,32218
FireHouse Subs,Oklahoma City,965,#965 965,2410 W. Memorial Rd.Suite A,OK,73134
FireHouse Subs,Blasdell,966,#966 966,4405 Milestrip Rd.,NY,14219
FireHouse Subs,Corpus Christi,967,#967 967,6418 S. Staples St.Ste. 140,TX,78413
FireHouse Subs,Niagra Falls,968,#968 968,1900 Military Rd.,NY,14304
FireHouse Subs,West Valley City,969,#969 969,5567 West High Market DriveK-400,UT,84120
FireHouse Subs,Dayton,970,#970 970,6 Oakwood Ave.Suite A,OH,45409
FireHouse Subs,Eau Claire,971,#971 971,5413 Prill RoadSte. 3,WI,54701
FireHouse Subs,Somerset,974,#974 974,525 South US Highway 27,KY,42501
FireHouse Subs,Kyle,975,#975 975,5695 Kyle ParkwaySuite #110,TX,78640
FireHouse Subs,San Tan Valley,976,#976 976,1735 West Hunt HighwaySte. 103,AZ,85143
FireHouse Subs,Spring Hill,977,#977 977,1000 Crossings Blvd.Suite 1000,TN,37174
FireHouse Subs,Sacramento,979,#979 979,3830 Truxel Rd.Suite 100,CA,95834
FireHouse Subs,Wichita,980,#980 980,8007 E. Kellogg Dr.#18,KS,67207
FireHouse Subs,Chandler,982,#982 982,3731 S. Arizona Ave.Ste. 5,AZ,85248
FireHouse Subs,Columbus,983,#983 983,1132 W. Henderson Rd.,OH,43220
FireHouse Subs,Lumberton,984,#984 984,5082 Kahn Dr,NC,28358
FireHouse Subs,Kennesaw,987,#987 987,4250 Wade Green Rd.,GA,30144
FireHouse Subs,Riverdale,988,#988 988,4197 Riverdale Rd.,UT,84405
FireHouse Subs,Ithaca,989,#989 989,740 South Meadow Dr.Suite 1100,NY,14850
FireHouse Subs,Pompano Beach,990,#990 990,2313 N. Federal Hwy,FL,33062
FireHouse Subs,Cape Girardeau,991,#991 991,3047 Williams St.Ste. 108,MO,63703
FireHouse Subs,West Palm Beach,992,#992 992,4047 Okeechobee Blvd.#101,FL,33409
FireHouse Subs,Irving,993,#993 993,2450 N. Beltline Rd.,TX,75062
FireHouse Subs,Aurora,995,#995 995,3425 North Salida St.,CO,80011
FireHouse Subs,Richmond,996,#996 996,1146 Barnes Mill Rd.Suite 200,KY,40475
FireHouse Subs,West Chester,997,#997 997,9336 Union Centre Blvd.,OH,45069
FireHouse Subs,Conyers,998,#998 998,1565 Highway 138 Suite A,GA,30013
FireHouse Subs,Indianapolis,999,#999 999,47 South Illinois Street,IN,46204
FireHouse Subs,Ashburn,1002,#1002 1002,20544 Easthampton Plaza,VA,20147
FireHouse Subs,Yuma,1003,#1003 1003,1630 S. Pacific Ave.#107,AZ,85365
FireHouse Subs,Cypress,1004,#1004 1004,17400 Spring Cypress#100-B,TX,77429
FireHouse Subs,Pearland,1005,#1005 1005,2326 N. Main St.,TX,77581
FireHouse Subs,Humble,1008,#1008 1008,6900 FM 1960 E. Unit 7036A-2,TX,77346
FireHouse Subs,Aurora,1009,#1009 1009,"15405 E. Briarwood Cir.Unit B, Suite D",CO,80016
FireHouse Subs,Lakeland,1010,#1010 1010,4141 US Hwy 98 N.,FL,33809
FireHouse Subs,Escondido,1012,#1012 1012,880 W. Valley Parkway,CA,92025
FireHouse Subs,Tempe,1013,#1013 1013,20 E. University Dr.Ste. 101,AZ,85281
FireHouse Subs,Topsham,1014,#1014 1014,56 Topsham Fair Mall Rd.,ME,4086
FireHouse Subs,Oakville,1015,#1015 1015,4595 Chestnut Park Plaza,MO,63129
FireHouse Subs,Charleston,1016,#1016 1016,5707 Maccorckle Ave. SESuite 100,WV,25304
FireHouse Subs,Folsom,1017,#1017 1017,1001 East Bidwell #101,CA,95630
FireHouse Subs,Brentwood,1019,#1019 1019,700 Old Hickory Blvd.Suite 201,TN,37027
FireHouse Subs,Maple Grove,1020,#1020 1020,11649 Fountains DriveSte A-3,MN,55369
FireHouse Subs,Elizabethtown,1021,#1021 1021,1570 N. Dixie HighwaySuite 106,KY,42701
FireHouse Subs,Las Vegas,1023,#1023 1023,2208 S. Nellis Blvd.Suite 6,NV,89104
FireHouse Subs,Isla Vista,1024,#1024 1024,6530 Seville Rd.,CA,93117
FireHouse Subs,Charlottesville,1026,#1026 1026,100 29th Place Ct.Suite 210,VA,22901
FireHouse Subs,San Antonio,1027,#1027 1027,2611 SE Military DriveSuite 101,TX,78223
FireHouse Subs,Scottsdale,1029,#1029 1029,14740 N. Northsight Blvd.,AZ,85260
FireHouse Subs,Atlanta,1030,#1030 1030,225 Peachtree St. NESte. B-27,GA,30303
FireHouse Subs,Pembroke Pines,1034,#1034 1034,15711 Pines Blvd.,FL,33027
FireHouse Subs,Orlando,1036,#1036 1036,12515 SR 535Ste. 515,FL,32836
FireHouse Subs,Granite City,1037,#1037 1037,3214 Nameoki Road,IL,62040
FireHouse Subs,Boynton Beach,1038,#1038 1038,9903 S. Military Trail,FL,33436
FireHouse Subs,Herndon,1042,#1042 1042,2545 Centreville Rd.,VA,20171
FireHouse Subs,Provo,1043,#1043 1043,64 West Bulldog Blvd,UT,84604
FireHouse Subs,Las Vegas,1044,#1044 1044,6171 N. DecaturSte. 170,NV,89130
FireHouse Subs,St. Louis,1045,#1045 1045,38 Hampton Village Plaza,MO,63109
FireHouse Subs,Arden,1048,#1048 1048,229 Airport Rd.#5,NC,28704
FireHouse Subs,Logan,1049,#1049 1049,1077 N. Main St.#110,UT,84341
FireHouse Subs,Cayey,1051,#1051 1051,Perez Hermanos Plaza Carretera #1 KM 56.2 Barrio Monte Llano,PR,736
FireHouse Subs,Chesterfield,1054,#1054 1054,79 Forum Center,MO,63017
FireHouse Subs,Pickerington,1057,#1057 1057,152 Clint Drive,OH,43147
FireHouse Subs,Fort Worth,1060,#1060 1060,1600 W. Rosedale St.,TX,76104
FireHouse Subs,Beaverton,1062,#1062 1062,2755 SW Cedar Hills Blvd.Suite 102,OR,97005
FireHouse Subs,Greenfield,1066,#1066 1066,22 East McClarnon Dr.,IN,46140
FireHouse Subs,Ft. Myers,1067,#1067 1067,3398 Forum Blvd.Unit 116,FL,33905
FireHouse Subs,Vancouver,1071,#1071 1071,19151 SE Mill Plain BlvdSuite 102,WA,98683
FireHouse Subs,Longmont,1073,#1073 1073,2343 Clover Basin Dr.,CO,80501
FireHouse Subs,Comstock Park,1074,#1074 1074,3850 Alpine Ave.,MI,49321
FireHouse Subs,Paducah,1075,#1075 1075,5194 Hinkleville Rd.,KY,42001
FireHouse Subs,Lakewood,1078,#1078 1078,8000 E. Belleview Ave.#D40,CO,80228
FireHouse Subs,Mesquite,1082,#1082 1082,18661 LBJ Freeway,TX,75150
FireHouse Subs,Mesa,1084,#1084 1084,2727 E. McKellips Rd.Ste. 114,AZ,85203
FireHouse Subs,Tucson,1086,#1086 1086,475 W. Wetmore,AZ,85705
FireHouse Subs,Dacula,1088,#1088 1088,3465 Braselton HighwaySte. 150,GA,30019
FireHouse Subs,Charlotte,1089,#1089 1089,1500 E. Third St.,NC,28204
FireHouse Subs,Papillion,1093,#1093 1093,8920 S. 71stSuite 105,NE,68133
FireHouse Subs,Fayetteville,1094,#1094 1094,1445 Walter Reed Rd.,NC,28304
FireHouse Subs,Phoenix,1096,#1096 1096,4025 E. Chandler Blvd.Suite #68,AZ,85048
FireHouse Subs,Florissant,1098,#1098 1098,2312 N. Hwy 67,MO,63033
FireHouse Subs,Morganton,1100,#1100 1100,905 N. Green St.,NC,28655
FireHouse Subs,Fargo,1101,#1101 1101,5675 26th Ave. S.,ND,58103
FireHouse Subs,Wyomissing,1105,#1105 1105,1665 State Hill Rd.,PA,19610
FireHouse Subs,Champaign,1106,#1106 1106,803 W. Anthony Dr.#3-4,IL,61822
FireHouse Subs,North Charleston,1107,#1107 1107,8966 University Blvd.,SC,29406
FireHouse Subs,Edmond,1110,#1110 1110,1597 S. Broadway,OK,73013
FireHouse Subs,Yuma,1119,#1119 1119,2886 S. 4th Ave.Suite 300,AZ,85364
FireHouse Subs,Atlanta,1120,#1120 1120,2970 Cobb Pkwy SE,GA,30339
FireHouse Subs,Cumming,1121,#1121 1121,905 Market Place Blvd.Suite B,GA,30041
FireHouse Subs,Muncie,1131,#1131 1131,310 E. McGalliard Rd.,IN,47303
FireHouse Subs,Prattville,1137,#1137 1137,2586 Cobbs Ford Rd.,AL,36066
FireHouse Subs,Schererville,1143,#1143 1143,69 US Hwy 41Suite 315,IN,46375
FireHouse Subs,Sioux City,1149,#1149 1149,5008 Sergeant Rd.,IA,51106
FireHouse Subs,Totowa,1156,#1156 1156,205 US Hwy 46 W.,NJ,7512
FireHouse Subs,Humble,1160,#1160 1160,9473 FM 1960 Bypass W,TX,77338
FireHouse Subs,Sioux Falls,1163,#1163 1163,5200 E. Arrowhead Pkwy,SD,57110
